{
"type": "FeatureCollection",
"name": "bus stand ",
"crs": { "type": "name", "properties": { "name": "urn:ogc:def:crs:OGC:1.3:CRS84" } },
"features": [
{ "type": "Feature", "properties": { "full_id": "n7130290899", "osm_id": "7130290899", "osm_type": "node", "public_transport": "platform", "kerb": null, "description": null, "bin": null, "tactile_paving": null, "passenger_information_display": null, "lit": null, "surface": null, "departures_board": null, "network": null, "bench": null, "alt_name:en": null, "shelter": null, "ref": null, "operator": null, "name:ml": null, "name:en": null, "amenity": null, "name": null, "wheelchair": null, "highway": "bus_stop", "bus": "yes" }, "geometry": { "type": "Point", "coordinates": [ 76.9867831, 8.6013773 ] } },
{ "type": "Feature", "properties": { "full_id": "n7130278625", "osm_id": "7130278625", "osm_type": "node", "public_transport": "platform", "kerb": null, "description": null, "bin": null, "tactile_paving": null, "passenger_information_display": null, "lit": null, "surface": null, "departures_board": null, "network": null, "bench": null, "alt_name:en": null, "shelter": null, "ref": null, "operator": null, "name:ml": null, "name:en": null, "amenity": null, "name": null, "wheelchair": null, "highway": "bus_stop", "bus": "yes" }, "geometry": { "type": "Point", "coordinates": [ 76.9883971, 8.6025872 ] } },
{ "type": "Feature", "properties": { "full_id": "n7130309459", "osm_id": "7130309459", "osm_type": "node", "public_transport": "platform", "kerb": null, "description": null, "bin": null, "tactile_paving": null, "passenger_information_display": null, "lit": null, "surface": null, "departures_board": null, "network": null, "bench": null, "alt_name:en": null, "shelter": "no", "ref": null, "operator": null, "name:ml": "വാളിക്കോട്", "name:en": null, "amenity": null, "name": "Valikkode Junction", "wheelchair": null, "highway": "bus_stop", "bus": "yes" }, "geometry": { "type": "Point", "coordinates": [ 76.9959198, 8.6007116 ] } },
{ "type": "Feature", "properties": { "full_id": "n7130301275", "osm_id": "7130301275", "osm_type": "node", "public_transport": "platform", "kerb": null, "description": null, "bin": null, "tactile_paving": null, "passenger_information_display": null, "lit": null, "surface": null, "departures_board": null, "network": null, "bench": null, "alt_name:en": null, "shelter": null, "ref": null, "operator": null, "name:ml": null, "name:en": null, "amenity": null, "name": null, "wheelchair": null, "highway": "bus_stop", "bus": "yes" }, "geometry": { "type": "Point", "coordinates": [ 76.990255, 8.601924 ] } },
{ "type": "Feature", "properties": { "full_id": "n7130314794", "osm_id": "7130314794", "osm_type": "node", "public_transport": "platform", "kerb": null, "description": null, "bin": null, "tactile_paving": null, "passenger_information_display": null, "lit": null, "surface": null, "departures_board": null, "network": null, "bench": null, "alt_name:en": null, "shelter": null, "ref": null, "operator": null, "name:ml": null, "name:en": null, "amenity": null, "name": "Koppam", "wheelchair": null, "highway": "bus_stop", "bus": "yes" }, "geometry": { "type": "Point", "coordinates": [ 76.9942813, 8.6004918 ] } },
{ "type": "Feature", "properties": { "full_id": "n7459280920", "osm_id": "7459280920", "osm_type": "node", "public_transport": "station", "kerb": null, "description": null, "bin": null, "tactile_paving": null, "passenger_information_display": null, "lit": null, "surface": null, "departures_board": null, "network": null, "bench": null, "alt_name:en": null, "shelter": null, "ref": null, "operator": null, "name:ml": null, "name:en": null, "amenity": "bus_station", "name": "Kerala State Transport Corporation Bus Stand", "wheelchair": null, "highway": null, "bus": "yes" }, "geometry": { "type": "Point", "coordinates": [ 77.0035783, 8.6054656 ] } },
{ "type": "Feature", "properties": { "full_id": "n8198414617", "osm_id": "8198414617", "osm_type": "node", "public_transport": "platform", "kerb": null, "description": null, "bin": "no", "tactile_paving": null, "passenger_information_display": null, "lit": "no", "surface": null, "departures_board": null, "network": null, "bench": "no", "alt_name:en": null, "shelter": "yes", "ref": null, "operator": null, "name:ml": null, "name:en": null, "amenity": null, "name": "11 Stone to Thiruvananthapuram Bus Stop", "wheelchair": null, "highway": "bus_stop", "bus": "yes" }, "geometry": { "type": "Point", "coordinates": [ 76.9977819, 8.6037624 ] } },
{ "type": "Feature", "properties": { "full_id": "n7130311403", "osm_id": "7130311403", "osm_type": "node", "public_transport": "platform", "kerb": null, "description": null, "bin": null, "tactile_paving": null, "passenger_information_display": null, "lit": null, "surface": null, "departures_board": null, "network": null, "bench": null, "alt_name:en": null, "shelter": null, "ref": null, "operator": null, "name:ml": null, "name:en": null, "amenity": null, "name": null, "wheelchair": null, "highway": "bus_stop", "bus": "yes" }, "geometry": { "type": "Point", "coordinates": [ 76.9833111, 8.6019631 ] } },
{ "type": "Feature", "properties": { "full_id": "n7994613103", "osm_id": "7994613103", "osm_type": "node", "public_transport": "platform", "kerb": null, "description": null, "bin": null, "tactile_paving": null, "passenger_information_display": null, "lit": null, "surface": null, "departures_board": null, "network": null, "bench": null, "alt_name:en": null, "shelter": null, "ref": null, "operator": null, "name:ml": null, "name:en": null, "amenity": null, "name": "Uzhappakonam", "wheelchair": null, "highway": "bus_stop", "bus": "yes" }, "geometry": { "type": "Point", "coordinates": [ 77.0230237, 8.6218598 ] } },
{ "type": "Feature", "properties": { "full_id": "n7463645163", "osm_id": "7463645163", "osm_type": "node", "public_transport": "platform", "kerb": null, "description": null, "bin": null, "tactile_paving": null, "passenger_information_display": null, "lit": null, "surface": null, "departures_board": null, "network": null, "bench": null, "alt_name:en": null, "shelter": null, "ref": null, "operator": null, "name:ml": null, "name:en": null, "amenity": null, "name": null, "wheelchair": null, "highway": "bus_stop", "bus": "yes" }, "geometry": { "type": "Point", "coordinates": [ 76.9973782, 8.6122146 ] } },
{ "type": "Feature", "properties": { "full_id": "n7463645162", "osm_id": "7463645162", "osm_type": "node", "public_transport": "platform", "kerb": null, "description": null, "bin": null, "tactile_paving": null, "passenger_information_display": null, "lit": null, "surface": null, "departures_board": null, "network": null, "bench": null, "alt_name:en": null, "shelter": null, "ref": null, "operator": null, "name:ml": null, "name:en": null, "amenity": null, "name": null, "wheelchair": null, "highway": "bus_stop", "bus": "yes" }, "geometry": { "type": "Point", "coordinates": [ 76.9973155, 8.61559 ] } },
{ "type": "Feature", "properties": { "full_id": "n6922708614", "osm_id": "6922708614", "osm_type": "node", "public_transport": "platform", "kerb": null, "description": null, "bin": null, "tactile_paving": null, "passenger_information_display": null, "lit": null, "surface": null, "departures_board": "no", "network": null, "bench": "yes", "alt_name:en": null, "shelter": "yes", "ref": null, "operator": null, "name:ml": null, "name:en": null, "amenity": null, "name": "10th Stone Bus Stop", "wheelchair": null, "highway": "bus_stop", "bus": "yes" }, "geometry": { "type": "Point", "coordinates": [ 76.9956012, 8.5900626 ] } },
{ "type": "Feature", "properties": { "full_id": "n8405358630", "osm_id": "8405358630", "osm_type": "node", "public_transport": "platform", "kerb": null, "description": null, "bin": null, "tactile_paving": null, "passenger_information_display": null, "lit": null, "surface": null, "departures_board": null, "network": null, "bench": null, "alt_name:en": null, "shelter": null, "ref": null, "operator": null, "name:ml": null, "name:en": null, "amenity": null, "name": "Mele Thekkada", "wheelchair": null, "highway": "bus_stop", "bus": "yes" }, "geometry": { "type": "Point", "coordinates": [ 76.9636267, 8.6263206 ] } },
{ "type": "Feature", "properties": { "full_id": "n12996153132", "osm_id": "12996153132", "osm_type": "node", "public_transport": "platform", "kerb": null, "description": null, "bin": null, "tactile_paving": null, "passenger_information_display": null, "lit": null, "surface": null, "departures_board": null, "network": null, "bench": null, "alt_name:en": null, "shelter": null, "ref": null, "operator": null, "name:ml": null, "name:en": null, "amenity": null, "name": "Palam Junction", "wheelchair": null, "highway": "bus_stop", "bus": "yes" }, "geometry": { "type": "Point", "coordinates": [ 77.0198328, 8.6138019 ] } },
{ "type": "Feature", "properties": { "full_id": "n8366440671", "osm_id": "8366440671", "osm_type": "node", "public_transport": "platform", "kerb": null, "description": null, "bin": null, "tactile_paving": null, "passenger_information_display": null, "lit": null, "surface": null, "departures_board": null, "network": null, "bench": null, "alt_name:en": null, "shelter": null, "ref": null, "operator": null, "name:ml": null, "name:en": null, "amenity": null, "name": "Valikkode", "wheelchair": null, "highway": "bus_stop", "bus": "yes" }, "geometry": { "type": "Point", "coordinates": [ 76.9958676, 8.6010328 ] } },
{ "type": "Feature", "properties": { "full_id": "n7257628307", "osm_id": "7257628307", "osm_type": "node", "public_transport": "platform", "kerb": null, "description": null, "bin": null, "tactile_paving": null, "passenger_information_display": null, "lit": null, "surface": null, "departures_board": null, "network": null, "bench": null, "alt_name:en": null, "shelter": null, "ref": null, "operator": null, "name:ml": null, "name:en": null, "amenity": null, "name": null, "wheelchair": null, "highway": "bus_stop", "bus": "yes" }, "geometry": { "type": "Point", "coordinates": [ 76.9953828, 8.5875005 ] } },
{ "type": "Feature", "properties": { "full_id": "n7257628310", "osm_id": "7257628310", "osm_type": "node", "public_transport": "platform", "kerb": null, "description": null, "bin": "no", "tactile_paving": null, "passenger_information_display": null, "lit": "no", "surface": null, "departures_board": null, "network": null, "bench": "no", "alt_name:en": null, "shelter": "no", "ref": null, "operator": null, "name:ml": null, "name:en": null, "amenity": null, "name": "11 Stone Bus Stop", "wheelchair": null, "highway": "bus_stop", "bus": "yes" }, "geometry": { "type": "Point", "coordinates": [ 76.99798, 8.6040542 ] } },
{ "type": "Feature", "properties": { "full_id": "n7257628308", "osm_id": "7257628308", "osm_type": "node", "public_transport": "platform", "kerb": null, "description": null, "bin": null, "tactile_paving": null, "passenger_information_display": null, "lit": null, "surface": null, "departures_board": null, "network": null, "bench": null, "alt_name:en": null, "shelter": null, "ref": null, "operator": null, "name:ml": null, "name:en": null, "amenity": null, "name": null, "wheelchair": null, "highway": "bus_stop", "bus": "yes" }, "geometry": { "type": "Point", "coordinates": [ 76.9960103, 8.5963782 ] } },
{ "type": "Feature", "properties": { "full_id": "n7257628312", "osm_id": "7257628312", "osm_type": "node", "public_transport": "platform", "kerb": null, "description": null, "bin": null, "tactile_paving": null, "passenger_information_display": null, "lit": null, "surface": null, "departures_board": null, "network": null, "bench": null, "alt_name:en": null, "shelter": null, "ref": null, "operator": null, "name:ml": null, "name:en": null, "amenity": null, "name": null, "wheelchair": null, "highway": "bus_stop", "bus": "yes" }, "geometry": { "type": "Point", "coordinates": [ 77.0029204, 8.6036128 ] } },
{ "type": "Feature", "properties": { "full_id": "n7257628311", "osm_id": "7257628311", "osm_type": "node", "public_transport": "platform", "kerb": null, "description": null, "bin": null, "tactile_paving": null, "passenger_information_display": null, "lit": null, "surface": null, "departures_board": null, "network": null, "bench": null, "alt_name:en": null, "shelter": null, "ref": null, "operator": null, "name:ml": null, "name:en": null, "amenity": null, "name": null, "wheelchair": null, "highway": "bus_stop", "bus": "yes" }, "geometry": { "type": "Point", "coordinates": [ 77.0007862, 8.6035247 ] } },
{ "type": "Feature", "properties": { "full_id": "n7740688895", "osm_id": "7740688895", "osm_type": "node", "public_transport": "platform", "kerb": null, "description": null, "bin": null, "tactile_paving": null, "passenger_information_display": null, "lit": null, "surface": null, "departures_board": null, "network": null, "bench": null, "alt_name:en": null, "shelter": null, "ref": null, "operator": null, "name:ml": null, "name:en": null, "amenity": null, "name": "Koppam", "wheelchair": null, "highway": "bus_stop", "bus": "yes" }, "geometry": { "type": "Point", "coordinates": [ 76.9942452, 8.6004017 ] } },
{ "type": "Feature", "properties": { "full_id": "n7257622641", "osm_id": "7257622641", "osm_type": "node", "public_transport": "platform", "kerb": null, "description": null, "bin": null, "tactile_paving": null, "passenger_information_display": null, "lit": null, "surface": null, "departures_board": null, "network": null, "bench": null, "alt_name:en": null, "shelter": null, "ref": null, "operator": null, "name:ml": null, "name:en": null, "amenity": null, "name": null, "wheelchair": null, "highway": "bus_stop", "bus": "yes" }, "geometry": { "type": "Point", "coordinates": [ 76.9925315, 8.5966356 ] } },
{ "type": "Feature", "properties": { "full_id": "n12996153131", "osm_id": "12996153131", "osm_type": "node", "public_transport": "platform", "kerb": null, "description": null, "bin": null, "tactile_paving": null, "passenger_information_display": null, "lit": null, "surface": null, "departures_board": null, "network": null, "bench": null, "alt_name:en": null, "shelter": "yes", "ref": null, "operator": null, "name:ml": null, "name:en": null, "amenity": null, "name": "Palam Junction", "wheelchair": null, "highway": "bus_stop", "bus": "yes" }, "geometry": { "type": "Point", "coordinates": [ 77.0198979, 8.6137511 ] } },
{ "type": "Feature", "properties": { "full_id": "n7257622640", "osm_id": "7257622640", "osm_type": "node", "public_transport": "platform", "kerb": null, "description": null, "bin": "no", "tactile_paving": null, "passenger_information_display": null, "lit": "no", "surface": null, "departures_board": null, "network": null, "bench": "no", "alt_name:en": null, "shelter": "no", "ref": null, "operator": null, "name:ml": null, "name:en": null, "amenity": null, "name": "Netta", "wheelchair": null, "highway": "bus_stop", "bus": "yes" }, "geometry": { "type": "Point", "coordinates": [ 76.9952489, 8.607026 ] } },
{ "type": "Feature", "properties": { "full_id": "n12996108897", "osm_id": "12996108897", "osm_type": "node", "public_transport": "platform", "kerb": null, "description": null, "bin": null, "tactile_paving": null, "passenger_information_display": null, "lit": null, "surface": null, "departures_board": null, "network": null, "bench": null, "alt_name:en": null, "shelter": null, "ref": null, "operator": null, "name:ml": null, "name:en": null, "amenity": null, "name": null, "wheelchair": null, "highway": "bus_stop", "bus": "yes" }, "geometry": { "type": "Point", "coordinates": [ 77.0279979, 8.6347604 ] } },
{ "type": "Feature", "properties": { "full_id": "n7257622643", "osm_id": "7257622643", "osm_type": "node", "public_transport": "platform", "kerb": null, "description": null, "bin": null, "tactile_paving": null, "passenger_information_display": null, "lit": null, "surface": null, "departures_board": null, "network": null, "bench": null, "alt_name:en": null, "shelter": null, "ref": null, "operator": null, "name:ml": null, "name:en": null, "amenity": null, "name": null, "wheelchair": null, "highway": "bus_stop", "bus": "yes" }, "geometry": { "type": "Point", "coordinates": [ 76.9886338, 8.587588 ] } },
{ "type": "Feature", "properties": { "full_id": "n7257622642", "osm_id": "7257622642", "osm_type": "node", "public_transport": "platform", "kerb": null, "description": null, "bin": null, "tactile_paving": null, "passenger_information_display": null, "lit": null, "surface": null, "departures_board": null, "network": null, "bench": null, "alt_name:en": null, "shelter": null, "ref": null, "operator": null, "name:ml": null, "name:en": null, "amenity": null, "name": null, "wheelchair": null, "highway": "bus_stop", "bus": "yes" }, "geometry": { "type": "Point", "coordinates": [ 76.9910016, 8.5935442 ] } },
{ "type": "Feature", "properties": { "full_id": "n7130314928", "osm_id": "7130314928", "osm_type": "node", "public_transport": "platform", "kerb": null, "description": null, "bin": null, "tactile_paving": null, "passenger_information_display": null, "lit": null, "surface": null, "departures_board": null, "network": null, "bench": null, "alt_name:en": null, "shelter": null, "ref": null, "operator": null, "name:ml": null, "name:en": null, "amenity": null, "name": null, "wheelchair": null, "highway": "bus_stop", "bus": "yes" }, "geometry": { "type": "Point", "coordinates": [ 76.980364, 8.6003162 ] } },
{ "type": "Feature", "properties": { "full_id": "n7130314919", "osm_id": "7130314919", "osm_type": "node", "public_transport": "platform", "kerb": null, "description": null, "bin": null, "tactile_paving": null, "passenger_information_display": null, "lit": null, "surface": null, "departures_board": null, "network": null, "bench": null, "alt_name:en": null, "shelter": null, "ref": null, "operator": null, "name:ml": null, "name:en": null, "amenity": null, "name": null, "wheelchair": null, "highway": "bus_stop", "bus": "yes" }, "geometry": { "type": "Point", "coordinates": [ 76.9978696, 8.5998015 ] } },
{ "type": "Feature", "properties": { "full_id": "n11054748506", "osm_id": "11054748506", "osm_type": "node", "public_transport": "platform", "kerb": null, "description": null, "bin": null, "tactile_paving": null, "passenger_information_display": null, "lit": null, "surface": null, "departures_board": null, "network": null, "bench": null, "alt_name:en": null, "shelter": "yes", "ref": null, "operator": null, "name:ml": null, "name:en": null, "amenity": null, "name": null, "wheelchair": null, "highway": "bus_stop", "bus": "yes" }, "geometry": { "type": "Point", "coordinates": [ 77.0280271, 8.6347016 ] } },
{ "type": "Feature", "properties": { "full_id": "n7130273852", "osm_id": "7130273852", "osm_type": "node", "public_transport": "platform", "kerb": null, "description": null, "bin": null, "tactile_paving": null, "passenger_information_display": null, "lit": null, "surface": null, "departures_board": null, "network": null, "bench": null, "alt_name:en": null, "shelter": null, "ref": null, "operator": null, "name:ml": null, "name:en": null, "amenity": null, "name": "Rims", "wheelchair": null, "highway": "bus_stop", "bus": "yes" }, "geometry": { "type": "Point", "coordinates": [ 76.9932228, 8.6012446 ] } }
]
}
