{
"type": "FeatureCollection",
"name": "nedumangad chantha boarder",
"crs": { "type": "name", "properties": { "name": "urn:ogc:def:crs:OGC:1.3:CRS84" } },
"features": [
{ "type": "Feature", "properties": { "Market ": null, "fill": null }, "geometry": { "type": "Polygon", "coordinates": [ [ [ 77.001421, 8.603051 ], [ 77.001421, 8.603051 ], [ 77.001421, 8.603051 ], [ 77.001421, 8.603051 ] ] ] } },
{ "type": "Feature", "properties": { "Market ": "Nedumangd Market", "fill": "#312E81" }, "geometry": { "type": "Polygon", "coordinates": [ [ [ 77.001443, 8.603114 ], [ 77.001362, 8.602817 ], [ 77.001608, 8.602605 ], [ 77.001598, 8.602281 ], [ 77.001362, 8.602159 ], [ 77.001351, 8.601904 ], [ 77.001447, 8.601549 ], [ 77.00163, 8.601427 ], [ 77.001941, 8.601406 ], [ 77.002462, 8.601321 ], [ 77.002843, 8.60165 ], [ 77.003133, 8.601889 ], [ 77.003251, 8.602207 ], [ 77.003278, 8.602632 ], [ 77.003251, 8.603088 ], [ 77.002752, 8.603284 ], [ 77.002263, 8.603231 ], [ 77.001845, 8.603157 ], [ 77.001443, 8.603114 ] ] ] } }
]
}
