{
"type": "FeatureCollection",
"name": "thenkashy - palod - thiruvananthapuram ",
"crs": { "type": "name", "properties": { "name": "urn:ogc:def:crs:OGC:1.3:CRS84" } },
"features": [
{ "type": "Feature", "properties": { "DIST_KM": 101.755, "DURATION_H": 1.663, "PROFILE": "driving-car", "PREF": "fastest", "OPTIONS": { }, "FROM_ID": null, "TO_ID": null }, "geometry": { "type": "LineString", "coordinates": [ [ 77.310259, 8.956271 ], [ 77.309389, 8.956327 ], [ 77.308736, 8.956388 ], [ 77.308756, 8.956837 ], [ 77.308768, 8.957273 ], [ 77.308755, 8.95737 ], [ 77.308706, 8.957458 ], [ 77.308616, 8.957514 ], [ 77.308162, 8.95754 ], [ 77.308088, 8.957591 ], [ 77.308142, 8.958063 ], [ 77.308164, 8.958419 ], [ 77.308203, 8.959028 ], [ 77.308239, 8.959258 ], [ 77.308382, 8.95997 ], [ 77.308376, 8.96007 ], [ 77.308021, 8.960269 ], [ 77.30776, 8.960397 ], [ 77.307151, 8.96051 ], [ 77.306299, 8.960615 ], [ 77.305223, 8.960752 ], [ 77.304711, 8.961012 ], [ 77.303974, 8.961419 ], [ 77.303663, 8.961516 ], [ 77.303327, 8.961517 ], [ 77.303053, 8.961446 ], [ 77.302525, 8.961217 ], [ 77.302082, 8.960975 ], [ 77.301826, 8.960859 ], [ 77.30157, 8.960801 ], [ 77.301231, 8.960779 ], [ 77.300648, 8.960828 ], [ 77.300257, 8.960939 ], [ 77.299939, 8.961058 ], [ 77.299452, 8.961349 ], [ 77.298753, 8.96183 ], [ 77.298033, 8.962333 ], [ 77.297431, 8.962455 ], [ 77.297251, 8.962451 ], [ 77.297116, 8.962409 ], [ 77.296941, 8.962058 ], [ 77.296815, 8.961936 ], [ 77.29671, 8.961873 ], [ 77.29655, 8.961845 ], [ 77.295782, 8.961844 ], [ 77.293901, 8.961533 ], [ 77.292633, 8.961508 ], [ 77.28976, 8.961751 ], [ 77.28913, 8.961894 ], [ 77.288383, 8.962263 ], [ 77.287501, 8.962633 ], [ 77.287005, 8.962902 ], [ 77.286451, 8.963364 ], [ 77.285829, 8.963599 ], [ 77.285309, 8.963649 ], [ 77.284768, 8.963511 ], [ 77.284477, 8.963431 ], [ 77.283847, 8.963465 ], [ 77.283075, 8.963557 ], [ 77.281714, 8.963582 ], [ 77.280955, 8.963718 ], [ 77.280003, 8.963906 ], [ 77.279671, 8.963945 ], [ 77.277779, 8.963916 ], [ 77.277458, 8.963895 ], [ 77.277235, 8.963858 ], [ 77.277026, 8.963791 ], [ 77.27645, 8.963515 ], [ 77.276298, 8.96347 ], [ 77.276016, 8.963354 ], [ 77.275826, 8.963307 ], [ 77.275409, 8.96312 ], [ 77.275286, 8.963087 ], [ 77.275134, 8.963102 ], [ 77.274949, 8.963183 ], [ 77.274775, 8.963305 ], [ 77.274647, 8.963477 ], [ 77.274224, 8.964339 ], [ 77.274054, 8.964573 ], [ 77.273848, 8.964776 ], [ 77.273578, 8.964992 ], [ 77.273002, 8.965377 ], [ 77.272285, 8.965768 ], [ 77.271821, 8.966094 ], [ 77.271663, 8.966223 ], [ 77.271495, 8.966358 ], [ 77.27119, 8.966604 ], [ 77.271082, 8.966684 ], [ 77.270724, 8.966939 ], [ 77.270647, 8.967035 ], [ 77.270334, 8.967438 ], [ 77.270234, 8.967546 ], [ 77.269971, 8.967757 ], [ 77.268801, 8.968448 ], [ 77.267851, 8.968916 ], [ 77.266717, 8.969555 ], [ 77.266104, 8.969938 ], [ 77.265789, 8.970066 ], [ 77.265134, 8.970221 ], [ 77.264336, 8.970514 ], [ 77.263609, 8.970685 ], [ 77.263165, 8.970887 ], [ 77.263113, 8.97091 ], [ 77.262191, 8.971381 ], [ 77.261183, 8.971982 ], [ 77.260601, 8.973056 ], [ 77.260492, 8.973238 ], [ 77.260445, 8.973303 ], [ 77.260346, 8.97344 ], [ 77.260233, 8.973541 ], [ 77.260125, 8.973579 ], [ 77.259722, 8.973612 ], [ 77.259473, 8.973651 ], [ 77.25918, 8.973734 ], [ 77.258807, 8.97386 ], [ 77.257917, 8.974252 ], [ 77.257642, 8.974356 ], [ 77.257321, 8.974409 ], [ 77.256559, 8.974456 ], [ 77.256363, 8.974512 ], [ 77.256154, 8.974577 ], [ 77.25605, 8.974642 ], [ 77.255804, 8.974743 ], [ 77.255632, 8.974984 ], [ 77.255295, 8.975566 ], [ 77.255183, 8.975651 ], [ 77.254797, 8.97569 ], [ 77.254589, 8.975689 ], [ 77.254214, 8.975714 ], [ 77.253447, 8.975744 ], [ 77.253195, 8.975709 ], [ 77.252985, 8.975704 ], [ 77.252748, 8.975743 ], [ 77.252116, 8.975878 ], [ 77.251737, 8.975978 ], [ 77.250304, 8.976427 ], [ 77.249634, 8.9766 ], [ 77.249318, 8.976662 ], [ 77.24896, 8.976774 ], [ 77.248812, 8.976879 ], [ 77.248714, 8.977049 ], [ 77.248636, 8.977242 ], [ 77.248218, 8.978398 ], [ 77.247894, 8.979373 ], [ 77.247755, 8.979614 ], [ 77.247539, 8.979872 ], [ 77.247322, 8.980046 ], [ 77.246875, 8.980338 ], [ 77.24491, 8.981357 ], [ 77.244104, 8.981628 ], [ 77.241722, 8.98232 ], [ 77.241342, 8.982479 ], [ 77.240574, 8.983029 ], [ 77.240224, 8.983207 ], [ 77.239873, 8.983349 ], [ 77.238803, 8.98386 ], [ 77.237507, 8.984349 ], [ 77.235881, 8.985316 ], [ 77.235464, 8.985614 ], [ 77.234997, 8.986118 ], [ 77.234806, 8.986296 ], [ 77.234591, 8.986434 ], [ 77.234187, 8.986611 ], [ 77.230648, 8.988063 ], [ 77.229237, 8.988551 ], [ 77.228269, 8.989047 ], [ 77.227565, 8.989229 ], [ 77.226201, 8.989494 ], [ 77.225016, 8.989839 ], [ 77.224512, 8.989925 ], [ 77.223781, 8.989892 ], [ 77.223535, 8.989918 ], [ 77.223219, 8.990006 ], [ 77.222993, 8.990099 ], [ 77.222837, 8.990244 ], [ 77.222742, 8.99043 ], [ 77.222559, 8.990871 ], [ 77.222052, 8.991336 ], [ 77.221218, 8.992039 ], [ 77.220825, 8.992301 ], [ 77.220267, 8.99256 ], [ 77.220102, 8.992618 ], [ 77.219524, 8.992726 ], [ 77.217486, 8.993146 ], [ 77.215618, 8.993453 ], [ 77.215188, 8.993586 ], [ 77.214441, 8.993913 ], [ 77.211703, 8.995236 ], [ 77.210746, 8.995662 ], [ 77.209832, 8.996069 ], [ 77.207949, 8.996965 ], [ 77.207511, 8.997232 ], [ 77.207321, 8.997367 ], [ 77.206879, 8.997687 ], [ 77.205919, 8.998421 ], [ 77.2042, 8.999963 ], [ 77.202607, 9.001425 ], [ 77.202178, 9.001758 ], [ 77.201989, 9.001844 ], [ 77.201341, 9.002049 ], [ 77.200512, 9.00237 ], [ 77.200302, 9.002385 ], [ 77.199952, 9.002344 ], [ 77.198815, 9.002098 ], [ 77.198699, 9.00211 ], [ 77.198605, 9.002165 ], [ 77.198537, 9.002284 ], [ 77.19835, 9.002786 ], [ 77.197961, 9.00337 ], [ 77.1972, 9.004725 ], [ 77.197143, 9.004826 ], [ 77.196924, 9.005111 ], [ 77.196636, 9.00532 ], [ 77.196217, 9.005475 ], [ 77.195806, 9.005577 ], [ 77.19462, 9.00576 ], [ 77.193709, 9.006187 ], [ 77.193405, 9.006267 ], [ 77.192345, 9.006442 ], [ 77.191774, 9.006379 ], [ 77.191431, 9.006376 ], [ 77.190912, 9.006469 ], [ 77.190633, 9.006489 ], [ 77.190376, 9.006463 ], [ 77.189792, 9.006264 ], [ 77.189304, 9.006228 ], [ 77.18841, 9.00631 ], [ 77.187436, 9.006462 ], [ 77.182598, 9.006853 ], [ 77.181648, 9.006988 ], [ 77.180235, 9.00707 ], [ 77.179458, 9.007151 ], [ 77.178757, 9.007299 ], [ 77.175109, 9.008429 ], [ 77.174912, 9.008445 ], [ 77.1747, 9.008406 ], [ 77.173054, 9.00799 ], [ 77.172823, 9.007958 ], [ 77.172629, 9.007985 ], [ 77.172288, 9.008101 ], [ 77.171883, 9.008292 ], [ 77.171599, 9.008473 ], [ 77.170114, 9.009693 ], [ 77.169941, 9.009778 ], [ 77.169754, 9.009776 ], [ 77.169295, 9.009609 ], [ 77.16905, 9.009492 ], [ 77.168837, 9.009332 ], [ 77.168425, 9.008811 ], [ 77.167862, 9.007753 ], [ 77.167737, 9.007576 ], [ 77.167705, 9.007501 ], [ 77.167698, 9.007445 ], [ 77.167674, 9.007411 ], [ 77.167633, 9.007401 ], [ 77.1676, 9.007423 ], [ 77.16758, 9.007458 ], [ 77.167615, 9.007702 ], [ 77.167587, 9.007746 ], [ 77.167542, 9.007755 ], [ 77.167503, 9.007737 ], [ 77.167482, 9.007688 ], [ 77.167478, 9.007575 ], [ 77.167459, 9.007053 ], [ 77.167478, 9.006942 ], [ 77.167518, 9.006868 ], [ 77.167671, 9.006846 ], [ 77.167813, 9.006804 ], [ 77.167939, 9.006695 ], [ 77.167988, 9.006611 ], [ 77.167996, 9.006497 ], [ 77.167907, 9.006256 ], [ 77.167899, 9.006168 ], [ 77.167955, 9.006078 ], [ 77.168258, 9.00588 ], [ 77.168698, 9.00584 ], [ 77.168803, 9.005795 ], [ 77.168849, 9.005721 ], [ 77.168835, 9.005583 ], [ 77.168712, 9.005223 ], [ 77.168696, 9.005034 ], [ 77.168744, 9.004899 ], [ 77.169047, 9.004415 ], [ 77.169111, 9.004264 ], [ 77.169101, 9.004036 ], [ 77.169136, 9.003718 ], [ 77.169018, 9.003328 ], [ 77.169007, 9.003138 ], [ 77.169058, 9.002661 ], [ 77.169018, 9.002581 ], [ 77.168959, 9.00251 ], [ 77.168661, 9.00247 ], [ 77.168433, 9.002422 ], [ 77.168221, 9.00233 ], [ 77.168039, 9.002081 ], [ 77.167929, 9.002025 ], [ 77.167802, 9.002028 ], [ 77.167058, 9.002134 ], [ 77.166704, 9.002283 ], [ 77.166562, 9.002326 ], [ 77.16646, 9.002264 ], [ 77.166214, 9.001966 ], [ 77.166145, 9.001848 ], [ 77.166218, 9.001711 ], [ 77.167056, 9.000895 ], [ 77.167149, 8.999971 ], [ 77.166914, 8.999412 ], [ 77.16677, 8.999187 ], [ 77.166555, 8.999047 ], [ 77.166256, 8.998907 ], [ 77.166228, 8.998661 ], [ 77.165591, 8.998329 ], [ 77.165557, 8.998285 ], [ 77.165578, 8.998221 ], [ 77.166251, 8.997822 ], [ 77.166387, 8.997625 ], [ 77.166467, 8.997348 ], [ 77.166372, 8.997009 ], [ 77.166337, 8.996516 ], [ 77.166164, 8.996178 ], [ 77.166121, 8.996036 ], [ 77.166141, 8.995928 ], [ 77.166367, 8.995562 ], [ 77.166288, 8.994617 ], [ 77.166291, 8.994173 ], [ 77.165975, 8.993171 ], [ 77.165898, 8.992859 ], [ 77.165694, 8.992403 ], [ 77.165426, 8.992202 ], [ 77.164933, 8.992096 ], [ 77.164097, 8.991766 ], [ 77.16336, 8.991375 ], [ 77.161823, 8.990213 ], [ 77.161617, 8.990107 ], [ 77.16129, 8.990034 ], [ 77.161005, 8.99003 ], [ 77.160781, 8.990088 ], [ 77.160612, 8.990198 ], [ 77.160439, 8.990334 ], [ 77.160347, 8.990353 ], [ 77.160295, 8.990314 ], [ 77.160288, 8.990213 ], [ 77.16031, 8.989673 ], [ 77.16013, 8.98935 ], [ 77.159865, 8.988985 ], [ 77.159424, 8.988596 ], [ 77.157798, 8.987955 ], [ 77.157634, 8.987875 ], [ 77.157358, 8.987687 ], [ 77.157162, 8.987611 ], [ 77.156964, 8.987581 ], [ 77.156586, 8.987629 ], [ 77.15639, 8.987629 ], [ 77.155896, 8.987526 ], [ 77.155808, 8.987491 ], [ 77.155727, 8.987399 ], [ 77.155631, 8.98712 ], [ 77.155615, 8.986969 ], [ 77.155657, 8.986445 ], [ 77.155655, 8.986294 ], [ 77.155609, 8.986191 ], [ 77.155424, 8.986037 ], [ 77.155328, 8.985936 ], [ 77.155298, 8.985822 ], [ 77.15536, 8.985639 ], [ 77.15537, 8.985502 ], [ 77.155172, 8.985033 ], [ 77.155059, 8.984879 ], [ 77.15433, 8.984193 ], [ 77.154123, 8.984113 ], [ 77.153235, 8.983981 ], [ 77.153142, 8.98392 ], [ 77.153069, 8.983822 ], [ 77.152999, 8.98335 ], [ 77.153012, 8.983149 ], [ 77.15305, 8.983032 ], [ 77.15315, 8.982732 ], [ 77.153153, 8.982672 ], [ 77.153053, 8.982324 ], [ 77.153055, 8.982059 ], [ 77.153072, 8.98198 ], [ 77.153142, 8.981663 ], [ 77.153178, 8.981421 ], [ 77.153169, 8.981242 ], [ 77.152918, 8.980534 ], [ 77.152847, 8.980336 ], [ 77.152832, 8.979526 ], [ 77.152768, 8.97933 ], [ 77.152477, 8.978885 ], [ 77.15226, 8.978624 ], [ 77.15216, 8.978446 ], [ 77.152026, 8.977997 ], [ 77.151823, 8.977806 ], [ 77.151414, 8.97742 ], [ 77.150881, 8.976798 ], [ 77.150337, 8.976255 ], [ 77.149979, 8.975879 ], [ 77.149888, 8.975705 ], [ 77.149589, 8.975274 ], [ 77.149184, 8.974808 ], [ 77.148964, 8.974616 ], [ 77.14874, 8.974421 ], [ 77.147916, 8.973897 ], [ 77.147774, 8.973781 ], [ 77.147659, 8.973626 ], [ 77.147496, 8.972984 ], [ 77.14716, 8.97239 ], [ 77.14703, 8.971186 ], [ 77.14684, 8.970656 ], [ 77.146765, 8.970369 ], [ 77.146785, 8.969225 ], [ 77.146545, 8.968601 ], [ 77.146309, 8.967713 ], [ 77.146105, 8.96736 ], [ 77.145833, 8.967042 ], [ 77.145336, 8.966713 ], [ 77.14515, 8.966649 ], [ 77.14464, 8.966534 ], [ 77.14392, 8.966254 ], [ 77.142954, 8.965361 ], [ 77.141995, 8.963818 ], [ 77.141544, 8.963317 ], [ 77.14053, 8.962008 ], [ 77.140103, 8.961664 ], [ 77.139651, 8.96139 ], [ 77.138968, 8.96118 ], [ 77.138682, 8.961092 ], [ 77.138423, 8.960996 ], [ 77.138223, 8.960822 ], [ 77.138022, 8.9606 ], [ 77.137984, 8.960422 ], [ 77.138001, 8.960206 ], [ 77.138063, 8.959409 ], [ 77.137708, 8.957843 ], [ 77.137598, 8.957482 ], [ 77.137517, 8.956861 ], [ 77.137422, 8.956654 ], [ 77.137275, 8.956467 ], [ 77.137048, 8.956293 ], [ 77.136521, 8.955999 ], [ 77.136348, 8.955801 ], [ 77.135776, 8.954874 ], [ 77.135564, 8.954693 ], [ 77.135348, 8.954606 ], [ 77.134597, 8.954629 ], [ 77.133859, 8.954525 ], [ 77.133082, 8.954382 ], [ 77.132882, 8.954409 ], [ 77.132746, 8.954499 ], [ 77.132662, 8.954607 ], [ 77.132386, 8.955167 ], [ 77.132169, 8.955681 ], [ 77.132071, 8.955793 ], [ 77.131936, 8.955875 ], [ 77.131186, 8.956147 ], [ 77.130982, 8.956296 ], [ 77.130643, 8.956658 ], [ 77.130474, 8.95678 ], [ 77.13022, 8.956893 ], [ 77.129681, 8.957051 ], [ 77.129364, 8.957219 ], [ 77.128827, 8.957573 ], [ 77.128671, 8.957618 ], [ 77.128493, 8.957587 ], [ 77.128106, 8.957423 ], [ 77.127859, 8.957389 ], [ 77.12773, 8.957409 ], [ 77.127641, 8.957422 ], [ 77.126443, 8.957772 ], [ 77.126159, 8.957974 ], [ 77.126008, 8.958206 ], [ 77.125958, 8.958353 ], [ 77.125771, 8.958497 ], [ 77.125415, 8.958573 ], [ 77.125164, 8.958554 ], [ 77.121086, 8.960517 ], [ 77.120552, 8.960908 ], [ 77.120352, 8.96101 ], [ 77.119671, 8.961254 ], [ 77.11878, 8.961655 ], [ 77.118092, 8.961901 ], [ 77.117659, 8.962181 ], [ 77.117306, 8.962529 ], [ 77.117018, 8.962887 ], [ 77.116794, 8.963288 ], [ 77.116727, 8.963748 ], [ 77.116688, 8.963927 ], [ 77.116634, 8.964036 ], [ 77.116391, 8.964408 ], [ 77.116285, 8.964636 ], [ 77.116154, 8.965108 ], [ 77.116036, 8.965378 ], [ 77.115752, 8.96569 ], [ 77.115483, 8.965847 ], [ 77.115235, 8.965951 ], [ 77.115037, 8.965975 ], [ 77.114721, 8.965943 ], [ 77.11435, 8.96584 ], [ 77.113414, 8.965473 ], [ 77.113171, 8.965448 ], [ 77.112973, 8.965475 ], [ 77.110861, 8.966838 ], [ 77.109913, 8.967162 ], [ 77.108836, 8.967726 ], [ 77.10863, 8.967795 ], [ 77.108425, 8.967837 ], [ 77.108183, 8.967845 ], [ 77.107942, 8.967806 ], [ 77.107749, 8.967723 ], [ 77.10751, 8.967658 ], [ 77.107231, 8.967677 ], [ 77.106966, 8.967783 ], [ 77.106277, 8.968323 ], [ 77.106025, 8.968559 ], [ 77.10593, 8.968725 ], [ 77.105886, 8.968907 ], [ 77.105887, 8.969157 ], [ 77.105933, 8.969417 ], [ 77.106053, 8.96974 ], [ 77.106225, 8.970073 ], [ 77.106242, 8.970342 ], [ 77.106148, 8.970548 ], [ 77.105939, 8.970729 ], [ 77.104978, 8.971082 ], [ 77.104654, 8.97116 ], [ 77.104454, 8.971179 ], [ 77.104206, 8.971145 ], [ 77.103967, 8.971061 ], [ 77.103054, 8.970513 ], [ 77.102842, 8.97045 ], [ 77.102597, 8.970406 ], [ 77.102319, 8.970436 ], [ 77.101683, 8.970666 ], [ 77.101411, 8.970752 ], [ 77.100879, 8.970785 ], [ 77.100444, 8.970725 ], [ 77.099402, 8.970373 ], [ 77.099062, 8.970212 ], [ 77.098838, 8.970058 ], [ 77.09855, 8.969725 ], [ 77.098397, 8.969599 ], [ 77.098134, 8.96946 ], [ 77.09758, 8.969279 ], [ 77.096845, 8.969062 ], [ 77.096599, 8.969014 ], [ 77.096249, 8.968819 ], [ 77.096075, 8.968593 ], [ 77.095923, 8.968242 ], [ 77.095737, 8.96793 ], [ 77.095517, 8.967226 ], [ 77.095297, 8.96686 ], [ 77.094842, 8.966358 ], [ 77.094611, 8.966203 ], [ 77.094346, 8.966137 ], [ 77.094057, 8.966148 ], [ 77.093825, 8.966198 ], [ 77.093365, 8.966394 ], [ 77.092319, 8.966728 ], [ 77.092037, 8.966871 ], [ 77.091609, 8.96718 ], [ 77.091292, 8.967319 ], [ 77.091131, 8.967351 ], [ 77.090931, 8.967306 ], [ 77.090552, 8.967093 ], [ 77.090448, 8.967 ], [ 77.090392, 8.966861 ], [ 77.090382, 8.966547 ], [ 77.090262, 8.965995 ], [ 77.090438, 8.965498 ], [ 77.090445, 8.965385 ], [ 77.090402, 8.965186 ], [ 77.090078, 8.9644 ], [ 77.089926, 8.964188 ], [ 77.089745, 8.963984 ], [ 77.089648, 8.963835 ], [ 77.089509, 8.963509 ], [ 77.089308, 8.963117 ], [ 77.088997, 8.962974 ], [ 77.088844, 8.962783 ], [ 77.08875, 8.962404 ], [ 77.088683, 8.961859 ], [ 77.08876, 8.961432 ], [ 77.088687, 8.961159 ], [ 77.088467, 8.960716 ], [ 77.088033, 8.960124 ], [ 77.087956, 8.960076 ], [ 77.087854, 8.960061 ], [ 77.0877, 8.960066 ], [ 77.087567, 8.960036 ], [ 77.087196, 8.959882 ], [ 77.087052, 8.959895 ], [ 77.086925, 8.959952 ], [ 77.08613, 8.960446 ], [ 77.086043, 8.960544 ], [ 77.085709, 8.96107 ], [ 77.085633, 8.961154 ], [ 77.085568, 8.961213 ], [ 77.085206, 8.961462 ], [ 77.084802, 8.961611 ], [ 77.084476, 8.961792 ], [ 77.083908, 8.96228 ], [ 77.083308, 8.962683 ], [ 77.083088, 8.962805 ], [ 77.081472, 8.963442 ], [ 77.081237, 8.963578 ], [ 77.081114, 8.963668 ], [ 77.080956, 8.963816 ], [ 77.080771, 8.964084 ], [ 77.080644, 8.964258 ], [ 77.080538, 8.964283 ], [ 77.080466, 8.964274 ], [ 77.080128, 8.964151 ], [ 77.079991, 8.964123 ], [ 77.078632, 8.964348 ], [ 77.078571, 8.964369 ], [ 77.078433, 8.964462 ], [ 77.078084, 8.964819 ], [ 77.078014, 8.96487 ], [ 77.077947, 8.964897 ], [ 77.077723, 8.964906 ], [ 77.077025, 8.964992 ], [ 77.076813, 8.965033 ], [ 77.076696, 8.96508 ], [ 77.076594, 8.965131 ], [ 77.076451, 8.965283 ], [ 77.07608, 8.966003 ], [ 77.07597, 8.966149 ], [ 77.075822, 8.966252 ], [ 77.07574, 8.966288 ], [ 77.075626, 8.966311 ], [ 77.075079, 8.966371 ], [ 77.074896, 8.966408 ], [ 77.074239, 8.96677 ], [ 77.073552, 8.967091 ], [ 77.073309, 8.967164 ], [ 77.072695, 8.967311 ], [ 77.07231, 8.967507 ], [ 77.07155, 8.96798 ], [ 77.071361, 8.968049 ], [ 77.070965, 8.96816 ], [ 77.070881, 8.968172 ], [ 77.070827, 8.968164 ], [ 77.070783, 8.968147 ], [ 77.07072, 8.968096 ], [ 77.070521, 8.967911 ], [ 77.070433, 8.967853 ], [ 77.070341, 8.967826 ], [ 77.070157, 8.967814 ], [ 77.069955, 8.967704 ], [ 77.069808, 8.967614 ], [ 77.069682, 8.967515 ], [ 77.06955, 8.967375 ], [ 77.069451, 8.96724 ], [ 77.069355, 8.967012 ], [ 77.069293, 8.966925 ], [ 77.069025, 8.966668 ], [ 77.068939, 8.966563 ], [ 77.06888, 8.966456 ], [ 77.068858, 8.966336 ], [ 77.068861, 8.966144 ], [ 77.068907, 8.965862 ], [ 77.068904, 8.965702 ], [ 77.068866, 8.965557 ], [ 77.068652, 8.965176 ], [ 77.068547, 8.964792 ], [ 77.068424, 8.964495 ], [ 77.068169, 8.964034 ], [ 77.068129, 8.963904 ], [ 77.06811, 8.963761 ], [ 77.068134, 8.963032 ], [ 77.068121, 8.962881 ], [ 77.068096, 8.962758 ], [ 77.067853, 8.962026 ], [ 77.06781, 8.961859 ], [ 77.067796, 8.961664 ], [ 77.067818, 8.961459 ], [ 77.067882, 8.961178 ], [ 77.067925, 8.96108 ], [ 77.068069, 8.960845 ], [ 77.06829, 8.960277 ], [ 77.068307, 8.960184 ], [ 77.0683, 8.960146 ], [ 77.068278, 8.96011 ], [ 77.068241, 8.960087 ], [ 77.068169, 8.960084 ], [ 77.068078, 8.960099 ], [ 77.067976, 8.960145 ], [ 77.067877, 8.960208 ], [ 77.067788, 8.960327 ], [ 77.067703, 8.96051 ], [ 77.067659, 8.960568 ], [ 77.067247, 8.960911 ], [ 77.067203, 8.960932 ], [ 77.067162, 8.960933 ], [ 77.067132, 8.960916 ], [ 77.067117, 8.960881 ], [ 77.067119, 8.960814 ], [ 77.067237, 8.96058 ], [ 77.067414, 8.960427 ], [ 77.067469, 8.960358 ], [ 77.0675, 8.960288 ], [ 77.067731, 8.959315 ], [ 77.067718, 8.959096 ], [ 77.067661, 8.958968 ], [ 77.067588, 8.958858 ], [ 77.067499, 8.958788 ], [ 77.067398, 8.958751 ], [ 77.067282, 8.958739 ], [ 77.066605, 8.958796 ], [ 77.066409, 8.958778 ], [ 77.065626, 8.958432 ], [ 77.064956, 8.958165 ], [ 77.064797, 8.958066 ], [ 77.064673, 8.957926 ], [ 77.064585, 8.957809 ], [ 77.064008, 8.956964 ], [ 77.063767, 8.95672 ], [ 77.063631, 8.956679 ], [ 77.063172, 8.956727 ], [ 77.062971, 8.95669 ], [ 77.062833, 8.956643 ], [ 77.062716, 8.956555 ], [ 77.062636, 8.956464 ], [ 77.06255, 8.956356 ], [ 77.062525, 8.956269 ], [ 77.062539, 8.956189 ], [ 77.062858, 8.95562 ], [ 77.062869, 8.95544 ], [ 77.062834, 8.955338 ], [ 77.062662, 8.955264 ], [ 77.061796, 8.954976 ], [ 77.061574, 8.954854 ], [ 77.061061, 8.954271 ], [ 77.061002, 8.954183 ], [ 77.06097, 8.953987 ], [ 77.061039, 8.953784 ], [ 77.061098, 8.953689 ], [ 77.061192, 8.953583 ], [ 77.061295, 8.953505 ], [ 77.061565, 8.953363 ], [ 77.061761, 8.953162 ], [ 77.062062, 8.952909 ], [ 77.062311, 8.952723 ], [ 77.062528, 8.952618 ], [ 77.06277, 8.952538 ], [ 77.063041, 8.952487 ], [ 77.063322, 8.952473 ], [ 77.063523, 8.952515 ], [ 77.063681, 8.952568 ], [ 77.064035, 8.952512 ], [ 77.064374, 8.952387 ], [ 77.064473, 8.952269 ], [ 77.064551, 8.95213 ], [ 77.064567, 8.952029 ], [ 77.064548, 8.951894 ], [ 77.064473, 8.951711 ], [ 77.064052, 8.950969 ], [ 77.063996, 8.950786 ], [ 77.063843, 8.949507 ], [ 77.063821, 8.94916 ], [ 77.063797, 8.949056 ], [ 77.063473, 8.948481 ], [ 77.063437, 8.948379 ], [ 77.063438, 8.948277 ], [ 77.063464, 8.948151 ], [ 77.063719, 8.947756 ], [ 77.063759, 8.947658 ], [ 77.063773, 8.947543 ], [ 77.063751, 8.947406 ], [ 77.063717, 8.947297 ], [ 77.063663, 8.947215 ], [ 77.063523, 8.947082 ], [ 77.063419, 8.947025 ], [ 77.063293, 8.947006 ], [ 77.063177, 8.947016 ], [ 77.062694, 8.947179 ], [ 77.06178, 8.947403 ], [ 77.061673, 8.947379 ], [ 77.061552, 8.947327 ], [ 77.060931, 8.946939 ], [ 77.060769, 8.946876 ], [ 77.059994, 8.946767 ], [ 77.059827, 8.946727 ], [ 77.059607, 8.946725 ], [ 77.059312, 8.94681 ], [ 77.059116, 8.946946 ], [ 77.058755, 8.947318 ], [ 77.058028, 8.94788 ], [ 77.057928, 8.947978 ], [ 77.0577, 8.94832 ], [ 77.057631, 8.948402 ], [ 77.057515, 8.948447 ], [ 77.057413, 8.948444 ], [ 77.057234, 8.948359 ], [ 77.0571, 8.948232 ], [ 77.057064, 8.948138 ], [ 77.057051, 8.948057 ], [ 77.057059, 8.947962 ], [ 77.057142, 8.947664 ], [ 77.057153, 8.947566 ], [ 77.057126, 8.947485 ], [ 77.057078, 8.947414 ], [ 77.05692, 8.947289 ], [ 77.056836, 8.947261 ], [ 77.056743, 8.947263 ], [ 77.056467, 8.947305 ], [ 77.056383, 8.9473 ], [ 77.056292, 8.947258 ], [ 77.056223, 8.947194 ], [ 77.056169, 8.94709 ], [ 77.056142, 8.946908 ], [ 77.056144, 8.946628 ], [ 77.056196, 8.94625 ], [ 77.056292, 8.946024 ], [ 77.05637, 8.945928 ], [ 77.056874, 8.945557 ], [ 77.056976, 8.94545 ], [ 77.057043, 8.945342 ], [ 77.057065, 8.94523 ], [ 77.05704, 8.945147 ], [ 77.056767, 8.944806 ], [ 77.056695, 8.944748 ], [ 77.05651, 8.944685 ], [ 77.055801, 8.944767 ], [ 77.055437, 8.944769 ], [ 77.055193, 8.944753 ], [ 77.054991, 8.944675 ], [ 77.054822, 8.944558 ], [ 77.054243, 8.944091 ], [ 77.053892, 8.943781 ], [ 77.053422, 8.943066 ], [ 77.053018, 8.942529 ], [ 77.052717, 8.942051 ], [ 77.051997, 8.940824 ], [ 77.05195, 8.940649 ], [ 77.051803, 8.939907 ], [ 77.051624, 8.939324 ], [ 77.051479, 8.939049 ], [ 77.051078, 8.938482 ], [ 77.050788, 8.938108 ], [ 77.050693, 8.937904 ], [ 77.050631, 8.9377 ], [ 77.050603, 8.937512 ], [ 77.050601, 8.937319 ], [ 77.050625, 8.937144 ], [ 77.050676, 8.936948 ], [ 77.050779, 8.936725 ], [ 77.050917, 8.936487 ], [ 77.051109, 8.93624 ], [ 77.051183, 8.936177 ], [ 77.051398, 8.936044 ], [ 77.052667, 8.935557 ], [ 77.052899, 8.935453 ], [ 77.053277, 8.935249 ], [ 77.053617, 8.935035 ], [ 77.054042, 8.93473 ], [ 77.054604, 8.934293 ], [ 77.055893, 8.933169 ], [ 77.056223, 8.933018 ], [ 77.057529, 8.932533 ], [ 77.05784, 8.932504 ], [ 77.058022, 8.93247 ], [ 77.05835, 8.932377 ], [ 77.058476, 8.932313 ], [ 77.05858, 8.932234 ], [ 77.058666, 8.932125 ], [ 77.058983, 8.931624 ], [ 77.059235, 8.931338 ], [ 77.059619, 8.930938 ], [ 77.059793, 8.930792 ], [ 77.060332, 8.930411 ], [ 77.061021, 8.930008 ], [ 77.061461, 8.929722 ], [ 77.061662, 8.929547 ], [ 77.062233, 8.929158 ], [ 77.062617, 8.928924 ], [ 77.062979, 8.928781 ], [ 77.063554, 8.928638 ], [ 77.063657, 8.928601 ], [ 77.063922, 8.928458 ], [ 77.064026, 8.928373 ], [ 77.064108, 8.92828 ], [ 77.064227, 8.928061 ], [ 77.064599, 8.926762 ], [ 77.064771, 8.926367 ], [ 77.06487, 8.925814 ], [ 77.06505, 8.925435 ], [ 77.065052, 8.925339 ], [ 77.065026, 8.925225 ], [ 77.064973, 8.925149 ], [ 77.064919, 8.925093 ], [ 77.064848, 8.92505 ], [ 77.064744, 8.925029 ], [ 77.064525, 8.925059 ], [ 77.064014, 8.925234 ], [ 77.063612, 8.925406 ], [ 77.063081, 8.925657 ], [ 77.062945, 8.9257 ], [ 77.062818, 8.925716 ], [ 77.062563, 8.925702 ], [ 77.062349, 8.925625 ], [ 77.061848, 8.925284 ], [ 77.060885, 8.924661 ], [ 77.060554, 8.924491 ], [ 77.060464, 8.924425 ], [ 77.060392, 8.924346 ], [ 77.060337, 8.924258 ], [ 77.06031, 8.924155 ], [ 77.060299, 8.923858 ], [ 77.060285, 8.92376 ], [ 77.060239, 8.923675 ], [ 77.060124, 8.923551 ], [ 77.059791, 8.92336 ], [ 77.05966, 8.923198 ], [ 77.059532, 8.923005 ], [ 77.059036, 8.921958 ], [ 77.058395, 8.920856 ], [ 77.058168, 8.920371 ], [ 77.058115, 8.920286 ], [ 77.05803, 8.920217 ], [ 77.057608, 8.920056 ], [ 77.056469, 8.919534 ], [ 77.056143, 8.91929 ], [ 77.05576, 8.91893 ], [ 77.055516, 8.918781 ], [ 77.05538, 8.918725 ], [ 77.055234, 8.918689 ], [ 77.054525, 8.918532 ], [ 77.054447, 8.918506 ], [ 77.054384, 8.918461 ], [ 77.054282, 8.918273 ], [ 77.054251, 8.9181 ], [ 77.054262, 8.917976 ], [ 77.054325, 8.917806 ], [ 77.054364, 8.917734 ], [ 77.0546, 8.917438 ], [ 77.054731, 8.917318 ], [ 77.05491, 8.917191 ], [ 77.055142, 8.916982 ], [ 77.055303, 8.916794 ], [ 77.055332, 8.916714 ], [ 77.055343, 8.9166 ], [ 77.05529, 8.915872 ], [ 77.055291, 8.91567 ], [ 77.055292, 8.915363 ], [ 77.055265, 8.915199 ], [ 77.055167, 8.914849 ], [ 77.055083, 8.914396 ], [ 77.055041, 8.914316 ], [ 77.054981, 8.914245 ], [ 77.054419, 8.913718 ], [ 77.054306, 8.913627 ], [ 77.054027, 8.913516 ], [ 77.053983, 8.913471 ], [ 77.053951, 8.913397 ], [ 77.053956, 8.91332 ], [ 77.054106, 8.913089 ], [ 77.054128, 8.913031 ], [ 77.054121, 8.912837 ], [ 77.053978, 8.911762 ], [ 77.053953, 8.911487 ], [ 77.053932, 8.911158 ], [ 77.053994, 8.911015 ], [ 77.054055, 8.910951 ], [ 77.054279, 8.910781 ], [ 77.054366, 8.910699 ], [ 77.054442, 8.910593 ], [ 77.054482, 8.910493 ], [ 77.054657, 8.909754 ], [ 77.054718, 8.909597 ], [ 77.054797, 8.909454 ], [ 77.055184, 8.908824 ], [ 77.055469, 8.908325 ], [ 77.055638, 8.908139 ], [ 77.056311, 8.90753 ], [ 77.056733, 8.907119 ], [ 77.0568, 8.907048 ], [ 77.057096, 8.906643 ], [ 77.057245, 8.906399 ], [ 77.057328, 8.906216 ], [ 77.057403, 8.905908 ], [ 77.05743, 8.905463 ], [ 77.057418, 8.905073 ], [ 77.057411, 8.904292 ], [ 77.057504, 8.903268 ], [ 77.057633, 8.901891 ], [ 77.057658, 8.901492 ], [ 77.057619, 8.901375 ], [ 77.05757, 8.901283 ], [ 77.057216, 8.900854 ], [ 77.057162, 8.900728 ], [ 77.057114, 8.900301 ], [ 77.057167, 8.900015 ], [ 77.057169, 8.899896 ], [ 77.057144, 8.8998 ], [ 77.057095, 8.899713 ], [ 77.056591, 8.899204 ], [ 77.05654, 8.899132 ], [ 77.056456, 8.899013 ], [ 77.056117, 8.898251 ], [ 77.055974, 8.89793 ], [ 77.055793, 8.897611 ], [ 77.055733, 8.897545 ], [ 77.055663, 8.897514 ], [ 77.055575, 8.897495 ], [ 77.055052, 8.897453 ], [ 77.054947, 8.897418 ], [ 77.054855, 8.897365 ], [ 77.054798, 8.897315 ], [ 77.054762, 8.897256 ], [ 77.054708, 8.897095 ], [ 77.054648, 8.89671 ], [ 77.054584, 8.896475 ], [ 77.05428, 8.895978 ], [ 77.054165, 8.895815 ], [ 77.054002, 8.895645 ], [ 77.053525, 8.895333 ], [ 77.053422, 8.895264 ], [ 77.053348, 8.895184 ], [ 77.0533, 8.895081 ], [ 77.053288, 8.894882 ], [ 77.053355, 8.894522 ], [ 77.053355, 8.894447 ], [ 77.053334, 8.894379 ], [ 77.053286, 8.894323 ], [ 77.053206, 8.894281 ], [ 77.052833, 8.894251 ], [ 77.05261, 8.894177 ], [ 77.052514, 8.894127 ], [ 77.052181, 8.893909 ], [ 77.052104, 8.893833 ], [ 77.051958, 8.893629 ], [ 77.051888, 8.893565 ], [ 77.051809, 8.893528 ], [ 77.051692, 8.893523 ], [ 77.051559, 8.893536 ], [ 77.051465, 8.893565 ], [ 77.051295, 8.893708 ], [ 77.051124, 8.893745 ], [ 77.051041, 8.893732 ], [ 77.050947, 8.89369 ], [ 77.050172, 8.893324 ], [ 77.050116, 8.893282 ], [ 77.050075, 8.89322 ], [ 77.050051, 8.893138 ], [ 77.050032, 8.892669 ], [ 77.050008, 8.892555 ], [ 77.049934, 8.892396 ], [ 77.049794, 8.892261 ], [ 77.049641, 8.892158 ], [ 77.04941, 8.892049 ], [ 77.048624, 8.891788 ], [ 77.048391, 8.891683 ], [ 77.047913, 8.89136 ], [ 77.047843, 8.891292 ], [ 77.047771, 8.891181 ], [ 77.047632, 8.890902 ], [ 77.047418, 8.890472 ], [ 77.047253, 8.890112 ], [ 77.047041, 8.889758 ], [ 77.046883, 8.889495 ], [ 77.046529, 8.889092 ], [ 77.046381, 8.888867 ], [ 77.046376, 8.888801 ], [ 77.046398, 8.888655 ], [ 77.046457, 8.888554 ], [ 77.046553, 8.888469 ], [ 77.046837, 8.888308 ], [ 77.046902, 8.88825 ], [ 77.046961, 8.888162 ], [ 77.047001, 8.888046 ], [ 77.047033, 8.88782 ], [ 77.047076, 8.886426 ], [ 77.047333, 8.885815 ], [ 77.047409, 8.885594 ], [ 77.047419, 8.88551 ], [ 77.047374, 8.885104 ], [ 77.047376, 8.885017 ], [ 77.047411, 8.884935 ], [ 77.048149, 8.884118 ], [ 77.048216, 8.884022 ], [ 77.048259, 8.883895 ], [ 77.048313, 8.883169 ], [ 77.048334, 8.883051 ], [ 77.048385, 8.882901 ], [ 77.048785, 8.882165 ], [ 77.049166, 8.881635 ], [ 77.049531, 8.880917 ], [ 77.049903, 8.880373 ], [ 77.049925, 8.880287 ], [ 77.049928, 8.880196 ], [ 77.04985, 8.879173 ], [ 77.049875, 8.878709 ], [ 77.050139, 8.878161 ], [ 77.050236, 8.877703 ], [ 77.050276, 8.877259 ], [ 77.050252, 8.877106 ], [ 77.050102, 8.876782 ], [ 77.050008, 8.876452 ], [ 77.049981, 8.87628 ], [ 77.050002, 8.876129 ], [ 77.050295, 8.875609 ], [ 77.050354, 8.875447 ], [ 77.05037, 8.875228 ], [ 77.050327, 8.874949 ], [ 77.049895, 8.874257 ], [ 77.049592, 8.873687 ], [ 77.049405, 8.873366 ], [ 77.049272, 8.87327 ], [ 77.04896, 8.873175 ], [ 77.048849, 8.873088 ], [ 77.048691, 8.872813 ], [ 77.048479, 8.872654 ], [ 77.047907, 8.872294 ], [ 77.04787, 8.872246 ], [ 77.047851, 8.872174 ], [ 77.047814, 8.87192 ], [ 77.047768, 8.871837 ], [ 77.047704, 8.871782 ], [ 77.047629, 8.871742 ], [ 77.047511, 8.871731 ], [ 77.046854, 8.87189 ], [ 77.045649, 8.871949 ], [ 77.045537, 8.871925 ], [ 77.045432, 8.871864 ], [ 77.045368, 8.871782 ], [ 77.045327, 8.871668 ], [ 77.045217, 8.871205 ], [ 77.045161, 8.870968 ], [ 77.045164, 8.870844 ], [ 77.04522, 8.869972 ], [ 77.045295, 8.869667 ], [ 77.045207, 8.86937 ], [ 77.045148, 8.869293 ], [ 77.045033, 8.869232 ], [ 77.044488, 8.869222 ], [ 77.044322, 8.869179 ], [ 77.044263, 8.869137 ], [ 77.043635, 8.868172 ], [ 77.043565, 8.868016 ], [ 77.043552, 8.86795 ], [ 77.04356, 8.867499 ], [ 77.043549, 8.867396 ], [ 77.043514, 8.867295 ], [ 77.042879, 8.866447 ], [ 77.042479, 8.866087 ], [ 77.042345, 8.865824 ], [ 77.042082, 8.864796 ], [ 77.041986, 8.864221 ], [ 77.041983, 8.863962 ], [ 77.042006, 8.86343 ], [ 77.04195, 8.863095 ], [ 77.041986, 8.862093 ], [ 77.042036, 8.861765 ], [ 77.042027, 8.86162 ], [ 77.042007, 8.861524 ], [ 77.041835, 8.861041 ], [ 77.041784, 8.860821 ], [ 77.041741, 8.860505 ], [ 77.041752, 8.859912 ], [ 77.041733, 8.859514 ], [ 77.041696, 8.85926 ], [ 77.041661, 8.859154 ], [ 77.041559, 8.859032 ], [ 77.041486, 8.859001 ], [ 77.041385, 8.858987 ], [ 77.041082, 8.859016 ], [ 77.04076, 8.858833 ], [ 77.040671, 8.858825 ], [ 77.040591, 8.858846 ], [ 77.040486, 8.858897 ], [ 77.040043, 8.859146 ], [ 77.039909, 8.859244 ], [ 77.039832, 8.859278 ], [ 77.039746, 8.859289 ], [ 77.039349, 8.859228 ], [ 77.039027, 8.859207 ], [ 77.038936, 8.859191 ], [ 77.038678, 8.859098 ], [ 77.038487, 8.859082 ], [ 77.037957, 8.859095 ], [ 77.037415, 8.859218 ], [ 77.037316, 8.859223 ], [ 77.03723, 8.859207 ], [ 77.037157, 8.859175 ], [ 77.037082, 8.859114 ], [ 77.036651, 8.858677 ], [ 77.03653, 8.858584 ], [ 77.036165, 8.85829 ], [ 77.036122, 8.858205 ], [ 77.036101, 8.858123 ], [ 77.036079, 8.857243 ], [ 77.035991, 8.856861 ], [ 77.03598, 8.856756 ], [ 77.035988, 8.856578 ], [ 77.035959, 8.856379 ], [ 77.035889, 8.856066 ], [ 77.03583, 8.855894 ], [ 77.035731, 8.855708 ], [ 77.0355, 8.855396 ], [ 77.035283, 8.85516 ], [ 77.035224, 8.855072 ], [ 77.03518, 8.854906 ], [ 77.035178, 8.854693 ], [ 77.035146, 8.854606 ], [ 77.034988, 8.854349 ], [ 77.034966, 8.854286 ], [ 77.034902, 8.853777 ], [ 77.034902, 8.853649 ], [ 77.034918, 8.853597 ], [ 77.035119, 8.853299 ], [ 77.035151, 8.853231 ], [ 77.035175, 8.853077 ], [ 77.035151, 8.852889 ], [ 77.034985, 8.852439 ], [ 77.034896, 8.85212 ], [ 77.034828, 8.851641 ], [ 77.03466, 8.85137 ], [ 77.034558, 8.851251 ], [ 77.034467, 8.851169 ], [ 77.034037, 8.850919 ], [ 77.033834, 8.850796 ], [ 77.033762, 8.850721 ], [ 77.0337, 8.850591 ], [ 77.033697, 8.850438 ], [ 77.033797, 8.849963 ], [ 77.033801, 8.849718 ], [ 77.033816, 8.849226 ], [ 77.033914, 8.847854 ], [ 77.033909, 8.847681 ], [ 77.033848, 8.847392 ], [ 77.033746, 8.847093 ], [ 77.033655, 8.846936 ], [ 77.033566, 8.846819 ], [ 77.033271, 8.846529 ], [ 77.032858, 8.846234 ], [ 77.032742, 8.846134 ], [ 77.032665, 8.846048 ], [ 77.032464, 8.845757 ], [ 77.032399, 8.845616 ], [ 77.032153, 8.844858 ], [ 77.032123, 8.8447 ], [ 77.032069, 8.843936 ], [ 77.032024, 8.843718 ], [ 77.031863, 8.843159 ], [ 77.031611, 8.842396 ], [ 77.031514, 8.84224 ], [ 77.031415, 8.842126 ], [ 77.031061, 8.841849 ], [ 77.030498, 8.841312 ], [ 77.030422, 8.841211 ], [ 77.030339, 8.84102 ], [ 77.030216, 8.840676 ], [ 77.030211, 8.84058 ], [ 77.030224, 8.840496 ], [ 77.030302, 8.84035 ], [ 77.030555, 8.840164 ], [ 77.030621, 8.840032 ], [ 77.030621, 8.839939 ], [ 77.030605, 8.83991 ], [ 77.030557, 8.839836 ], [ 77.030405, 8.839669 ], [ 77.030192, 8.839433 ], [ 77.030135, 8.839345 ], [ 77.030079, 8.839181 ], [ 77.030016, 8.839054 ], [ 77.02995, 8.838961 ], [ 77.029055, 8.838407 ], [ 77.028966, 8.838333 ], [ 77.028918, 8.838269 ], [ 77.028894, 8.838198 ], [ 77.028891, 8.8381 ], [ 77.028907, 8.838026 ], [ 77.029116, 8.837533 ], [ 77.029216, 8.837207 ], [ 77.029301, 8.836846 ], [ 77.029309, 8.836711 ], [ 77.029301, 8.836592 ], [ 77.029266, 8.83647 ], [ 77.029216, 8.836364 ], [ 77.029146, 8.836276 ], [ 77.02895, 8.836101 ], [ 77.027786, 8.835198 ], [ 77.02766, 8.835123 ], [ 77.027411, 8.835032 ], [ 77.027148, 8.834967 ], [ 77.0267, 8.834885 ], [ 77.026469, 8.834882 ], [ 77.026158, 8.834917 ], [ 77.02527, 8.835176 ], [ 77.025148, 8.835184 ], [ 77.024937, 8.835102 ], [ 77.024607, 8.834914 ], [ 77.024428, 8.834758 ], [ 77.024321, 8.834618 ], [ 77.023964, 8.834153 ], [ 77.023703, 8.833934 ], [ 77.023599, 8.833846 ], [ 77.023407, 8.833647 ], [ 77.023164, 8.833451 ], [ 77.022918, 8.833358 ], [ 77.022647, 8.8333 ], [ 77.022574, 8.833268 ], [ 77.022513, 8.833218 ], [ 77.022467, 8.833165 ], [ 77.022384, 8.832969 ], [ 77.022201, 8.83229 ], [ 77.02212, 8.831802 ], [ 77.0221, 8.83168 ], [ 77.021813, 8.831013 ], [ 77.02152, 8.83053 ], [ 77.02134, 8.83027 ], [ 77.021188, 8.830077 ], [ 77.020984, 8.829918 ], [ 77.020692, 8.829791 ], [ 77.020531, 8.82974 ], [ 77.020182, 8.82969 ], [ 77.019927, 8.829624 ], [ 77.019777, 8.829563 ], [ 77.019624, 8.829459 ], [ 77.019074, 8.828842 ], [ 77.018991, 8.828696 ], [ 77.018959, 8.828587 ], [ 77.018959, 8.828521 ], [ 77.018987, 8.828426 ], [ 77.019071, 8.82832 ], [ 77.019114, 8.82823 ], [ 77.019128, 8.82815 ], [ 77.019128, 8.828065 ], [ 77.019079, 8.827774 ], [ 77.019122, 8.8274 ], [ 77.019074, 8.827119 ], [ 77.018999, 8.826851 ], [ 77.019012, 8.826724 ], [ 77.019039, 8.826653 ], [ 77.019086, 8.826598 ], [ 77.019245, 8.82641 ], [ 77.019426, 8.826197 ], [ 77.019482, 8.826101 ], [ 77.019492, 8.826025 ], [ 77.019471, 8.825958 ], [ 77.019385, 8.825865 ], [ 77.019216, 8.825812 ], [ 77.019117, 8.825754 ], [ 77.019047, 8.825693 ], [ 77.018908, 8.825492 ], [ 77.018835, 8.82533 ], [ 77.018503, 8.824304 ], [ 77.018479, 8.824185 ], [ 77.018476, 8.823835 ], [ 77.01843, 8.823594 ], [ 77.018269, 8.823199 ], [ 77.018243, 8.822995 ], [ 77.01806, 8.822605 ], [ 77.018033, 8.822507 ], [ 77.018004, 8.822197 ], [ 77.018087, 8.821784 ], [ 77.018267, 8.821389 ], [ 77.018311, 8.821254 ], [ 77.018331, 8.821145 ], [ 77.018307, 8.820713 ], [ 77.018318, 8.820636 ], [ 77.018334, 8.82057 ], [ 77.018543, 8.820193 ], [ 77.018559, 8.820029 ], [ 77.018538, 8.819801 ], [ 77.018551, 8.819716 ], [ 77.018582, 8.819666 ], [ 77.018632, 8.81961 ], [ 77.018715, 8.819552 ], [ 77.018935, 8.819475 ], [ 77.019251, 8.819475 ], [ 77.019463, 8.819422 ], [ 77.019735, 8.819284 ], [ 77.01982, 8.819218 ], [ 77.019911, 8.819091 ], [ 77.02004, 8.818632 ], [ 77.020045, 8.818542 ], [ 77.020007, 8.818407 ], [ 77.019914, 8.818256 ], [ 77.019879, 8.818166 ], [ 77.019884, 8.818015 ], [ 77.020198, 8.81753 ], [ 77.020225, 8.817426 ], [ 77.020244, 8.817225 ], [ 77.020219, 8.817045 ], [ 77.020099, 8.816803 ], [ 77.020048, 8.816745 ], [ 77.019983, 8.816716 ], [ 77.019908, 8.816703 ], [ 77.019739, 8.816756 ], [ 77.019643, 8.816827 ], [ 77.019409, 8.817069 ], [ 77.019023, 8.817281 ], [ 77.018736, 8.817516 ], [ 77.018552, 8.817584 ], [ 77.018308, 8.817648 ], [ 77.018233, 8.817637 ], [ 77.018185, 8.817613 ], [ 77.018012, 8.817434 ], [ 77.017899, 8.8174 ], [ 77.017717, 8.817397 ], [ 77.017085, 8.817571 ], [ 77.016666, 8.817941 ], [ 77.01661, 8.817972 ], [ 77.016547, 8.817971 ], [ 77.016491, 8.817951 ], [ 77.0162, 8.81776 ], [ 77.015965, 8.817799 ], [ 77.015693, 8.818074 ], [ 77.015556, 8.818132 ], [ 77.015492, 8.81813 ], [ 77.015425, 8.818118 ], [ 77.014834, 8.817918 ], [ 77.014133, 8.817787 ], [ 77.013505, 8.817717 ], [ 77.01328, 8.817704 ], [ 77.013071, 8.817269 ], [ 77.012846, 8.816997 ], [ 77.012706, 8.81688 ], [ 77.012293, 8.816663 ], [ 77.012004, 8.816456 ], [ 77.011693, 8.816276 ], [ 77.011569, 8.816246 ], [ 77.011429, 8.816241 ], [ 77.01092, 8.816362 ], [ 77.010705, 8.81632 ], [ 77.01048, 8.816218 ], [ 77.010378, 8.816143 ], [ 77.010319, 8.816037 ], [ 77.010287, 8.815921 ], [ 77.010325, 8.815767 ], [ 77.01029, 8.815527 ], [ 77.010215, 8.815222 ], [ 77.010127, 8.815087 ], [ 77.010041, 8.81489 ], [ 77.00996, 8.814807 ], [ 77.00923, 8.814565 ], [ 77.00872, 8.8142 ], [ 77.008259, 8.814004 ], [ 77.008066, 8.813717 ], [ 77.007856, 8.813595 ], [ 77.007728, 8.813498 ], [ 77.007642, 8.813403 ], [ 77.007616, 8.813307 ], [ 77.007642, 8.813138 ], [ 77.007858, 8.812517 ], [ 77.007862, 8.812311 ], [ 77.007787, 8.812125 ], [ 77.007734, 8.811929 ], [ 77.007707, 8.811738 ], [ 77.007836, 8.810455 ], [ 77.0079, 8.810243 ], [ 77.008072, 8.809978 ], [ 77.008324, 8.809713 ], [ 77.008511, 8.809538 ], [ 77.008758, 8.809384 ], [ 77.009311, 8.809178 ], [ 77.009396, 8.809098 ], [ 77.009418, 8.808997 ], [ 77.009413, 8.808875 ], [ 77.009316, 8.808708 ], [ 77.00916, 8.808517 ], [ 77.008881, 8.808342 ], [ 77.008796, 8.808271 ], [ 77.008769, 8.808139 ], [ 77.008785, 8.807992 ], [ 77.00886, 8.807831 ], [ 77.009342, 8.807504 ], [ 77.009375, 8.807412 ], [ 77.009413, 8.806421 ], [ 77.009407, 8.806209 ], [ 77.009305, 8.805727 ], [ 77.009407, 8.805228 ], [ 77.009429, 8.804751 ], [ 77.009423, 8.804513 ], [ 77.009391, 8.804316 ], [ 77.0093, 8.804057 ], [ 77.009252, 8.803739 ], [ 77.009091, 8.803362 ], [ 77.008962, 8.803124 ], [ 77.008671, 8.802654 ], [ 77.008608, 8.802556 ], [ 77.008581, 8.802429 ], [ 77.008662, 8.801883 ], [ 77.008715, 8.801258 ], [ 77.008613, 8.800802 ], [ 77.008613, 8.800643 ], [ 77.008678, 8.800447 ], [ 77.008795, 8.800226 ], [ 77.008925, 8.800022 ], [ 77.009118, 8.799795 ], [ 77.009686, 8.799302 ], [ 77.010126, 8.798957 ], [ 77.010254, 8.798794 ], [ 77.010292, 8.79866 ], [ 77.010266, 8.798236 ], [ 77.010282, 8.798066 ], [ 77.010368, 8.797769 ], [ 77.010469, 8.797144 ], [ 77.010437, 8.796921 ], [ 77.010373, 8.796635 ], [ 77.010301, 8.796127 ], [ 77.010317, 8.795966 ], [ 77.010368, 8.795813 ], [ 77.010432, 8.795668 ], [ 77.010475, 8.795612 ], [ 77.010544, 8.795525 ], [ 77.011245, 8.794924 ], [ 77.011623, 8.79453 ], [ 77.011836, 8.79419 ], [ 77.011917, 8.794097 ], [ 77.01211, 8.793981 ], [ 77.012899, 8.793679 ], [ 77.013023, 8.793613 ], [ 77.013103, 8.793512 ], [ 77.013313, 8.793152 ], [ 77.013879, 8.79236 ], [ 77.0144, 8.79183 ], [ 77.014762, 8.791372 ], [ 77.014915, 8.790992 ], [ 77.015009, 8.790736 ], [ 77.015074, 8.790442 ], [ 77.01509, 8.790236 ], [ 77.015051, 8.790103 ], [ 77.014893, 8.78987 ], [ 77.014866, 8.78971 ], [ 77.014885, 8.789558 ], [ 77.014993, 8.78936 ], [ 77.015067, 8.789135 ], [ 77.015105, 8.788849 ], [ 77.015155, 8.788616 ], [ 77.015279, 8.788357 ], [ 77.015472, 8.788136 ], [ 77.015807, 8.787922 ], [ 77.016178, 8.787614 ], [ 77.016833, 8.786817 ], [ 77.017024, 8.786546 ], [ 77.017312, 8.786138 ], [ 77.017578, 8.785563 ], [ 77.017794, 8.785197 ], [ 77.018545, 8.784404 ], [ 77.018622, 8.784341 ], [ 77.018741, 8.784264 ], [ 77.018892, 8.784195 ], [ 77.019165, 8.784116 ], [ 77.019258, 8.784075 ], [ 77.019329, 8.78402 ], [ 77.019449, 8.783859 ], [ 77.019479, 8.783747 ], [ 77.019474, 8.78361 ], [ 77.019401, 8.783289 ], [ 77.019398, 8.783097 ], [ 77.01942, 8.78287 ], [ 77.019551, 8.782468 ], [ 77.020074, 8.781449 ], [ 77.020362, 8.780833 ], [ 77.020828, 8.779975 ], [ 77.02104, 8.779636 ], [ 77.021137, 8.779525 ], [ 77.021212, 8.779448 ], [ 77.021327, 8.779376 ], [ 77.021676, 8.779286 ], [ 77.021751, 8.779236 ], [ 77.02211, 8.778772 ], [ 77.022521, 8.778361 ], [ 77.023151, 8.777773 ], [ 77.023526, 8.777386 ], [ 77.023926, 8.776945 ], [ 77.024079, 8.776707 ], [ 77.024133, 8.776572 ], [ 77.024274, 8.77606 ], [ 77.024406, 8.775612 ], [ 77.024467, 8.775081 ], [ 77.024534, 8.774726 ], [ 77.024672, 8.774208 ], [ 77.024789, 8.77353 ], [ 77.024846, 8.772882 ], [ 77.024894, 8.772378 ], [ 77.024908, 8.771641 ], [ 77.024924, 8.771551 ], [ 77.024959, 8.771426 ], [ 77.025144, 8.77101 ], [ 77.025251, 8.77062 ], [ 77.02535, 8.770149 ], [ 77.02546, 8.769486 ], [ 77.025442, 8.768306 ], [ 77.025452, 8.767948 ], [ 77.025417, 8.767388 ], [ 77.025434, 8.767185 ], [ 77.025501, 8.766973 ], [ 77.025742, 8.766517 ], [ 77.025758, 8.766427 ], [ 77.025747, 8.7663 ], [ 77.025704, 8.766156 ], [ 77.025444, 8.765612 ], [ 77.025375, 8.765364 ], [ 77.025283, 8.764904 ], [ 77.02524, 8.764802 ], [ 77.025187, 8.764725 ], [ 77.025114, 8.764667 ], [ 77.024768, 8.764478 ], [ 77.024618, 8.764373 ], [ 77.024511, 8.764274 ], [ 77.024406, 8.764152 ], [ 77.024245, 8.763929 ], [ 77.02398, 8.763461 ], [ 77.023713, 8.762918 ], [ 77.023649, 8.762815 ], [ 77.023008, 8.761978 ], [ 77.022826, 8.76169 ], [ 77.022732, 8.761475 ], [ 77.022478, 8.760401 ], [ 77.022389, 8.760106 ], [ 77.02233, 8.759693 ], [ 77.022327, 8.759592 ], [ 77.022357, 8.759394 ], [ 77.022526, 8.75892 ], [ 77.02262, 8.75875 ], [ 77.022778, 8.758586 ], [ 77.022861, 8.758482 ], [ 77.02293, 8.758362 ], [ 77.022995, 8.758199 ], [ 77.023014, 8.758113 ], [ 77.023024, 8.758017 ], [ 77.022963, 8.757413 ], [ 77.022928, 8.757297 ], [ 77.022805, 8.757056 ], [ 77.02255, 8.756771 ], [ 77.022505, 8.756693 ], [ 77.022473, 8.756562 ], [ 77.02247, 8.756457 ], [ 77.022576, 8.756082 ], [ 77.022759, 8.755531 ], [ 77.022804, 8.75543 ], [ 77.022875, 8.755349 ], [ 77.023018, 8.755233 ], [ 77.023127, 8.75511 ], [ 77.023151, 8.755033 ], [ 77.023148, 8.754967 ], [ 77.023124, 8.754917 ], [ 77.023046, 8.754882 ], [ 77.022772, 8.754958 ], [ 77.022674, 8.754959 ], [ 77.022263, 8.754898 ], [ 77.021802, 8.754869 ], [ 77.021627, 8.754948 ], [ 77.021536, 8.755028 ], [ 77.021346, 8.755261 ], [ 77.021273, 8.755325 ], [ 77.021107, 8.755399 ], [ 77.021032, 8.755412 ], [ 77.020938, 8.755394 ], [ 77.020854, 8.755348 ], [ 77.020109, 8.754656 ], [ 77.020048, 8.754564 ], [ 77.019991, 8.75433 ], [ 77.019981, 8.754219 ], [ 77.019999, 8.754129 ], [ 77.020042, 8.754031 ], [ 77.020139, 8.753917 ], [ 77.020308, 8.753777 ], [ 77.020935, 8.753371 ], [ 77.021053, 8.753255 ], [ 77.021263, 8.752968 ], [ 77.021858, 8.75243 ], [ 77.021976, 8.752276 ], [ 77.022061, 8.752108 ], [ 77.022177, 8.751948 ], [ 77.022341, 8.751828 ], [ 77.022488, 8.751773 ], [ 77.022694, 8.751768 ], [ 77.022772, 8.751666 ], [ 77.023071, 8.751229 ], [ 77.023126, 8.751046 ], [ 77.023077, 8.750939 ], [ 77.023058, 8.750812 ], [ 77.02306, 8.750709 ], [ 77.023088, 8.7506 ], [ 77.023132, 8.750508 ], [ 77.023384, 8.750125 ], [ 77.023392, 8.750039 ], [ 77.023253, 8.749676 ], [ 77.023245, 8.74954 ], [ 77.023264, 8.749416 ], [ 77.023851, 8.748488 ], [ 77.023923, 8.748409 ], [ 77.024151, 8.748228 ], [ 77.024194, 8.748181 ], [ 77.024234, 8.748063 ], [ 77.024213, 8.747954 ], [ 77.024054, 8.747559 ], [ 77.023902, 8.747228 ], [ 77.023709, 8.746779 ], [ 77.023693, 8.746655 ], [ 77.023707, 8.746554 ], [ 77.023883, 8.746006 ], [ 77.024015, 8.745307 ], [ 77.024143, 8.744944 ], [ 77.024347, 8.744639 ], [ 77.02465, 8.744291 ], [ 77.025326, 8.743756 ], [ 77.02582, 8.743308 ], [ 77.025959, 8.743061 ], [ 77.026064, 8.742818 ], [ 77.026109, 8.742713 ], [ 77.0262, 8.74258 ], [ 77.02646, 8.742279 ], [ 77.026562, 8.742126 ], [ 77.026587, 8.742041 ], [ 77.026592, 8.741947 ], [ 77.026565, 8.741839 ], [ 77.026386, 8.74155 ], [ 77.02637, 8.741481 ], [ 77.026377, 8.741388 ], [ 77.026404, 8.741336 ], [ 77.026584, 8.741133 ], [ 77.02663, 8.741033 ], [ 77.026635, 8.740755 ], [ 77.02667, 8.74067 ], [ 77.026849, 8.740494 ], [ 77.026897, 8.740359 ], [ 77.026876, 8.740285 ], [ 77.026629, 8.739808 ], [ 77.026641, 8.739663 ], [ 77.026756, 8.739473 ], [ 77.027016, 8.739154 ], [ 77.027056, 8.739074 ], [ 77.02708, 8.73897 ], [ 77.02708, 8.73883 ], [ 77.027102, 8.738716 ], [ 77.027126, 8.738655 ], [ 77.027174, 8.738613 ], [ 77.027247, 8.738605 ], [ 77.027311, 8.738626 ], [ 77.027437, 8.738737 ], [ 77.027536, 8.738796 ], [ 77.027609, 8.738825 ], [ 77.027681, 8.738828 ], [ 77.02777, 8.738801 ], [ 77.02789, 8.738711 ], [ 77.027928, 8.73865 ], [ 77.027952, 8.738557 ], [ 77.027957, 8.738462 ], [ 77.027933, 8.73834 ], [ 77.027855, 8.738183 ], [ 77.027852, 8.738116 ], [ 77.027869, 8.73804 ], [ 77.027962, 8.737817 ], [ 77.028019, 8.737607 ], [ 77.028025, 8.737531 ], [ 77.028, 8.73744 ], [ 77.027954, 8.737366 ], [ 77.02789, 8.737308 ], [ 77.027815, 8.737265 ], [ 77.027638, 8.737218 ], [ 77.027571, 8.737186 ], [ 77.027526, 8.737136 ], [ 77.027501, 8.737066 ], [ 77.027507, 8.73699 ], [ 77.027547, 8.736916 ], [ 77.02777, 8.736675 ], [ 77.027984, 8.736269 ], [ 77.02807, 8.73608 ], [ 77.02825, 8.735466 ], [ 77.028293, 8.735395 ], [ 77.028352, 8.735323 ], [ 77.028652, 8.735137 ], [ 77.028741, 8.735021 ], [ 77.028792, 8.734893 ], [ 77.028818, 8.734726 ], [ 77.028823, 8.73458 ], [ 77.02878, 8.734206 ], [ 77.028783, 8.733999 ], [ 77.028866, 8.733715 ], [ 77.02889, 8.733519 ], [ 77.028875, 8.733388 ], [ 77.028724, 8.732822 ], [ 77.028598, 8.732623 ], [ 77.028182, 8.732329 ], [ 77.028045, 8.732149 ], [ 77.027997, 8.732037 ], [ 77.027979, 8.731853 ], [ 77.028008, 8.73176 ], [ 77.028051, 8.731689 ], [ 77.028623, 8.731147 ], [ 77.02866, 8.731062 ], [ 77.028652, 8.730975 ], [ 77.028609, 8.730871 ], [ 77.028568, 8.730829 ], [ 77.028351, 8.730637 ], [ 77.028287, 8.730563 ], [ 77.028244, 8.730494 ], [ 77.02822, 8.730399 ], [ 77.028218, 8.730302 ], [ 77.02829, 8.729732 ], [ 77.028325, 8.729618 ], [ 77.028491, 8.729354 ], [ 77.028507, 8.729288 ], [ 77.028497, 8.729209 ], [ 77.028456, 8.729137 ], [ 77.028249, 8.728928 ], [ 77.028174, 8.728795 ], [ 77.028113, 8.728644 ], [ 77.028083, 8.728509 ], [ 77.028075, 8.728334 ], [ 77.028101, 8.727841 ], [ 77.028113, 8.727518 ], [ 77.028049, 8.727134 ], [ 77.028043, 8.726862 ], [ 77.028089, 8.726683 ], [ 77.028247, 8.726346 ], [ 77.028332, 8.72604 ], [ 77.028408, 8.725641 ], [ 77.028483, 8.725389 ], [ 77.028652, 8.724976 ], [ 77.028765, 8.724376 ], [ 77.028965, 8.723912 ], [ 77.029014, 8.723766 ], [ 77.029078, 8.723456 ], [ 77.029069, 8.723331 ], [ 77.029022, 8.72318 ], [ 77.028869, 8.72281 ], [ 77.028863, 8.722679 ], [ 77.028751, 8.72261 ], [ 77.0286, 8.722417 ], [ 77.028271, 8.722003 ], [ 77.028209, 8.721889 ], [ 77.028006, 8.721322 ], [ 77.027954, 8.721242 ], [ 77.027723, 8.721064 ], [ 77.027504, 8.720872 ], [ 77.027306, 8.720636 ], [ 77.027051, 8.72019 ], [ 77.026975, 8.719982 ], [ 77.026889, 8.719659 ], [ 77.026806, 8.719256 ], [ 77.026826, 8.719053 ], [ 77.026903, 8.718911 ], [ 77.027384, 8.718362 ], [ 77.027657, 8.718141 ], [ 77.027772, 8.718035 ], [ 77.028188, 8.717467 ], [ 77.028451, 8.717123 ], [ 77.028638, 8.716938 ], [ 77.028748, 8.716747 ], [ 77.028809, 8.716623 ], [ 77.028896, 8.71643 ], [ 77.029, 8.716002 ], [ 77.029024, 8.715697 ], [ 77.029045, 8.71559 ], [ 77.029078, 8.71552 ], [ 77.029225, 8.715398 ], [ 77.029322, 8.715324 ], [ 77.02937, 8.715263 ], [ 77.029391, 8.715191 ], [ 77.029391, 8.715119 ], [ 77.029356, 8.715021 ], [ 77.029147, 8.714756 ], [ 77.029104, 8.714636 ], [ 77.029069, 8.714499 ], [ 77.029037, 8.713915 ], [ 77.028959, 8.713605 ], [ 77.028909, 8.713486 ], [ 77.028691, 8.71325 ], [ 77.028616, 8.713146 ], [ 77.028571, 8.713046 ], [ 77.028541, 8.712622 ], [ 77.028516, 8.71251 ], [ 77.028398, 8.712154 ], [ 77.028321, 8.711818 ], [ 77.028327, 8.711721 ], [ 77.02845, 8.711345 ], [ 77.028514, 8.711161 ], [ 77.028563, 8.711092 ], [ 77.028825, 8.710819 ], [ 77.028949, 8.710649 ], [ 77.029029, 8.710445 ], [ 77.029102, 8.710111 ], [ 77.02911, 8.709997 ], [ 77.029099, 8.709411 ], [ 77.029126, 8.709218 ], [ 77.02923, 8.708939 ], [ 77.029246, 8.708835 ], [ 77.029249, 8.708745 ], [ 77.029195, 8.708291 ], [ 77.029318, 8.707613 ], [ 77.029316, 8.707179 ], [ 77.029251, 8.706402 ], [ 77.029212, 8.705782 ], [ 77.029225, 8.705616 ], [ 77.0293, 8.705129 ], [ 77.029308, 8.704919 ], [ 77.029289, 8.704801 ], [ 77.029082, 8.70411 ], [ 77.028967, 8.703798 ], [ 77.028753, 8.703337 ], [ 77.028409, 8.702657 ], [ 77.028262, 8.702475 ], [ 77.027956, 8.702201 ], [ 77.027884, 8.702118 ], [ 77.027645, 8.701722 ], [ 77.027567, 8.701528 ], [ 77.027497, 8.700916 ], [ 77.02749, 8.700734 ], [ 77.027497, 8.700576 ], [ 77.027653, 8.699935 ], [ 77.027663, 8.699839 ], [ 77.027648, 8.699715 ], [ 77.027621, 8.699639 ], [ 77.02757, 8.699556 ], [ 77.027419, 8.699388 ], [ 77.026975, 8.699114 ], [ 77.026591, 8.698923 ], [ 77.026186, 8.698566 ], [ 77.026113, 8.698532 ], [ 77.025644, 8.698413 ], [ 77.02544, 8.698331 ], [ 77.024734, 8.697802 ], [ 77.024534, 8.697639 ], [ 77.024456, 8.697554 ], [ 77.024351, 8.69735 ], [ 77.024236, 8.696986 ], [ 77.023855, 8.696384 ], [ 77.023777, 8.696321 ], [ 77.023608, 8.696241 ], [ 77.023275, 8.696172 ], [ 77.023212, 8.696149 ], [ 77.023157, 8.696101 ], [ 77.022994, 8.695843 ], [ 77.022758, 8.695516 ], [ 77.022334, 8.694349 ], [ 77.022208, 8.693836 ], [ 77.022098, 8.693524 ], [ 77.022039, 8.693449 ], [ 77.021962, 8.693402 ], [ 77.021881, 8.693381 ], [ 77.021617, 8.693362 ], [ 77.021333, 8.693335 ], [ 77.021191, 8.693314 ], [ 77.021119, 8.693288 ], [ 77.021063, 8.693242 ], [ 77.020808, 8.692879 ], [ 77.020738, 8.692805 ], [ 77.020413, 8.692537 ], [ 77.020086, 8.69215 ], [ 77.020017, 8.692098 ], [ 77.019944, 8.692094 ], [ 77.019591, 8.69217 ], [ 77.019507, 8.692146 ], [ 77.01944, 8.692095 ], [ 77.019387, 8.692026 ], [ 77.019309, 8.691833 ], [ 77.019296, 8.691751 ], [ 77.019298, 8.691666 ], [ 77.019322, 8.691588 ], [ 77.019671, 8.691197 ], [ 77.019773, 8.691035 ], [ 77.019791, 8.690952 ], [ 77.019805, 8.690867 ], [ 77.019797, 8.69078 ], [ 77.019713, 8.690392 ], [ 77.019729, 8.690199 ], [ 77.019746, 8.690112 ], [ 77.019941, 8.689801 ], [ 77.020164, 8.689228 ], [ 77.020181, 8.689155 ], [ 77.020175, 8.689052 ], [ 77.020081, 8.68878 ], [ 77.020059, 8.68856 ], [ 77.020339, 8.687416 ], [ 77.020374, 8.687209 ], [ 77.020371, 8.687103 ], [ 77.020347, 8.68701 ], [ 77.020167, 8.686785 ], [ 77.020143, 8.686728 ], [ 77.02014, 8.68666 ], [ 77.020159, 8.686602 ], [ 77.020205, 8.686554 ], [ 77.020427, 8.686405 ], [ 77.020492, 8.68635 ], [ 77.020551, 8.68627 ], [ 77.020666, 8.686047 ], [ 77.020781, 8.685721 ], [ 77.020827, 8.685548 ], [ 77.020886, 8.684909 ], [ 77.020969, 8.684535 ], [ 77.020996, 8.684149 ], [ 77.021017, 8.684058 ], [ 77.021184, 8.683597 ], [ 77.021194, 8.683376 ], [ 77.021158, 8.683241 ], [ 77.0211, 8.683061 ], [ 77.021081, 8.682889 ], [ 77.021098, 8.682672 ], [ 77.021178, 8.682268 ], [ 77.021221, 8.682179 ], [ 77.021283, 8.682105 ], [ 77.02168, 8.681882 ], [ 77.021726, 8.6818 ], [ 77.021878, 8.681161 ], [ 77.021948, 8.680983 ], [ 77.022367, 8.68062 ], [ 77.022407, 8.680548 ], [ 77.022433, 8.680417 ], [ 77.022417, 8.680362 ], [ 77.022371, 8.680301 ], [ 77.022256, 8.680203 ], [ 77.022015, 8.680073 ], [ 77.021819, 8.680036 ], [ 77.02146, 8.680038 ], [ 77.021363, 8.680025 ], [ 77.021291, 8.679994 ], [ 77.021237, 8.67994 ], [ 77.0212, 8.679872 ], [ 77.021184, 8.67979 ], [ 77.021246, 8.679434 ], [ 77.021277, 8.679182 ], [ 77.021358, 8.678997 ], [ 77.02143, 8.678907 ], [ 77.02175, 8.678647 ], [ 77.021892, 8.678512 ], [ 77.022141, 8.678223 ], [ 77.022254, 8.678117 ], [ 77.022511, 8.677942 ], [ 77.022597, 8.677862 ], [ 77.02282, 8.677547 ], [ 77.022927, 8.677321 ], [ 77.022964, 8.677201 ], [ 77.022978, 8.677083 ], [ 77.022973, 8.676948 ], [ 77.02294, 8.676817 ], [ 77.022815, 8.676472 ], [ 77.022801, 8.676371 ], [ 77.022814, 8.676276 ], [ 77.022881, 8.676098 ], [ 77.023043, 8.675882 ], [ 77.023217, 8.675712 ], [ 77.023405, 8.675468 ], [ 77.023571, 8.675123 ], [ 77.023633, 8.674946 ], [ 77.023659, 8.674812 ], [ 77.023646, 8.674589 ], [ 77.023605, 8.674457 ], [ 77.023463, 8.67411 ], [ 77.023401, 8.673879 ], [ 77.023401, 8.673749 ], [ 77.023448, 8.673535 ], [ 77.023635, 8.67319 ], [ 77.023734, 8.67298 ], [ 77.023836, 8.672705 ], [ 77.023909, 8.672581 ], [ 77.023981, 8.672496 ], [ 77.02425, 8.672262 ], [ 77.024356, 8.672121 ], [ 77.024499, 8.671581 ], [ 77.024657, 8.671281 ], [ 77.024866, 8.670974 ], [ 77.024942, 8.670769 ], [ 77.024963, 8.670634 ], [ 77.024968, 8.670446 ], [ 77.024934, 8.670266 ], [ 77.024824, 8.66999 ], [ 77.024807, 8.669889 ], [ 77.024837, 8.669759 ], [ 77.024909, 8.669635 ], [ 77.024987, 8.66956 ], [ 77.02547, 8.669282 ], [ 77.025655, 8.669149 ], [ 77.025717, 8.669075 ], [ 77.025738, 8.668984 ], [ 77.025738, 8.668937 ], [ 77.025709, 8.668837 ], [ 77.02562, 8.668666 ], [ 77.025255, 8.668258 ], [ 77.025174, 8.66812 ], [ 77.025143, 8.668038 ], [ 77.025123, 8.667923 ], [ 77.025131, 8.667812 ], [ 77.025212, 8.667585 ], [ 77.025392, 8.66723 ], [ 77.025465, 8.667134 ], [ 77.025741, 8.666843 ], [ 77.025811, 8.666742 ], [ 77.02585, 8.666624 ], [ 77.025901, 8.666425 ], [ 77.025955, 8.666121 ], [ 77.025976, 8.665625 ], [ 77.026205, 8.664554 ], [ 77.02632, 8.663767 ], [ 77.02635, 8.663332 ], [ 77.026461, 8.662786 ], [ 77.026519, 8.662613 ], [ 77.026556, 8.66255 ], [ 77.026618, 8.662475 ], [ 77.026867, 8.662245 ], [ 77.027141, 8.661876 ], [ 77.027468, 8.66115 ], [ 77.027605, 8.660699 ], [ 77.027631, 8.660555 ], [ 77.02765, 8.660351 ], [ 77.027637, 8.660245 ], [ 77.027597, 8.660123 ], [ 77.027479, 8.659935 ], [ 77.027393, 8.659856 ], [ 77.027162, 8.659696 ], [ 77.027049, 8.659579 ], [ 77.026963, 8.659422 ], [ 77.026924, 8.659252 ], [ 77.026859, 8.659086 ], [ 77.026811, 8.658853 ], [ 77.026789, 8.658399 ], [ 77.02685, 8.657985 ], [ 77.026847, 8.657887 ], [ 77.026795, 8.657641 ], [ 77.026786, 8.657293 ], [ 77.02676, 8.657187 ], [ 77.026714, 8.657123 ], [ 77.026513, 8.656996 ], [ 77.026427, 8.656909 ], [ 77.026376, 8.656811 ], [ 77.026352, 8.656715 ], [ 77.026352, 8.656614 ], [ 77.026368, 8.656496 ], [ 77.026476, 8.656347 ], [ 77.026567, 8.656289 ], [ 77.026819, 8.656215 ], [ 77.026905, 8.656175 ], [ 77.026975, 8.656122 ], [ 77.02702, 8.656055 ], [ 77.027051, 8.655962 ], [ 77.027061, 8.655854 ], [ 77.027027, 8.654883 ], [ 77.026977, 8.654446 ], [ 77.026886, 8.65399 ], [ 77.026816, 8.653791 ], [ 77.026773, 8.653743 ], [ 77.026711, 8.653713 ], [ 77.026634, 8.653712 ], [ 77.026213, 8.653815 ], [ 77.025421, 8.653886 ], [ 77.025311, 8.65388 ], [ 77.024968, 8.653786 ], [ 77.024773, 8.653773 ], [ 77.024287, 8.653913 ], [ 77.023959, 8.653973 ], [ 77.023796, 8.653976 ], [ 77.023678, 8.653955 ], [ 77.023552, 8.653891 ], [ 77.023378, 8.653765 ], [ 77.023287, 8.653675 ], [ 77.023248, 8.653613 ], [ 77.023225, 8.653526 ], [ 77.023219, 8.65344 ], [ 77.023257, 8.65321 ], [ 77.023244, 8.653019 ], [ 77.023268, 8.652834 ], [ 77.023354, 8.652526 ], [ 77.023359, 8.652388 ], [ 77.023346, 8.652078 ], [ 77.023327, 8.651964 ], [ 77.023244, 8.65172 ], [ 77.023208, 8.651547 ], [ 77.023211, 8.651449 ], [ 77.023254, 8.651216 ], [ 77.023318, 8.650871 ], [ 77.023324, 8.650728 ], [ 77.023308, 8.650608 ], [ 77.023277, 8.650504 ], [ 77.023232, 8.650431 ], [ 77.022983, 8.650181 ], [ 77.022951, 8.650108 ], [ 77.022898, 8.649838 ], [ 77.022862, 8.649752 ], [ 77.022815, 8.649689 ], [ 77.022747, 8.649635 ], [ 77.022675, 8.649607 ], [ 77.022557, 8.649599 ], [ 77.022415, 8.649625 ], [ 77.022334, 8.649663 ], [ 77.022096, 8.649867 ], [ 77.02198, 8.649912 ], [ 77.021731, 8.649949 ], [ 77.021669, 8.64994 ], [ 77.02162, 8.649911 ], [ 77.021586, 8.64985 ], [ 77.021482, 8.649559 ], [ 77.021452, 8.64949 ], [ 77.021406, 8.649432 ], [ 77.021189, 8.649273 ], [ 77.021154, 8.649221 ], [ 77.021138, 8.649166 ], [ 77.021165, 8.649082 ], [ 77.02143, 8.648814 ], [ 77.021659, 8.648697 ], [ 77.021801, 8.648599 ], [ 77.021868, 8.648528 ], [ 77.021911, 8.648432 ], [ 77.021919, 8.648318 ], [ 77.021897, 8.648195 ], [ 77.021846, 8.648111 ], [ 77.02179, 8.64805 ], [ 77.021714, 8.648012 ], [ 77.021522, 8.647952 ], [ 77.021449, 8.647845 ], [ 77.021449, 8.647788 ], [ 77.021471, 8.647727 ], [ 77.021567, 8.647541 ], [ 77.021689, 8.646953 ], [ 77.022069, 8.646595 ], [ 77.022212, 8.646388 ], [ 77.022215, 8.646274 ], [ 77.022203, 8.646226 ], [ 77.02214, 8.646115 ], [ 77.021922, 8.64589 ], [ 77.021058, 8.644328 ], [ 77.021025, 8.644129 ], [ 77.021005, 8.643846 ], [ 77.020992, 8.64325 ], [ 77.020866, 8.642411 ], [ 77.02081, 8.642238 ], [ 77.020742, 8.642099 ], [ 77.020581, 8.641988 ], [ 77.020457, 8.641923 ], [ 77.020336, 8.641886 ], [ 77.020227, 8.641921 ], [ 77.020119, 8.641996 ], [ 77.019926, 8.64235 ], [ 77.019815, 8.642481 ], [ 77.01968, 8.64257 ], [ 77.019407, 8.642609 ], [ 77.019282, 8.642572 ], [ 77.019117, 8.6425 ], [ 77.019036, 8.642374 ], [ 77.018969, 8.642155 ], [ 77.018866, 8.641989 ], [ 77.018721, 8.641877 ], [ 77.01852, 8.641607 ], [ 77.018404, 8.641203 ], [ 77.018198, 8.640872 ], [ 77.018063, 8.640746 ], [ 77.01794, 8.640722 ], [ 77.017732, 8.64072 ], [ 77.017295, 8.640658 ], [ 77.016698, 8.640482 ], [ 77.016531, 8.640453 ], [ 77.016106, 8.640336 ], [ 77.01597, 8.640252 ], [ 77.01593, 8.640159 ], [ 77.015949, 8.64003 ], [ 77.016044, 8.639652 ], [ 77.016124, 8.63918 ], [ 77.016127, 8.639004 ], [ 77.016014, 8.638815 ], [ 77.015568, 8.638239 ], [ 77.015488, 8.63799 ], [ 77.015463, 8.637619 ], [ 77.015398, 8.637351 ], [ 77.01525, 8.637147 ], [ 77.015066, 8.637074 ], [ 77.014161, 8.637239 ], [ 77.013912, 8.637194 ], [ 77.013727, 8.637126 ], [ 77.013611, 8.636957 ], [ 77.0136, 8.636779 ], [ 77.013672, 8.636263 ], [ 77.013635, 8.636062 ], [ 77.013409, 8.635739 ], [ 77.01252, 8.634876 ], [ 77.012496, 8.634853 ], [ 77.012437, 8.634796 ], [ 77.012409, 8.634768 ], [ 77.011668, 8.633982 ], [ 77.011248, 8.633598 ], [ 77.011174, 8.633539 ], [ 77.011169, 8.633535 ], [ 77.011087, 8.633471 ], [ 77.010942, 8.633405 ], [ 77.010737, 8.633337 ], [ 77.010363, 8.63325 ], [ 77.010031, 8.633122 ], [ 77.009693, 8.632888 ], [ 77.008964, 8.632274 ], [ 77.008468, 8.63181 ], [ 77.008098, 8.631523 ], [ 77.007877, 8.631281 ], [ 77.007651, 8.630986 ], [ 77.007425, 8.630717 ], [ 77.006931, 8.63034 ], [ 77.006387, 8.630113 ], [ 77.006223, 8.630069 ], [ 77.005989, 8.630071 ], [ 77.005616, 8.630149 ], [ 77.004611, 8.630151 ], [ 77.004484, 8.630151 ], [ 77.003945, 8.630158 ], [ 77.003725, 8.63011 ], [ 77.0035, 8.630018 ], [ 77.003334, 8.629896 ], [ 77.003216, 8.629769 ], [ 77.003001, 8.629424 ], [ 77.002631, 8.629085 ], [ 77.002545, 8.629069 ], [ 77.002202, 8.629058 ], [ 77.00193, 8.629032 ], [ 77.001718, 8.628962 ], [ 77.00163, 8.628898 ], [ 77.001547, 8.628793 ], [ 77.001453, 8.628604 ], [ 77.001282, 8.628188 ], [ 77.001209, 8.628058 ], [ 77.001134, 8.627967 ], [ 77.000729, 8.627613 ], [ 77.000542, 8.627425 ], [ 77.00038, 8.627241 ], [ 77.000278, 8.627087 ], [ 77.000168, 8.626854 ], [ 77.000125, 8.626721 ], [ 77.000101, 8.626562 ], [ 77.000114, 8.626392 ], [ 77.000145, 8.62624 ], [ 77.000242, 8.625798 ], [ 77.000367, 8.62525 ], [ 77.000364, 8.625123 ], [ 77.000335, 8.624988 ], [ 77.000254, 8.624886 ], [ 77.000072, 8.624791 ], [ 76.999726, 8.624655 ], [ 76.998892, 8.62441 ], [ 76.9985, 8.624175 ], [ 76.998143, 8.623817 ], [ 76.998041, 8.623685 ], [ 76.998015, 8.62359 ], [ 76.998023, 8.623497 ], [ 76.998085, 8.623399 ], [ 76.998246, 8.623229 ], [ 76.998347, 8.623084 ], [ 76.998431, 8.622813 ], [ 76.998471, 8.622511 ], [ 76.998476, 8.622309 ], [ 76.99839, 8.621515 ], [ 76.998248, 8.620913 ], [ 76.998176, 8.620246 ], [ 76.998086, 8.619491 ], [ 76.998006, 8.619398 ], [ 76.997715, 8.619131 ], [ 76.997357, 8.618871 ], [ 76.997323, 8.618823 ], [ 76.997287, 8.618754 ], [ 76.997264, 8.618573 ], [ 76.997317, 8.618283 ], [ 76.99742, 8.617909 ], [ 76.997478, 8.617695 ], [ 76.997534, 8.617299 ], [ 76.997535, 8.617104 ], [ 76.997511, 8.616971 ], [ 76.997467, 8.616862 ], [ 76.997351, 8.616675 ], [ 76.997137, 8.616326 ], [ 76.997108, 8.616069 ], [ 76.997126, 8.615933 ], [ 76.997462, 8.615115 ], [ 76.997797, 8.614477 ], [ 76.997829, 8.614331 ], [ 76.997819, 8.614193 ], [ 76.997781, 8.614066 ], [ 76.997719, 8.613947 ], [ 76.997301, 8.613371 ], [ 76.997231, 8.613233 ], [ 76.997181, 8.613079 ], [ 76.99717, 8.612986 ], [ 76.997177, 8.612894 ], [ 76.997234, 8.612741 ], [ 76.997344, 8.612521 ], [ 76.99772, 8.611943 ], [ 76.997781, 8.611809 ], [ 76.997821, 8.611671 ], [ 76.997827, 8.611531 ], [ 76.997789, 8.611125 ], [ 76.997744, 8.610885 ], [ 76.997623, 8.610494 ], [ 76.997602, 8.610357 ], [ 76.997602, 8.610232 ], [ 76.997644, 8.610101 ], [ 76.997693, 8.609991 ], [ 76.997774, 8.609877 ], [ 76.997871, 8.609747 ], [ 76.997993, 8.609659 ], [ 76.998124, 8.609451 ], [ 76.997716, 8.609109 ], [ 76.997535, 8.608935 ], [ 76.997338, 8.608778 ], [ 76.99699, 8.608482 ], [ 76.996422, 8.608069 ], [ 76.996018, 8.607854 ], [ 76.995903, 8.6078 ], [ 76.995712, 8.607713 ], [ 76.995563, 8.60762 ], [ 76.995493, 8.607551 ], [ 76.995436, 8.607468 ], [ 76.995305, 8.607124 ], [ 76.995265, 8.606993 ], [ 76.995254, 8.606822 ], [ 76.995212, 8.606301 ], [ 76.99522, 8.606222 ], [ 76.995322, 8.605819 ], [ 76.995432, 8.605485 ], [ 76.995523, 8.604901 ], [ 76.99554, 8.604771 ], [ 76.995525, 8.604424 ], [ 76.995475, 8.603854 ], [ 76.995443, 8.603651 ], [ 76.995364, 8.603375 ], [ 76.994825, 8.602069 ], [ 76.994633, 8.601592 ], [ 76.994383, 8.600887 ], [ 76.994349, 8.600756 ], [ 76.994293, 8.600436 ], [ 76.994258, 8.600297 ], [ 76.994194, 8.600119 ], [ 76.993944, 8.599045 ], [ 76.993738, 8.598566 ], [ 76.993575, 8.598303 ], [ 76.99354, 8.598257 ], [ 76.993208, 8.597838 ], [ 76.993113, 8.597694 ], [ 76.992799, 8.597274 ], [ 76.992645, 8.59697 ], [ 76.992469, 8.596623 ], [ 76.9924, 8.596486 ], [ 76.992328, 8.596345 ], [ 76.992037, 8.595927 ], [ 76.991672, 8.595375 ], [ 76.991586, 8.595232 ], [ 76.991382, 8.594898 ], [ 76.991113, 8.594257 ], [ 76.990941, 8.59366 ], [ 76.990904, 8.593435 ], [ 76.990904, 8.593411 ], [ 76.990901, 8.593313 ], [ 76.9909, 8.593253 ], [ 76.991087, 8.592051 ], [ 76.991081, 8.591847 ], [ 76.991021, 8.591677 ], [ 76.990792, 8.591355 ], [ 76.990171, 8.590618 ], [ 76.989892, 8.590252 ], [ 76.989617, 8.589873 ], [ 76.989375, 8.589497 ], [ 76.989283, 8.589259 ], [ 76.989211, 8.589071 ], [ 76.988842, 8.588403 ], [ 76.988635, 8.587854 ], [ 76.988532, 8.587439 ], [ 76.988305, 8.586667 ], [ 76.98807, 8.586255 ], [ 76.987555, 8.585724 ], [ 76.987437, 8.585604 ], [ 76.987249, 8.585321 ], [ 76.987119, 8.585172 ], [ 76.986974, 8.584818 ], [ 76.986773, 8.584623 ], [ 76.986565, 8.584458 ], [ 76.986435, 8.584377 ], [ 76.986048, 8.584144 ], [ 76.985831, 8.583784 ], [ 76.985745, 8.583719 ], [ 76.985805, 8.583315 ], [ 76.985805, 8.583188 ], [ 76.985694, 8.583069 ], [ 76.98557, 8.582971 ], [ 76.985525, 8.582869 ], [ 76.985489, 8.582693 ], [ 76.985455, 8.58243 ], [ 76.985479, 8.582147 ], [ 76.985519, 8.58199 ], [ 76.98583, 8.581279 ], [ 76.985903, 8.580991 ], [ 76.98592, 8.580879 ], [ 76.985909, 8.580498 ], [ 76.985938, 8.580219 ], [ 76.98603, 8.579802 ], [ 76.98613, 8.579225 ], [ 76.986205, 8.578778 ], [ 76.986251, 8.578454 ], [ 76.986505, 8.577921 ], [ 76.986607, 8.577546 ], [ 76.986662, 8.5771 ], [ 76.986843, 8.577135 ], [ 76.987311, 8.577158 ], [ 76.987719, 8.577148 ], [ 76.987764, 8.577122 ], [ 76.987788, 8.577082 ], [ 76.987846, 8.576685 ], [ 76.987891, 8.576379 ], [ 76.987933, 8.575776 ], [ 76.987952, 8.575709 ], [ 76.987985, 8.575668 ], [ 76.988477, 8.575336 ], [ 76.98869, 8.575248 ], [ 76.988853, 8.574979 ], [ 76.989028, 8.574642 ], [ 76.989273, 8.574427 ], [ 76.989694, 8.573731 ], [ 76.990101, 8.573235 ], [ 76.990119, 8.573021 ], [ 76.990165, 8.572829 ], [ 76.990252, 8.572775 ], [ 76.9904, 8.572745 ], [ 76.9905, 8.57269 ], [ 76.990568, 8.572568 ], [ 76.990559, 8.572489 ], [ 76.989925, 8.571319 ], [ 76.989919, 8.571278 ], [ 76.989947, 8.571224 ], [ 76.990108, 8.571054 ], [ 76.990157, 8.570892 ], [ 76.990134, 8.570733 ], [ 76.990084, 8.570585 ], [ 76.989931, 8.570261 ], [ 76.989884, 8.57014 ], [ 76.989757, 8.569836 ], [ 76.9897, 8.569699 ], [ 76.989938, 8.569597 ], [ 76.990044, 8.569574 ], [ 76.989986, 8.569415 ], [ 76.98988, 8.569189 ], [ 76.990056, 8.56911 ], [ 76.990488, 8.568954 ], [ 76.990637, 8.568867 ], [ 76.990559, 8.568812 ], [ 76.990202, 8.568405 ], [ 76.990144, 8.568224 ], [ 76.990065, 8.568043 ], [ 76.990055, 8.567799 ], [ 76.990108, 8.567583 ], [ 76.990232, 8.567328 ], [ 76.990283, 8.567019 ], [ 76.990276, 8.566846 ], [ 76.990232, 8.566651 ], [ 76.990217, 8.566315 ], [ 76.990159, 8.566178 ], [ 76.990038, 8.56598 ], [ 76.989826, 8.566045 ], [ 76.98977, 8.566038 ], [ 76.989732, 8.566008 ], [ 76.9895, 8.565727 ], [ 76.989461, 8.565634 ], [ 76.989447, 8.565518 ], [ 76.989406, 8.565432 ], [ 76.989367, 8.565403 ], [ 76.989268, 8.565368 ], [ 76.989055, 8.565341 ], [ 76.988974, 8.565294 ], [ 76.988931, 8.565248 ], [ 76.988873, 8.56497 ], [ 76.98881, 8.564803 ], [ 76.988788, 8.56463 ], [ 76.988789, 8.564347 ], [ 76.988725, 8.564133 ], [ 76.988417, 8.564041 ], [ 76.98831, 8.563992 ], [ 76.988103, 8.563932 ], [ 76.988056, 8.563861 ], [ 76.987974, 8.563799 ], [ 76.987848, 8.563472 ], [ 76.987573, 8.563555 ], [ 76.98751, 8.563555 ], [ 76.987327, 8.56347 ], [ 76.987184, 8.563425 ], [ 76.986976, 8.56348 ], [ 76.986812, 8.563555 ], [ 76.986664, 8.563681 ], [ 76.98658, 8.563824 ], [ 76.986439, 8.563984 ], [ 76.986291, 8.564035 ], [ 76.986145, 8.563988 ], [ 76.986021, 8.563967 ], [ 76.985913, 8.564002 ], [ 76.98562, 8.564208 ], [ 76.985609, 8.564005 ], [ 76.985573, 8.563893 ], [ 76.985453, 8.563589 ], [ 76.985202, 8.562985 ], [ 76.985102, 8.562742 ], [ 76.984993, 8.562598 ], [ 76.984875, 8.562482 ], [ 76.984758, 8.562403 ], [ 76.984579, 8.562339 ], [ 76.984087, 8.562236 ], [ 76.983833, 8.562212 ], [ 76.983386, 8.562195 ], [ 76.983164, 8.562158 ], [ 76.98243, 8.561964 ], [ 76.982412, 8.561959 ], [ 76.982396, 8.561954 ], [ 76.982117, 8.561858 ], [ 76.981441, 8.561371 ], [ 76.980953, 8.560888 ], [ 76.980777, 8.560746 ], [ 76.980705, 8.560737 ], [ 76.980452, 8.560706 ], [ 76.979985, 8.560821 ], [ 76.979865, 8.560814 ], [ 76.979777, 8.560786 ], [ 76.979717, 8.560755 ], [ 76.979411, 8.560566 ], [ 76.979114, 8.560378 ], [ 76.978882, 8.560204 ], [ 76.978795, 8.560013 ], [ 76.978613, 8.559586 ], [ 76.978388, 8.559403 ], [ 76.978166, 8.559181 ], [ 76.978144, 8.559104 ], [ 76.978146, 8.558957 ], [ 76.978214, 8.558752 ], [ 76.978245, 8.558697 ], [ 76.978364, 8.55851 ], [ 76.978415, 8.558373 ], [ 76.978431, 8.558256 ], [ 76.978417, 8.558125 ], [ 76.978374, 8.557945 ], [ 76.978335, 8.557859 ], [ 76.978146, 8.557543 ], [ 76.977454, 8.556618 ], [ 76.977396, 8.556491 ], [ 76.977279, 8.556236 ], [ 76.977263, 8.556015 ], [ 76.977263, 8.555969 ], [ 76.977452, 8.555315 ], [ 76.977449, 8.555259 ], [ 76.977424, 8.555205 ], [ 76.977317, 8.555073 ], [ 76.976911, 8.554781 ], [ 76.976446, 8.554489 ], [ 76.976418, 8.554468 ], [ 76.976383, 8.554447 ], [ 76.976352, 8.55441 ], [ 76.976293, 8.55435 ], [ 76.976216, 8.554151 ], [ 76.97614, 8.553631 ], [ 76.976139, 8.553321 ], [ 76.976186, 8.55302 ], [ 76.976187, 8.552892 ], [ 76.976086, 8.552542 ], [ 76.975916, 8.552223 ], [ 76.975816, 8.552118 ], [ 76.975492, 8.551932 ], [ 76.974925, 8.551728 ], [ 76.974564, 8.551505 ], [ 76.974269, 8.551265 ], [ 76.974099, 8.551123 ], [ 76.973989, 8.551029 ], [ 76.973898, 8.550952 ], [ 76.973849, 8.550896 ], [ 76.973483, 8.550484 ], [ 76.973361, 8.550204 ], [ 76.973356, 8.549941 ], [ 76.973402, 8.549617 ], [ 76.973486, 8.549416 ], [ 76.973725, 8.549087 ], [ 76.973818, 8.54894 ], [ 76.973865, 8.548765 ], [ 76.974091, 8.547634 ], [ 76.974101, 8.547474 ], [ 76.974037, 8.54719 ], [ 76.974026, 8.547089 ], [ 76.973781, 8.546618 ], [ 76.973486, 8.546105 ], [ 76.973276, 8.545768 ], [ 76.973134, 8.54555 ], [ 76.972649, 8.544881 ], [ 76.972558, 8.544732 ], [ 76.972504, 8.544645 ], [ 76.972366, 8.544398 ], [ 76.972068, 8.543895 ], [ 76.971907, 8.543669 ], [ 76.971471, 8.543063 ], [ 76.971291, 8.542799 ], [ 76.970802, 8.541997 ], [ 76.970425, 8.54145 ], [ 76.970285, 8.541292 ], [ 76.970066, 8.54108 ], [ 76.969963, 8.541 ], [ 76.969843, 8.540872 ], [ 76.96974, 8.540732 ], [ 76.969491, 8.540268 ], [ 76.969303, 8.539994 ], [ 76.968938, 8.539737 ], [ 76.968501, 8.539522 ], [ 76.968274, 8.539418 ], [ 76.968147, 8.539328 ], [ 76.968101, 8.539277 ], [ 76.9679, 8.53904 ], [ 76.967798, 8.538838 ], [ 76.967682, 8.538504 ], [ 76.967618, 8.538334 ], [ 76.967471, 8.538039 ], [ 76.967353, 8.537864 ], [ 76.967242, 8.537756 ], [ 76.96712, 8.537685 ], [ 76.967, 8.537622 ], [ 76.966741, 8.537553 ], [ 76.966668, 8.537496 ], [ 76.966613, 8.537415 ], [ 76.966559, 8.537078 ], [ 76.966512, 8.536985 ], [ 76.966422, 8.536955 ], [ 76.966221, 8.536967 ], [ 76.965717, 8.537081 ], [ 76.965717, 8.537142 ], [ 76.965981, 8.537072 ], [ 76.966028, 8.53707 ] ] } }
]
}
