{
"type": "FeatureCollection",
"name": "ponmudy to thiruvananthapuram ",
"crs": { "type": "name", "properties": { "name": "urn:ogc:def:crs:OGC:1.3:CRS84" } },
"features": [
{ "type": "Feature", "properties": { "DIST_KM": 55.6, "DURATION_H": 1.299, "PROFILE": "driving-car", "PREF": "fastest", "OPTIONS": { }, "FROM_ID": null, "TO_ID": null }, "geometry": { "type": "LineString", "coordinates": [ [ 77.110227, 8.766484 ], [ 77.110205, 8.766499 ], [ 77.110112, 8.766549 ], [ 77.110012, 8.766575 ], [ 77.109943, 8.766557 ], [ 77.109778, 8.766427 ], [ 77.10963, 8.766171 ], [ 77.109539, 8.765991 ], [ 77.109492, 8.765953 ], [ 77.109435, 8.765939 ], [ 77.109035, 8.765985 ], [ 77.1089, 8.765949 ], [ 77.108784, 8.765875 ], [ 77.108696, 8.7658 ], [ 77.108599, 8.765671 ], [ 77.10851, 8.765437 ], [ 77.108445, 8.764948 ], [ 77.10838, 8.764716 ], [ 77.108328, 8.764459 ], [ 77.108497, 8.764021 ], [ 77.108666, 8.763725 ], [ 77.109005, 8.763339 ], [ 77.10907, 8.763133 ], [ 77.109148, 8.762952 ], [ 77.109774, 8.762605 ], [ 77.109956, 8.762463 ], [ 77.110125, 8.762218 ], [ 77.110334, 8.761832 ], [ 77.110516, 8.761716 ], [ 77.110803, 8.761587 ], [ 77.111519, 8.761394 ], [ 77.111923, 8.761201 ], [ 77.112118, 8.761021 ], [ 77.112144, 8.760931 ], [ 77.112157, 8.760738 ], [ 77.112014, 8.760416 ], [ 77.112001, 8.760017 ], [ 77.112066, 8.759785 ], [ 77.112288, 8.759708 ], [ 77.112418, 8.759643 ], [ 77.112574, 8.759463 ], [ 77.113056, 8.75909 ], [ 77.113161, 8.758948 ], [ 77.113135, 8.758652 ], [ 77.113069, 8.75824 ], [ 77.113213, 8.757815 ], [ 77.113291, 8.757416 ], [ 77.113434, 8.75712 ], [ 77.113499, 8.75685 ], [ 77.113695, 8.756708 ], [ 77.113877, 8.756695 ], [ 77.114177, 8.756759 ], [ 77.114437, 8.756901 ], [ 77.114606, 8.757056 ], [ 77.114763, 8.757686 ], [ 77.114997, 8.758176 ], [ 77.115102, 8.758433 ], [ 77.115036, 8.758716 ], [ 77.114776, 8.759219 ], [ 77.114795, 8.759303 ], [ 77.114854, 8.75936 ], [ 77.114932, 8.759401 ], [ 77.115115, 8.759412 ], [ 77.115276, 8.759364 ], [ 77.115466, 8.759309 ], [ 77.116053, 8.75927 ], [ 77.116587, 8.759167 ], [ 77.116977, 8.758987 ], [ 77.117199, 8.758845 ], [ 77.117811, 8.758601 ], [ 77.118436, 8.758446 ], [ 77.11901, 8.758369 ], [ 77.119309, 8.758485 ], [ 77.119387, 8.758613 ], [ 77.119413, 8.758691 ], [ 77.11927, 8.758858 ], [ 77.118762, 8.759103 ], [ 77.118606, 8.759347 ], [ 77.118567, 8.759708 ], [ 77.118215, 8.760261 ], [ 77.118065, 8.760605 ], [ 77.118055, 8.760672 ], [ 77.118072, 8.760712 ], [ 77.118133, 8.760715 ], [ 77.118189, 8.760673 ], [ 77.118319, 8.760442 ], [ 77.118931, 8.76003 ], [ 77.119244, 8.759759 ], [ 77.119557, 8.759695 ], [ 77.119948, 8.75954 ], [ 77.120377, 8.759193 ], [ 77.120785, 8.758932 ], [ 77.121381, 8.758549 ], [ 77.121706, 8.757983 ], [ 77.122813, 8.757622 ], [ 77.123165, 8.757545 ], [ 77.123387, 8.757377 ], [ 77.123374, 8.756991 ], [ 77.123413, 8.756579 ], [ 77.123556, 8.756476 ], [ 77.123908, 8.756347 ], [ 77.123999, 8.756438 ], [ 77.124273, 8.756463 ], [ 77.124481, 8.75636 ], [ 77.124494, 8.75618 ], [ 77.124572, 8.755858 ], [ 77.124715, 8.755768 ], [ 77.125119, 8.755626 ], [ 77.125263, 8.755523 ], [ 77.125375, 8.755321 ], [ 77.125433, 8.755117 ], [ 77.125586, 8.7544 ], [ 77.125572, 8.754172 ], [ 77.125524, 8.753883 ], [ 77.125308, 8.753404 ], [ 77.125293, 8.753209 ], [ 77.125226, 8.753024 ], [ 77.125245, 8.752882 ], [ 77.125337, 8.752678 ], [ 77.125452, 8.752469 ], [ 77.125745, 8.751748 ], [ 77.125922, 8.751567 ], [ 77.126062, 8.751287 ], [ 77.12611, 8.75096 ], [ 77.126239, 8.750661 ], [ 77.126278, 8.750414 ], [ 77.126377, 8.750061 ], [ 77.126481, 8.749891 ], [ 77.126647, 8.749784 ], [ 77.126844, 8.749716 ], [ 77.126866, 8.749667 ], [ 77.126958, 8.749637 ], [ 77.127386, 8.749438 ], [ 77.12751, 8.749407 ], [ 77.12758, 8.749407 ], [ 77.127647, 8.749427 ], [ 77.127822, 8.749539 ], [ 77.127999, 8.749729 ], [ 77.128265, 8.749965 ], [ 77.128316, 8.749981 ], [ 77.128383, 8.749971 ], [ 77.12844, 8.749881 ], [ 77.128475, 8.749756 ], [ 77.128291, 8.74957 ], [ 77.128095, 8.749079 ], [ 77.127903, 8.747564 ], [ 77.127875, 8.747579 ], [ 77.127813, 8.747568 ], [ 77.127701, 8.747499 ], [ 77.127756, 8.74745 ], [ 77.127753, 8.7474 ], [ 77.12772, 8.747358 ], [ 77.127663, 8.747327 ], [ 77.127207, 8.747239 ], [ 77.126971, 8.747257 ], [ 77.126885, 8.747249 ], [ 77.126828, 8.747213 ], [ 77.126793, 8.747169 ], [ 77.126792, 8.747113 ], [ 77.126813, 8.747057 ], [ 77.127011, 8.746817 ], [ 77.127229, 8.746341 ], [ 77.127276, 8.74616 ], [ 77.127317, 8.745879 ], [ 77.127376, 8.745628 ], [ 77.127369, 8.745575 ], [ 77.127344, 8.745541 ], [ 77.127298, 8.745515 ], [ 77.127234, 8.745516 ], [ 77.12715, 8.745545 ], [ 77.126925, 8.745661 ], [ 77.126607, 8.745687 ], [ 77.126194, 8.745781 ], [ 77.124813, 8.746252 ], [ 77.124616, 8.746376 ], [ 77.12452, 8.746409 ], [ 77.124439, 8.74639 ], [ 77.124458, 8.746328 ], [ 77.124511, 8.746243 ], [ 77.124823, 8.746077 ], [ 77.126575, 8.744928 ], [ 77.126571, 8.744876 ], [ 77.126508, 8.744852 ], [ 77.126316, 8.744886 ], [ 77.125404, 8.745299 ], [ 77.12525, 8.745251 ], [ 77.124861, 8.745204 ], [ 77.124559, 8.745204 ], [ 77.124434, 8.745189 ], [ 77.124381, 8.74508 ], [ 77.124362, 8.744976 ], [ 77.124227, 8.744914 ], [ 77.123978, 8.744928 ], [ 77.123935, 8.745104 ], [ 77.123819, 8.745346 ], [ 77.123272, 8.74583 ], [ 77.123157, 8.745868 ], [ 77.123056, 8.745953 ], [ 77.12297, 8.745963 ], [ 77.122941, 8.745868 ], [ 77.123003, 8.745816 ], [ 77.123262, 8.745711 ], [ 77.123382, 8.745536 ], [ 77.123526, 8.74527 ], [ 77.123618, 8.74508 ], [ 77.123603, 8.744824 ], [ 77.123632, 8.744667 ], [ 77.123882, 8.744107 ], [ 77.124175, 8.74396 ], [ 77.124506, 8.743818 ], [ 77.124885, 8.743604 ], [ 77.12514, 8.743405 ], [ 77.12525, 8.743391 ], [ 77.125399, 8.743453 ], [ 77.125495, 8.743566 ], [ 77.125548, 8.743666 ], [ 77.125634, 8.743728 ], [ 77.125725, 8.743671 ], [ 77.125798, 8.743571 ], [ 77.126047, 8.743386 ], [ 77.12609, 8.743291 ], [ 77.126033, 8.74322 ], [ 77.125894, 8.743239 ], [ 77.125735, 8.743353 ], [ 77.125644, 8.743396 ], [ 77.125533, 8.743324 ], [ 77.12525, 8.743035 ], [ 77.125106, 8.742831 ], [ 77.125145, 8.74266 ], [ 77.125274, 8.742475 ], [ 77.125279, 8.74239 ], [ 77.125245, 8.742337 ], [ 77.12489, 8.742323 ], [ 77.124794, 8.742276 ], [ 77.124751, 8.742205 ], [ 77.124775, 8.742076 ], [ 77.124976, 8.741474 ], [ 77.124957, 8.741374 ], [ 77.12476, 8.741251 ], [ 77.124607, 8.741203 ], [ 77.124487, 8.741198 ], [ 77.124367, 8.741293 ], [ 77.12405, 8.741763 ], [ 77.123647, 8.742304 ], [ 77.12319, 8.742594 ], [ 77.122686, 8.742646 ], [ 77.122609, 8.742708 ], [ 77.122581, 8.742907 ], [ 77.122576, 8.743367 ], [ 77.122552, 8.743699 ], [ 77.122451, 8.743718 ], [ 77.122432, 8.743685 ], [ 77.122446, 8.743405 ], [ 77.122382, 8.743207 ], [ 77.122341, 8.742826 ], [ 77.122379, 8.742647 ], [ 77.122501, 8.742443 ], [ 77.122598, 8.742359 ], [ 77.122888, 8.742323 ], [ 77.123118, 8.742129 ], [ 77.123301, 8.741749 ], [ 77.123363, 8.741431 ], [ 77.123493, 8.741123 ], [ 77.123608, 8.740757 ], [ 77.123743, 8.740501 ], [ 77.123901, 8.740273 ], [ 77.123968, 8.740092 ], [ 77.12397, 8.73998 ], [ 77.123803, 8.738994 ], [ 77.12373, 8.738965 ], [ 77.123638, 8.739034 ], [ 77.123575, 8.739169 ], [ 77.123583, 8.739732 ], [ 77.123561, 8.739876 ], [ 77.123513, 8.739965 ], [ 77.12346, 8.74001 ], [ 77.123276, 8.740059 ], [ 77.123125, 8.740141 ], [ 77.122986, 8.740265 ], [ 77.122799, 8.740481 ], [ 77.122477, 8.74074 ], [ 77.122318, 8.741007 ], [ 77.121804, 8.741249 ], [ 77.121156, 8.74159 ], [ 77.120993, 8.741759 ], [ 77.120916, 8.741905 ], [ 77.120842, 8.741928 ], [ 77.120769, 8.741905 ], [ 77.120779, 8.741842 ], [ 77.120984, 8.741479 ], [ 77.120951, 8.741403 ], [ 77.120883, 8.741365 ], [ 77.120787, 8.741384 ], [ 77.120643, 8.74146 ], [ 77.120581, 8.74152 ], [ 77.120477, 8.741558 ], [ 77.120398, 8.741497 ], [ 77.120388, 8.741449 ], [ 77.120401, 8.74138 ], [ 77.120477, 8.741222 ], [ 77.120657, 8.740969 ], [ 77.120725, 8.740817 ], [ 77.120735, 8.740721 ], [ 77.120506, 8.740359 ], [ 77.120621, 8.740072 ], [ 77.120796, 8.739699 ], [ 77.121025, 8.739438 ], [ 77.121164, 8.739172 ], [ 77.121395, 8.738978 ], [ 77.121515, 8.738921 ], [ 77.121712, 8.738892 ], [ 77.121884, 8.738821 ], [ 77.121894, 8.738764 ], [ 77.121774, 8.738755 ], [ 77.121145, 8.738854 ], [ 77.120482, 8.739248 ], [ 77.120254, 8.739367 ], [ 77.120102, 8.739413 ], [ 77.119977, 8.739402 ], [ 77.119742, 8.739312 ], [ 77.119738, 8.739238 ], [ 77.119786, 8.739198 ], [ 77.120213, 8.739206 ], [ 77.120266, 8.739182 ], [ 77.120285, 8.739127 ], [ 77.120242, 8.739106 ], [ 77.120074, 8.739077 ], [ 77.119825, 8.738944 ], [ 77.119688, 8.738787 ], [ 77.119462, 8.738649 ], [ 77.119416, 8.738494 ], [ 77.119475, 8.738319 ], [ 77.119502, 8.738131 ], [ 77.119455, 8.737909 ], [ 77.119521, 8.737675 ], [ 77.119776, 8.7374 ], [ 77.119914, 8.737074 ], [ 77.120055, 8.736814 ], [ 77.12036, 8.735995 ], [ 77.120451, 8.735606 ], [ 77.120483, 8.735398 ], [ 77.120586, 8.734989 ], [ 77.120777, 8.734899 ], [ 77.121011, 8.734644 ], [ 77.12152, 8.734151 ], [ 77.121769, 8.733738 ], [ 77.123238, 8.732742 ], [ 77.123579, 8.732391 ], [ 77.123925, 8.731778 ], [ 77.124383, 8.730478 ], [ 77.124513, 8.730245 ], [ 77.124704, 8.730011 ], [ 77.125001, 8.729897 ], [ 77.125631, 8.729109 ], [ 77.125975, 8.728622 ], [ 77.126099, 8.728379 ], [ 77.126106, 8.728272 ], [ 77.126075, 8.728137 ], [ 77.125884, 8.728004 ], [ 77.125818, 8.727927 ], [ 77.125838, 8.727876 ], [ 77.125896, 8.727858 ], [ 77.125969, 8.727868 ], [ 77.126078, 8.727922 ], [ 77.126402, 8.728177 ], [ 77.126446, 8.728247 ], [ 77.126455, 8.728347 ], [ 77.126376, 8.728572 ], [ 77.126359, 8.728727 ], [ 77.126379, 8.72899 ], [ 77.126304, 8.729198 ], [ 77.126321, 8.729259 ], [ 77.126362, 8.729285 ], [ 77.126402, 8.729279 ], [ 77.126503, 8.729126 ], [ 77.126505, 8.729025 ], [ 77.126811, 8.728063 ], [ 77.126823, 8.727959 ], [ 77.126674, 8.727734 ], [ 77.126469, 8.727526 ], [ 77.125803, 8.727023 ], [ 77.125559, 8.726773 ], [ 77.125396, 8.72654 ], [ 77.125278, 8.726268 ], [ 77.125042, 8.725446 ], [ 77.124761, 8.724791 ], [ 77.124778, 8.724488 ], [ 77.12494, 8.723679 ], [ 77.125182, 8.723106 ], [ 77.125178, 8.722996 ], [ 77.125055, 8.722813 ], [ 77.124655, 8.722488 ], [ 77.124571, 8.722404 ], [ 77.124526, 8.722255 ], [ 77.124675, 8.72198 ], [ 77.124871, 8.72145 ], [ 77.124929, 8.721377 ], [ 77.125042, 8.721375 ], [ 77.125048, 8.721501 ], [ 77.124982, 8.721874 ], [ 77.124982, 8.721958 ], [ 77.125018, 8.721998 ], [ 77.125065, 8.721991 ], [ 77.125108, 8.721936 ], [ 77.125334, 8.721202 ], [ 77.125471, 8.720859 ], [ 77.125711, 8.720382 ], [ 77.125968, 8.719957 ], [ 77.126184, 8.719579 ], [ 77.12649, 8.719321 ], [ 77.126858, 8.719056 ], [ 77.126929, 8.719019 ], [ 77.126934, 8.719017 ], [ 77.127134, 8.718913 ], [ 77.127684, 8.718304 ], [ 77.127767, 8.718037 ], [ 77.127849, 8.717864 ], [ 77.127992, 8.71776 ], [ 77.128014, 8.717652 ], [ 77.127996, 8.71757 ], [ 77.127843, 8.71745 ], [ 77.127593, 8.717218 ], [ 77.127493, 8.71703 ], [ 77.127444, 8.716771 ], [ 77.127521, 8.716543 ], [ 77.127545, 8.716423 ], [ 77.127477, 8.716374 ], [ 77.127214, 8.716426 ], [ 77.126921, 8.716426 ], [ 77.126744, 8.716376 ], [ 77.126566, 8.716297 ], [ 77.126466, 8.716223 ], [ 77.126437, 8.716138 ], [ 77.126454, 8.71603 ], [ 77.126568, 8.715722 ], [ 77.12658, 8.715475 ], [ 77.126621, 8.715288 ], [ 77.126844, 8.715064 ], [ 77.127113, 8.714623 ], [ 77.127233, 8.714091 ], [ 77.127243, 8.713955 ], [ 77.127305, 8.713866 ], [ 77.127589, 8.713649 ], [ 77.128042, 8.713478 ], [ 77.128184, 8.713388 ], [ 77.128255, 8.713343 ], [ 77.128309, 8.713309 ], [ 77.128509, 8.713073 ], [ 77.12852, 8.712981 ], [ 77.128486, 8.712601 ], [ 77.128686, 8.712087 ], [ 77.128868, 8.711856 ], [ 77.129084, 8.711423 ], [ 77.12924, 8.710973 ], [ 77.129322, 8.710456 ], [ 77.129336, 8.710209 ], [ 77.129288, 8.710062 ], [ 77.129201, 8.709998 ], [ 77.129077, 8.709952 ], [ 77.128668, 8.709964 ], [ 77.128601, 8.709986 ], [ 77.128554, 8.710062 ], [ 77.128552, 8.710154 ], [ 77.128576, 8.710274 ], [ 77.128645, 8.710478 ], [ 77.128659, 8.710743 ], [ 77.128476, 8.71081 ], [ 77.128224, 8.710812 ], [ 77.127567, 8.710659 ], [ 77.12715, 8.710635 ], [ 77.126951, 8.710592 ], [ 77.126697, 8.710586 ], [ 77.126565, 8.710614 ], [ 77.12648, 8.710676 ], [ 77.126047, 8.711108 ], [ 77.125939, 8.711306 ], [ 77.125814, 8.711808 ], [ 77.125792, 8.711967 ], [ 77.125722, 8.712103 ], [ 77.125626, 8.712237 ], [ 77.125522, 8.712334 ], [ 77.125348, 8.712387 ], [ 77.125146, 8.712364 ], [ 77.124435, 8.71197 ], [ 77.123942, 8.711568 ], [ 77.123861, 8.711538 ], [ 77.123483, 8.711507 ], [ 77.123263, 8.711395 ], [ 77.123173, 8.711362 ], [ 77.123115, 8.711366 ], [ 77.12292, 8.71146 ], [ 77.122619, 8.711695 ], [ 77.122504, 8.711768 ], [ 77.122406, 8.711781 ], [ 77.122317, 8.711767 ], [ 77.12217, 8.711693 ], [ 77.121881, 8.711432 ], [ 77.121811, 8.711358 ], [ 77.121763, 8.711233 ], [ 77.121819, 8.711099 ], [ 77.121986, 8.710977 ], [ 77.122079, 8.710795 ], [ 77.122085, 8.710643 ], [ 77.122141, 8.710494 ], [ 77.122261, 8.710332 ], [ 77.122431, 8.710145 ], [ 77.122463, 8.709999 ], [ 77.122419, 8.709783 ], [ 77.122256, 8.709422 ], [ 77.122133, 8.709375 ], [ 77.120893, 8.70943 ], [ 77.119956, 8.709495 ], [ 77.119369, 8.709456 ], [ 77.118994, 8.70952 ], [ 77.118784, 8.709654 ], [ 77.118575, 8.709842 ], [ 77.118212, 8.710282 ], [ 77.118126, 8.710329 ], [ 77.118015, 8.710357 ], [ 77.117812, 8.710337 ], [ 77.117715, 8.710284 ], [ 77.117628, 8.710215 ], [ 77.117576, 8.710137 ], [ 77.117542, 8.710031 ], [ 77.11752, 8.709648 ], [ 77.117445, 8.709471 ], [ 77.117328, 8.709351 ], [ 77.117054, 8.709238 ], [ 77.116877, 8.7092 ], [ 77.116684, 8.709192 ], [ 77.116491, 8.709143 ], [ 77.115919, 8.708815 ], [ 77.115526, 8.708621 ], [ 77.115383, 8.708606 ], [ 77.115301, 8.708544 ], [ 77.11528, 8.708485 ], [ 77.115274, 8.708399 ], [ 77.115329, 8.708319 ], [ 77.115403, 8.708258 ], [ 77.116054, 8.708002 ], [ 77.116269, 8.707932 ], [ 77.117026, 8.707602 ], [ 77.117142, 8.707537 ], [ 77.117193, 8.70749 ], [ 77.117244, 8.707398 ], [ 77.117256, 8.707286 ], [ 77.117189, 8.706901 ], [ 77.117133, 8.706724 ], [ 77.117004, 8.706559 ], [ 77.116762, 8.706339 ], [ 77.116748, 8.706257 ], [ 77.116764, 8.706198 ], [ 77.117113, 8.705776 ], [ 77.117133, 8.705623 ], [ 77.117097, 8.705473 ], [ 77.116974, 8.705422 ], [ 77.116734, 8.705377 ], [ 77.116579, 8.705269 ], [ 77.116364, 8.705016 ], [ 77.116035, 8.704691 ], [ 77.115839, 8.704614 ], [ 77.115748, 8.704619 ], [ 77.115196, 8.704816 ], [ 77.115065, 8.704814 ], [ 77.114978, 8.704774 ], [ 77.114936, 8.704672 ], [ 77.114938, 8.704458 ], [ 77.11497, 8.704325 ], [ 77.115765, 8.703111 ], [ 77.115833, 8.702946 ], [ 77.115835, 8.702879 ], [ 77.115809, 8.702785 ], [ 77.115727, 8.702643 ], [ 77.115692, 8.702611 ], [ 77.115584, 8.702514 ], [ 77.115474, 8.702455 ], [ 77.11496, 8.702189 ], [ 77.114772, 8.702095 ], [ 77.114253, 8.70185 ], [ 77.114079, 8.701799 ], [ 77.113916, 8.701768 ], [ 77.113611, 8.701779 ], [ 77.113274, 8.701768 ], [ 77.113195, 8.70173 ], [ 77.113119, 8.701662 ], [ 77.112992, 8.701371 ], [ 77.112748, 8.701092 ], [ 77.112569, 8.70097 ], [ 77.112416, 8.700906 ], [ 77.112317, 8.700823 ], [ 77.112263, 8.700688 ], [ 77.112275, 8.700479 ], [ 77.112257, 8.700375 ], [ 77.111957, 8.700154 ], [ 77.111915, 8.700049 ], [ 77.111925, 8.699941 ], [ 77.111953, 8.699855 ], [ 77.111955, 8.699716 ], [ 77.11184, 8.699438 ], [ 77.111484, 8.699105 ], [ 77.111136, 8.698691 ], [ 77.111028, 8.698613 ], [ 77.11084, 8.698517 ], [ 77.110628, 8.698472 ], [ 77.11049, 8.698509 ], [ 77.109936, 8.698741 ], [ 77.109789, 8.698765 ], [ 77.109723, 8.698725 ], [ 77.109697, 8.698678 ], [ 77.109713, 8.698602 ], [ 77.109862, 8.698454 ], [ 77.11017, 8.698242 ], [ 77.11027, 8.698138 ], [ 77.110365, 8.697959 ], [ 77.110371, 8.697689 ], [ 77.110317, 8.697553 ], [ 77.110226, 8.69741 ], [ 77.109961, 8.697208 ], [ 77.109849, 8.697131 ], [ 77.109795, 8.697094 ], [ 77.109475, 8.69697 ], [ 77.109026, 8.696888 ], [ 77.108805, 8.696878 ], [ 77.10867, 8.696854 ], [ 77.108547, 8.696803 ], [ 77.108408, 8.696726 ], [ 77.108275, 8.69661 ], [ 77.108084, 8.696394 ], [ 77.108007, 8.696272 ], [ 77.107572, 8.695591 ], [ 77.107486, 8.695536 ], [ 77.107173, 8.69553 ], [ 77.107083, 8.695509 ], [ 77.107011, 8.695469 ], [ 77.106921, 8.695299 ], [ 77.106882, 8.695027 ], [ 77.106859, 8.694696 ], [ 77.106786, 8.694507 ], [ 77.106606, 8.694227 ], [ 77.106449, 8.694118 ], [ 77.10625, 8.693971 ], [ 77.106121, 8.693835 ], [ 77.106053, 8.693713 ], [ 77.106062, 8.693535 ], [ 77.106152, 8.693249 ], [ 77.106205, 8.692999 ], [ 77.106186, 8.692699 ], [ 77.106034, 8.692241 ], [ 77.105834, 8.691866 ], [ 77.105626, 8.691422 ], [ 77.10564, 8.690964 ], [ 77.105635, 8.690669 ], [ 77.105455, 8.690211 ], [ 77.105239, 8.689811 ], [ 77.105017, 8.689559 ], [ 77.104787, 8.68925 ], [ 77.104536, 8.688889 ], [ 77.104303, 8.688634 ], [ 77.103901, 8.688235 ], [ 77.103679, 8.688042 ], [ 77.103474, 8.687828 ], [ 77.1033, 8.687609 ], [ 77.102971, 8.687029 ], [ 77.102738, 8.686679 ], [ 77.102494, 8.686443 ], [ 77.101648, 8.685473 ], [ 77.101241, 8.68509 ], [ 77.101058, 8.684854 ], [ 77.100923, 8.684615 ], [ 77.100864, 8.684403 ], [ 77.10086, 8.684155 ], [ 77.100824, 8.683983 ], [ 77.100725, 8.683841 ], [ 77.100617, 8.683778 ], [ 77.100474, 8.683763 ], [ 77.100256, 8.683806 ], [ 77.100097, 8.6839 ], [ 77.09993, 8.683912 ], [ 77.099823, 8.683861 ], [ 77.099789, 8.683829 ], [ 77.099707, 8.683751 ], [ 77.099628, 8.683616 ], [ 77.099497, 8.683496 ], [ 77.09927, 8.683362 ], [ 77.098829, 8.683221 ], [ 77.098497, 8.68307 ], [ 77.098485, 8.68298 ], [ 77.098505, 8.682811 ], [ 77.098604, 8.682536 ], [ 77.098636, 8.682218 ], [ 77.098589, 8.682065 ], [ 77.098553, 8.682005 ], [ 77.098414, 8.681751 ], [ 77.098342, 8.681472 ], [ 77.098342, 8.681307 ], [ 77.098466, 8.680089 ], [ 77.098466, 8.679618 ], [ 77.098434, 8.679288 ], [ 77.098358, 8.679064 ], [ 77.09814, 8.678656 ], [ 77.097917, 8.67829 ], [ 77.097695, 8.677984 ], [ 77.097562, 8.677838 ], [ 77.096895, 8.677252 ], [ 77.096618, 8.676954 ], [ 77.096376, 8.676747 ], [ 77.096154, 8.676606 ], [ 77.095919, 8.676555 ], [ 77.095253, 8.6765 ], [ 77.094938, 8.676395 ], [ 77.09435, 8.675923 ], [ 77.094215, 8.675778 ], [ 77.094156, 8.675715 ], [ 77.093976, 8.675454 ], [ 77.093823, 8.67508 ], [ 77.093806, 8.674698 ], [ 77.093579, 8.674379 ], [ 77.092839, 8.674042 ], [ 77.092286, 8.673917 ], [ 77.091489, 8.674051 ], [ 77.091091, 8.673987 ], [ 77.090897, 8.673981 ], [ 77.090675, 8.674029 ], [ 77.090043, 8.674119 ], [ 77.089785, 8.674117 ], [ 77.089617, 8.674058 ], [ 77.089387, 8.673937 ], [ 77.089204, 8.673802 ], [ 77.088859, 8.673414 ], [ 77.088556, 8.672928 ], [ 77.08845, 8.672834 ], [ 77.088361, 8.67281 ], [ 77.0877, 8.672477 ], [ 77.087427, 8.672289 ], [ 77.08734, 8.672217 ], [ 77.087313, 8.672156 ], [ 77.087281, 8.67187 ], [ 77.087248, 8.671779 ], [ 77.087153, 8.671684 ], [ 77.086623, 8.671328 ], [ 77.086348, 8.671218 ], [ 77.086253, 8.671142 ], [ 77.086188, 8.671025 ], [ 77.086106, 8.67093 ], [ 77.085957, 8.670824 ], [ 77.08562, 8.670647 ], [ 77.085668, 8.67075 ], [ 77.085706, 8.670794 ], [ 77.085838, 8.670887 ], [ 77.085884, 8.670948 ], [ 77.085888, 8.671025 ], [ 77.085866, 8.671161 ], [ 77.085833, 8.671235 ], [ 77.085391, 8.67146 ], [ 77.085312, 8.671521 ], [ 77.085207, 8.671842 ], [ 77.084713, 8.672611 ], [ 77.084434, 8.672707 ], [ 77.083808, 8.672558 ], [ 77.083219, 8.672396 ], [ 77.082868, 8.672497 ], [ 77.082589, 8.672595 ], [ 77.082117, 8.672564 ], [ 77.082065, 8.672742 ], [ 77.082001, 8.67287 ], [ 77.081805, 8.673107 ], [ 77.081696, 8.673207 ], [ 77.081509, 8.673351 ], [ 77.081372, 8.673433 ], [ 77.080749, 8.67376 ], [ 77.080251, 8.673956 ], [ 77.079907, 8.674058 ], [ 77.079521, 8.674131 ], [ 77.079343, 8.674125 ], [ 77.079009, 8.673948 ], [ 77.078812, 8.67387 ], [ 77.078372, 8.673818 ], [ 77.078104, 8.673767 ], [ 77.077908, 8.673712 ], [ 77.07773, 8.673615 ], [ 77.077644, 8.673598 ], [ 77.077245, 8.673574 ], [ 77.076691, 8.673611 ], [ 77.076215, 8.673571 ], [ 77.076143, 8.673586 ], [ 77.076068, 8.673629 ], [ 77.076027, 8.673725 ], [ 77.075999, 8.673854 ], [ 77.075946, 8.673922 ], [ 77.075899, 8.673943 ], [ 77.075471, 8.673966 ], [ 77.075362, 8.674021 ], [ 77.075275, 8.674292 ], [ 77.075167, 8.674366 ], [ 77.075042, 8.67437 ], [ 77.074835, 8.67431 ], [ 77.074649, 8.674202 ], [ 77.074474, 8.674002 ], [ 77.074357, 8.673903 ], [ 77.074239, 8.673905 ], [ 77.073972, 8.673967 ], [ 77.073904, 8.673945 ], [ 77.073783, 8.673876 ], [ 77.073627, 8.67383 ], [ 77.07346, 8.673846 ], [ 77.073131, 8.673981 ], [ 77.072929, 8.674042 ], [ 77.072767, 8.674077 ], [ 77.072521, 8.674211 ], [ 77.072341, 8.673979 ], [ 77.07228, 8.673924 ], [ 77.072238, 8.673879 ], [ 77.071971, 8.673737 ], [ 77.071579, 8.673467 ], [ 77.071164, 8.673256 ], [ 77.070876, 8.673167 ], [ 77.070812, 8.673135 ], [ 77.070518, 8.672849 ], [ 77.070222, 8.672592 ], [ 77.069609, 8.672202 ], [ 77.06958, 8.672204 ], [ 77.069559, 8.672223 ], [ 77.069441, 8.672425 ], [ 77.06937, 8.672466 ], [ 77.069275, 8.672456 ], [ 77.068619, 8.672202 ], [ 77.068531, 8.672196 ], [ 77.06842, 8.672213 ], [ 77.068132, 8.672306 ], [ 77.067982, 8.672337 ], [ 77.06795, 8.672325 ], [ 77.067643, 8.671759 ], [ 77.067602, 8.671728 ], [ 77.066745, 8.671911 ], [ 77.066531, 8.671908 ], [ 77.066307, 8.671855 ], [ 77.066097, 8.671777 ], [ 77.065678, 8.671537 ], [ 77.065373, 8.671435 ], [ 77.065026, 8.671232 ], [ 77.064989, 8.671234 ], [ 77.064904, 8.67129 ], [ 77.064642, 8.671417 ], [ 77.064587, 8.671423 ], [ 77.064526, 8.671373 ], [ 77.06419, 8.670519 ], [ 77.063996, 8.670415 ], [ 77.06395, 8.670413 ], [ 77.063528, 8.670704 ], [ 77.063462, 8.670727 ], [ 77.06342, 8.670687 ], [ 77.063233, 8.670363 ], [ 77.063195, 8.670319 ], [ 77.06308, 8.670251 ], [ 77.062725, 8.669947 ], [ 77.062573, 8.669835 ], [ 77.062428, 8.669756 ], [ 77.062298, 8.669715 ], [ 77.061676, 8.669609 ], [ 77.061505, 8.669594 ], [ 77.061384, 8.669542 ], [ 77.061331, 8.669488 ], [ 77.061297, 8.669424 ], [ 77.061281, 8.66928 ], [ 77.061239, 8.668415 ], [ 77.061259, 8.668284 ], [ 77.061244, 8.668114 ], [ 77.06097, 8.667197 ], [ 77.060557, 8.666836 ], [ 77.060493, 8.666163 ], [ 77.060777, 8.665426 ], [ 77.061115, 8.664641 ], [ 77.061179, 8.663824 ], [ 77.06149, 8.66271 ], [ 77.061867, 8.661997 ], [ 77.062303, 8.661349 ], [ 77.062685, 8.660316 ], [ 77.062712, 8.659973 ], [ 77.062743, 8.659901 ], [ 77.06268, 8.658994 ], [ 77.062634, 8.658843 ], [ 77.062317, 8.658272 ], [ 77.062237, 8.658053 ], [ 77.062258, 8.657794 ], [ 77.062526, 8.656665 ], [ 77.062225, 8.656118 ], [ 77.061984, 8.654851 ], [ 77.061882, 8.653149 ], [ 77.061506, 8.652549 ], [ 77.061528, 8.652284 ], [ 77.061684, 8.65187 ], [ 77.061614, 8.651658 ], [ 77.061204, 8.651183 ], [ 77.061239, 8.651066 ], [ 77.06156, 8.65082 ], [ 77.061858, 8.650469 ], [ 77.061746, 8.650289 ], [ 77.061621, 8.650138 ], [ 77.06129, 8.649816 ], [ 77.061255, 8.649718 ], [ 77.061247, 8.649343 ], [ 77.061224, 8.649258 ], [ 77.061182, 8.649178 ], [ 77.061103, 8.649112 ], [ 77.060889, 8.649034 ], [ 77.060415, 8.64893 ], [ 77.060024, 8.648828 ], [ 77.05955, 8.64861 ], [ 77.059247, 8.648413 ], [ 77.058983, 8.648128 ], [ 77.058626, 8.64777 ], [ 77.058464, 8.647645 ], [ 77.058224, 8.647374 ], [ 77.058175, 8.647301 ], [ 77.058154, 8.647221 ], [ 77.05817, 8.647065 ], [ 77.058236, 8.646858 ], [ 77.058306, 8.646731 ], [ 77.058401, 8.646627 ], [ 77.058527, 8.646534 ], [ 77.058634, 8.646372 ], [ 77.058723, 8.646172 ], [ 77.058757, 8.64591 ], [ 77.058738, 8.645791 ], [ 77.058705, 8.645725 ], [ 77.058672, 8.64566 ], [ 77.058602, 8.645598 ], [ 77.058524, 8.645554 ], [ 77.058271, 8.645469 ], [ 77.057924, 8.645273 ], [ 77.057351, 8.645032 ], [ 77.057295, 8.645021 ], [ 77.056896, 8.645076 ], [ 77.056741, 8.645148 ], [ 77.056644, 8.645233 ], [ 77.056569, 8.64526 ], [ 77.056516, 8.645262 ], [ 77.05643, 8.645228 ], [ 77.056166, 8.645045 ], [ 77.055997, 8.644968 ], [ 77.055898, 8.644953 ], [ 77.055694, 8.64499 ], [ 77.055559, 8.645046 ], [ 77.0552, 8.645242 ], [ 77.055111, 8.645253 ], [ 77.054977, 8.645102 ], [ 77.054844, 8.645015 ], [ 77.054723, 8.644997 ], [ 77.054639, 8.645016 ], [ 77.054012, 8.64516 ], [ 77.053822, 8.645228 ], [ 77.053666, 8.645345 ], [ 77.053493, 8.645622 ], [ 77.053444, 8.645668 ], [ 77.053379, 8.645683 ], [ 77.053269, 8.645678 ], [ 77.053168, 8.645642 ], [ 77.05292, 8.645468 ], [ 77.052698, 8.645436 ], [ 77.052554, 8.64546 ], [ 77.052187, 8.64565 ], [ 77.051787, 8.646 ], [ 77.051684, 8.64607 ], [ 77.051607, 8.646099 ], [ 77.051451, 8.646088 ], [ 77.051394, 8.646015 ], [ 77.051396, 8.645926 ], [ 77.051426, 8.645861 ], [ 77.051685, 8.6456 ], [ 77.05171, 8.64552 ], [ 77.051707, 8.645413 ], [ 77.051631, 8.645206 ], [ 77.051541, 8.645136 ], [ 77.05143, 8.645104 ], [ 77.050328, 8.645104 ], [ 77.049942, 8.645032 ], [ 77.04972, 8.644946 ], [ 77.049629, 8.644896 ], [ 77.049568, 8.644827 ], [ 77.049286, 8.644138 ], [ 77.049153, 8.64387 ], [ 77.048536, 8.643391 ], [ 77.048277, 8.6433 ], [ 77.048014, 8.643265 ], [ 77.047604, 8.643274 ], [ 77.047322, 8.64336 ], [ 77.04716, 8.643358 ], [ 77.047044, 8.643256 ], [ 77.046671, 8.642747 ], [ 77.046157, 8.642503 ], [ 77.045891, 8.642399 ], [ 77.045764, 8.642369 ], [ 77.04565, 8.642388 ], [ 77.044512, 8.642856 ], [ 77.044405, 8.642873 ], [ 77.044356, 8.642837 ], [ 77.044322, 8.642779 ], [ 77.044108, 8.642352 ], [ 77.043829, 8.641985 ], [ 77.043767, 8.641853 ], [ 77.043783, 8.641696 ], [ 77.044377, 8.641072 ], [ 77.045128, 8.640448 ], [ 77.045231, 8.640317 ], [ 77.045265, 8.640165 ], [ 77.045233, 8.640027 ], [ 77.045151, 8.63989 ], [ 77.045059, 8.639836 ], [ 77.044957, 8.63982 ], [ 77.044359, 8.639981 ], [ 77.044249, 8.639968 ], [ 77.044181, 8.639905 ], [ 77.044167, 8.639825 ], [ 77.04429, 8.639406 ], [ 77.044272, 8.639289 ], [ 77.044213, 8.639205 ], [ 77.04412, 8.639153 ], [ 77.043977, 8.639152 ], [ 77.043284, 8.639264 ], [ 77.042945, 8.639293 ], [ 77.042028, 8.639308 ], [ 77.041782, 8.639393 ], [ 77.040829, 8.640074 ], [ 77.040207, 8.640669 ], [ 77.040001, 8.64079 ], [ 77.039855, 8.640824 ], [ 77.039397, 8.640835 ], [ 77.039152, 8.640786 ], [ 77.03883, 8.640803 ], [ 77.038445, 8.640895 ], [ 77.038248, 8.640951 ], [ 77.038123, 8.640941 ], [ 77.03782, 8.640775 ], [ 77.037507, 8.640639 ], [ 77.037338, 8.64051 ], [ 77.037158, 8.64043 ], [ 77.036917, 8.64038 ], [ 77.036637, 8.640367 ], [ 77.036009, 8.640436 ], [ 77.035943, 8.640472 ], [ 77.035884, 8.640528 ], [ 77.035605, 8.640857 ], [ 77.033938, 8.641504 ], [ 77.033447, 8.641588 ], [ 77.033206, 8.641593 ], [ 77.032957, 8.64148 ], [ 77.032729, 8.641222 ], [ 77.032002, 8.639985 ], [ 77.031666, 8.639392 ], [ 77.031483, 8.638715 ], [ 77.031375, 8.638133 ], [ 77.031499, 8.637385 ], [ 77.031522, 8.637322 ], [ 77.031622, 8.637212 ], [ 77.031692, 8.637179 ], [ 77.031924, 8.637121 ], [ 77.03207, 8.637042 ], [ 77.032191, 8.636941 ], [ 77.032326, 8.636803 ], [ 77.032394, 8.636672 ], [ 77.032415, 8.636431 ], [ 77.032391, 8.636159 ], [ 77.032288, 8.635647 ], [ 77.03206, 8.635187 ], [ 77.031994, 8.635113 ], [ 77.031899, 8.635062 ], [ 77.031802, 8.635034 ], [ 77.031641, 8.634997 ], [ 77.031205, 8.635008 ], [ 77.030471, 8.635203 ], [ 77.03022, 8.63521 ], [ 77.030052, 8.635104 ], [ 77.029708, 8.634735 ], [ 77.029604, 8.634654 ], [ 77.029356, 8.634625 ], [ 77.028661, 8.634696 ], [ 77.027935, 8.634732 ], [ 77.027697, 8.634265 ], [ 77.027585, 8.634128 ], [ 77.027511, 8.633924 ], [ 77.027555, 8.633711 ], [ 77.027628, 8.633494 ], [ 77.027641, 8.633205 ], [ 77.027563, 8.632849 ], [ 77.027622, 8.63247 ], [ 77.027573, 8.632317 ], [ 77.027429, 8.632247 ], [ 77.027198, 8.6322 ], [ 77.027139, 8.63216 ], [ 77.027088, 8.631831 ], [ 77.027212, 8.631645 ], [ 77.027485, 8.63159 ], [ 77.027794, 8.631497 ], [ 77.027931, 8.63137 ], [ 77.027984, 8.631205 ], [ 77.028008, 8.630908 ], [ 77.027904, 8.630648 ], [ 77.027692, 8.63042 ], [ 77.02745, 8.630303 ], [ 77.027222, 8.630293 ], [ 77.027105, 8.630244 ], [ 77.026982, 8.630088 ], [ 77.026944, 8.630049 ], [ 77.02661, 8.629846 ], [ 77.026491, 8.629737 ], [ 77.026398, 8.629623 ], [ 77.026355, 8.629536 ], [ 77.026311, 8.629446 ], [ 77.026253, 8.629256 ], [ 77.0262, 8.628894 ], [ 77.026202, 8.628771 ], [ 77.026166, 8.628628 ], [ 77.026092, 8.628472 ], [ 77.025949, 8.628281 ], [ 77.025728, 8.628076 ], [ 77.025588, 8.627905 ], [ 77.025496, 8.627702 ], [ 77.025472, 8.627531 ], [ 77.02543, 8.627257 ], [ 77.025354, 8.626938 ], [ 77.025259, 8.626659 ], [ 77.025136, 8.626419 ], [ 77.024972, 8.626216 ], [ 77.024921, 8.626112 ], [ 77.024836, 8.625906 ], [ 77.024753, 8.625649 ], [ 77.024668, 8.625232 ], [ 77.024636, 8.625142 ], [ 77.024569, 8.625017 ], [ 77.024404, 8.624816 ], [ 77.024238, 8.624658 ], [ 77.02394, 8.624326 ], [ 77.023842, 8.624239 ], [ 77.023691, 8.624152 ], [ 77.023265, 8.624012 ], [ 77.023139, 8.623946 ], [ 77.02307, 8.623883 ], [ 77.022962, 8.623744 ], [ 77.022833, 8.623465 ], [ 77.022752, 8.62336 ], [ 77.022706, 8.62314 ], [ 77.022719, 8.623075 ], [ 77.022754, 8.622998 ], [ 77.023012, 8.622671 ], [ 77.023097, 8.622491 ], [ 77.023145, 8.622216 ], [ 77.023122, 8.622107 ], [ 77.023064, 8.621987 ], [ 77.022822, 8.621705 ], [ 77.022658, 8.621528 ], [ 77.022491, 8.621378 ], [ 77.022403, 8.621264 ], [ 77.022339, 8.621088 ], [ 77.022249, 8.62075 ], [ 77.022188, 8.620654 ], [ 77.022047, 8.620505 ], [ 77.021876, 8.620407 ], [ 77.021698, 8.620247 ], [ 77.021573, 8.620161 ], [ 77.020813, 8.619434 ], [ 77.02023, 8.618743 ], [ 77.020167, 8.61863 ], [ 77.020088, 8.618531 ], [ 77.020014, 8.618354 ], [ 77.019986, 8.618239 ], [ 77.02001, 8.617333 ], [ 77.020157, 8.616787 ], [ 77.020148, 8.616237 ], [ 77.02017, 8.615976 ], [ 77.020172, 8.615844 ], [ 77.02006, 8.615371 ], [ 77.019978, 8.615134 ], [ 77.019985, 8.615031 ], [ 77.020076, 8.614741 ], [ 77.0201, 8.614619 ], [ 77.020097, 8.614372 ], [ 77.020071, 8.614177 ], [ 77.020027, 8.613998 ], [ 77.019984, 8.613896 ], [ 77.01985, 8.613728 ], [ 77.019602, 8.613529 ], [ 77.019223, 8.613035 ], [ 77.018903, 8.612859 ], [ 77.018637, 8.612736 ], [ 77.018392, 8.612678 ], [ 77.018256, 8.612656 ], [ 77.018137, 8.612654 ], [ 77.017813, 8.612684 ], [ 77.017289, 8.612802 ], [ 77.016556, 8.612998 ], [ 77.016336, 8.613028 ], [ 77.015657, 8.613002 ], [ 77.015244, 8.61309 ], [ 77.015071, 8.613111 ], [ 77.014601, 8.613097 ], [ 77.014302, 8.613065 ], [ 77.013927, 8.613044 ], [ 77.013715, 8.612984 ], [ 77.013585, 8.612923 ], [ 77.013461, 8.612848 ], [ 77.013241, 8.612682 ], [ 77.012941, 8.612416 ], [ 77.012858, 8.612294 ], [ 77.012709, 8.612019 ], [ 77.012525, 8.611649 ], [ 77.012457, 8.611515 ], [ 77.01238, 8.611336 ], [ 77.012303, 8.611222 ], [ 77.012183, 8.611106 ], [ 77.012034, 8.611003 ], [ 77.011625, 8.61072 ], [ 77.011236, 8.610421 ], [ 77.011051, 8.610343 ], [ 77.010744, 8.610352 ], [ 77.01056, 8.610319 ], [ 77.010442, 8.610264 ], [ 77.010253, 8.610138 ], [ 77.009966, 8.610028 ], [ 77.009843, 8.609965 ], [ 77.00975, 8.6099 ], [ 77.009712, 8.609854 ], [ 77.009478, 8.60955 ], [ 77.009283, 8.609392 ], [ 77.009008, 8.609212 ], [ 77.008753, 8.609088 ], [ 77.008589, 8.608945 ], [ 77.00836, 8.608582 ], [ 77.008197, 8.6084 ], [ 77.008058, 8.608165 ], [ 77.007978, 8.607962 ], [ 77.007869, 8.607605 ], [ 77.007833, 8.607476 ], [ 77.007753, 8.607368 ], [ 77.007629, 8.60729 ], [ 77.007202, 8.60711 ], [ 77.007049, 8.607085 ], [ 77.006752, 8.607085 ], [ 77.006614, 8.607108 ], [ 77.006511, 8.607137 ], [ 77.006176, 8.607272 ], [ 77.005875, 8.607351 ], [ 77.005748, 8.607419 ], [ 77.005695, 8.60747 ], [ 77.00558, 8.607632 ], [ 77.005266, 8.608203 ], [ 77.005191, 8.608329 ], [ 77.00513, 8.608372 ], [ 77.004938, 8.608402 ], [ 77.004903, 8.608421 ], [ 77.004219, 8.608267 ], [ 77.004189, 8.608262 ], [ 77.003848, 8.60817 ], [ 77.00328, 8.60812 ], [ 77.003153, 8.608082 ], [ 77.003082, 8.608035 ], [ 77.002843, 8.607706 ], [ 77.002833, 8.607212 ], [ 77.002876, 8.607025 ], [ 77.002894, 8.606828 ], [ 77.002913, 8.606582 ], [ 77.002872, 8.606205 ], [ 77.002857, 8.605739 ], [ 77.002858, 8.605666 ], [ 77.002858, 8.60554 ], [ 77.002882, 8.605352 ], [ 77.002899, 8.605273 ], [ 77.002954, 8.605189 ], [ 77.002889, 8.605145 ], [ 77.002696, 8.605076 ], [ 77.002525, 8.605044 ], [ 77.002106, 8.605108 ], [ 77.001849, 8.605182 ], [ 77.001618, 8.605272 ], [ 77.001534, 8.605287 ], [ 77.001138, 8.605371 ], [ 77.00099, 8.605382 ], [ 77.000582, 8.605371 ], [ 77.000105, 8.605435 ], [ 76.9995, 8.605546 ], [ 76.999403, 8.605512 ], [ 76.999332, 8.605442 ], [ 76.999022, 8.605361 ], [ 76.998681, 8.605331 ], [ 76.998412, 8.605387 ], [ 76.998435, 8.605288 ], [ 76.99846, 8.605044 ], [ 76.998473, 8.604787 ], [ 76.998465, 8.604597 ], [ 76.998331, 8.604349 ], [ 76.997998, 8.604008 ], [ 76.997683, 8.60378 ], [ 76.997516, 8.603706 ], [ 76.997376, 8.603697 ], [ 76.997169, 8.603707 ], [ 76.997019, 8.603681 ], [ 76.996933, 8.603633 ], [ 76.996872, 8.60357 ], [ 76.996784, 8.603459 ], [ 76.996687, 8.603247 ], [ 76.996547, 8.602779 ], [ 76.996499, 8.60266 ], [ 76.996427, 8.602563 ], [ 76.996295, 8.602437 ], [ 76.996134, 8.602183 ], [ 76.995962, 8.601679 ], [ 76.995963, 8.601484 ], [ 76.995963, 8.601076 ], [ 76.99501, 8.600645 ], [ 76.994721, 8.600526 ], [ 76.994553, 8.600459 ], [ 76.994293, 8.600436 ], [ 76.994258, 8.600297 ], [ 76.994194, 8.600119 ], [ 76.993944, 8.599045 ], [ 76.993738, 8.598566 ], [ 76.993575, 8.598303 ], [ 76.99354, 8.598257 ], [ 76.993208, 8.597838 ], [ 76.993113, 8.597694 ], [ 76.992799, 8.597274 ], [ 76.992645, 8.59697 ], [ 76.992469, 8.596623 ], [ 76.9924, 8.596486 ], [ 76.992328, 8.596345 ], [ 76.992037, 8.595927 ], [ 76.991672, 8.595375 ], [ 76.991586, 8.595232 ], [ 76.991382, 8.594898 ], [ 76.991113, 8.594257 ], [ 76.990941, 8.59366 ], [ 76.990904, 8.593435 ], [ 76.990904, 8.593411 ], [ 76.990901, 8.593313 ], [ 76.9909, 8.593253 ], [ 76.991087, 8.592051 ], [ 76.991081, 8.591847 ], [ 76.991021, 8.591677 ], [ 76.990792, 8.591355 ], [ 76.990171, 8.590618 ], [ 76.989892, 8.590252 ], [ 76.989617, 8.589873 ], [ 76.989375, 8.589497 ], [ 76.989283, 8.589259 ], [ 76.989211, 8.589071 ], [ 76.988842, 8.588403 ], [ 76.988635, 8.587854 ], [ 76.988532, 8.587439 ], [ 76.988305, 8.586667 ], [ 76.98807, 8.586255 ], [ 76.987555, 8.585724 ], [ 76.987437, 8.585604 ], [ 76.987249, 8.585321 ], [ 76.987119, 8.585172 ], [ 76.986974, 8.584818 ], [ 76.986773, 8.584623 ], [ 76.986565, 8.584458 ], [ 76.986435, 8.584377 ], [ 76.986048, 8.584144 ], [ 76.985831, 8.583784 ], [ 76.985745, 8.583719 ], [ 76.985805, 8.583315 ], [ 76.985805, 8.583188 ], [ 76.985694, 8.583069 ], [ 76.98557, 8.582971 ], [ 76.985525, 8.582869 ], [ 76.985489, 8.582693 ], [ 76.985455, 8.58243 ], [ 76.985479, 8.582147 ], [ 76.985519, 8.58199 ], [ 76.98583, 8.581279 ], [ 76.985903, 8.580991 ], [ 76.98592, 8.580879 ], [ 76.985909, 8.580498 ], [ 76.985938, 8.580219 ], [ 76.98603, 8.579802 ], [ 76.98613, 8.579225 ], [ 76.986205, 8.578778 ], [ 76.986251, 8.578454 ], [ 76.986505, 8.577921 ], [ 76.986607, 8.577546 ], [ 76.986662, 8.5771 ], [ 76.986843, 8.577135 ], [ 76.987311, 8.577158 ], [ 76.987719, 8.577148 ], [ 76.987764, 8.577122 ], [ 76.987788, 8.577082 ], [ 76.987846, 8.576685 ], [ 76.987891, 8.576379 ], [ 76.987933, 8.575776 ], [ 76.987952, 8.575709 ], [ 76.987985, 8.575668 ], [ 76.988477, 8.575336 ], [ 76.98869, 8.575248 ], [ 76.988853, 8.574979 ], [ 76.989028, 8.574642 ], [ 76.989273, 8.574427 ], [ 76.989694, 8.573731 ], [ 76.990101, 8.573235 ], [ 76.990119, 8.573021 ], [ 76.990165, 8.572829 ], [ 76.990252, 8.572775 ], [ 76.9904, 8.572745 ], [ 76.9905, 8.57269 ], [ 76.990568, 8.572568 ], [ 76.990559, 8.572489 ], [ 76.989925, 8.571319 ], [ 76.989919, 8.571278 ], [ 76.989947, 8.571224 ], [ 76.990108, 8.571054 ], [ 76.990157, 8.570892 ], [ 76.990134, 8.570733 ], [ 76.990084, 8.570585 ], [ 76.989931, 8.570261 ], [ 76.989884, 8.57014 ], [ 76.989757, 8.569836 ], [ 76.9897, 8.569699 ], [ 76.989938, 8.569597 ], [ 76.990044, 8.569574 ], [ 76.989986, 8.569415 ], [ 76.98988, 8.569189 ], [ 76.990056, 8.56911 ], [ 76.990488, 8.568954 ], [ 76.990637, 8.568867 ], [ 76.990559, 8.568812 ], [ 76.990202, 8.568405 ], [ 76.990144, 8.568224 ], [ 76.990065, 8.568043 ], [ 76.990055, 8.567799 ], [ 76.990108, 8.567583 ], [ 76.990232, 8.567328 ], [ 76.990283, 8.567019 ], [ 76.990276, 8.566846 ], [ 76.990232, 8.566651 ], [ 76.990217, 8.566315 ], [ 76.990159, 8.566178 ], [ 76.990038, 8.56598 ], [ 76.989826, 8.566045 ], [ 76.98977, 8.566038 ], [ 76.989732, 8.566008 ], [ 76.9895, 8.565727 ], [ 76.989461, 8.565634 ], [ 76.989447, 8.565518 ], [ 76.989406, 8.565432 ], [ 76.989367, 8.565403 ], [ 76.989268, 8.565368 ], [ 76.989055, 8.565341 ], [ 76.988974, 8.565294 ], [ 76.988931, 8.565248 ], [ 76.988873, 8.56497 ], [ 76.98881, 8.564803 ], [ 76.988788, 8.56463 ], [ 76.988789, 8.564347 ], [ 76.988725, 8.564133 ], [ 76.988417, 8.564041 ], [ 76.98831, 8.563992 ], [ 76.988103, 8.563932 ], [ 76.988056, 8.563861 ], [ 76.987974, 8.563799 ], [ 76.987848, 8.563472 ], [ 76.987573, 8.563555 ], [ 76.98751, 8.563555 ], [ 76.987327, 8.56347 ], [ 76.987184, 8.563425 ], [ 76.986976, 8.56348 ], [ 76.986812, 8.563555 ], [ 76.986664, 8.563681 ], [ 76.98658, 8.563824 ], [ 76.986439, 8.563984 ], [ 76.986291, 8.564035 ], [ 76.986145, 8.563988 ], [ 76.986021, 8.563967 ], [ 76.985913, 8.564002 ], [ 76.98562, 8.564208 ], [ 76.985609, 8.564005 ], [ 76.985573, 8.563893 ], [ 76.985453, 8.563589 ], [ 76.985202, 8.562985 ], [ 76.985102, 8.562742 ], [ 76.984993, 8.562598 ], [ 76.984875, 8.562482 ], [ 76.984758, 8.562403 ], [ 76.984579, 8.562339 ], [ 76.984087, 8.562236 ], [ 76.983833, 8.562212 ], [ 76.983386, 8.562195 ], [ 76.983164, 8.562158 ], [ 76.98243, 8.561964 ], [ 76.982412, 8.561959 ], [ 76.982396, 8.561954 ], [ 76.982117, 8.561858 ], [ 76.981441, 8.561371 ], [ 76.980953, 8.560888 ], [ 76.980777, 8.560746 ], [ 76.980705, 8.560737 ], [ 76.980452, 8.560706 ], [ 76.979985, 8.560821 ], [ 76.979865, 8.560814 ], [ 76.979777, 8.560786 ], [ 76.979717, 8.560755 ], [ 76.979411, 8.560566 ], [ 76.979114, 8.560378 ], [ 76.978882, 8.560204 ], [ 76.978795, 8.560013 ], [ 76.978613, 8.559586 ], [ 76.978388, 8.559403 ], [ 76.978166, 8.559181 ], [ 76.978144, 8.559104 ], [ 76.978146, 8.558957 ], [ 76.978214, 8.558752 ], [ 76.978245, 8.558697 ], [ 76.978364, 8.55851 ], [ 76.978415, 8.558373 ], [ 76.978431, 8.558256 ], [ 76.978417, 8.558125 ], [ 76.978374, 8.557945 ], [ 76.978335, 8.557859 ], [ 76.978146, 8.557543 ], [ 76.977454, 8.556618 ], [ 76.977396, 8.556491 ], [ 76.977279, 8.556236 ], [ 76.977263, 8.556015 ], [ 76.977263, 8.555969 ], [ 76.977452, 8.555315 ], [ 76.977449, 8.555259 ], [ 76.977424, 8.555205 ], [ 76.977317, 8.555073 ], [ 76.976911, 8.554781 ], [ 76.976446, 8.554489 ], [ 76.976418, 8.554468 ], [ 76.976383, 8.554447 ], [ 76.976352, 8.55441 ], [ 76.976293, 8.55435 ], [ 76.976216, 8.554151 ], [ 76.97614, 8.553631 ], [ 76.976139, 8.553321 ], [ 76.976186, 8.55302 ], [ 76.976187, 8.552892 ], [ 76.976086, 8.552542 ], [ 76.975916, 8.552223 ], [ 76.975816, 8.552118 ], [ 76.975492, 8.551932 ], [ 76.974925, 8.551728 ], [ 76.974564, 8.551505 ], [ 76.974269, 8.551265 ], [ 76.974099, 8.551123 ], [ 76.973989, 8.551029 ], [ 76.973898, 8.550952 ], [ 76.973849, 8.550896 ], [ 76.973483, 8.550484 ], [ 76.973361, 8.550204 ], [ 76.973356, 8.549941 ], [ 76.973402, 8.549617 ], [ 76.973486, 8.549416 ], [ 76.973725, 8.549087 ], [ 76.973818, 8.54894 ], [ 76.973865, 8.548765 ], [ 76.974091, 8.547634 ], [ 76.974101, 8.547474 ], [ 76.974037, 8.54719 ], [ 76.974026, 8.547089 ], [ 76.973781, 8.546618 ], [ 76.973486, 8.546105 ], [ 76.973276, 8.545768 ], [ 76.973134, 8.54555 ], [ 76.972649, 8.544881 ], [ 76.972558, 8.544732 ], [ 76.972504, 8.544645 ], [ 76.972366, 8.544398 ], [ 76.972068, 8.543895 ], [ 76.971907, 8.543669 ], [ 76.971471, 8.543063 ], [ 76.971291, 8.542799 ], [ 76.970802, 8.541997 ], [ 76.970425, 8.54145 ], [ 76.970285, 8.541292 ], [ 76.970066, 8.54108 ], [ 76.969963, 8.541 ], [ 76.969843, 8.540872 ], [ 76.96974, 8.540732 ], [ 76.969491, 8.540268 ], [ 76.969303, 8.539994 ], [ 76.968938, 8.539737 ], [ 76.968501, 8.539522 ], [ 76.968274, 8.539418 ], [ 76.968147, 8.539328 ], [ 76.968101, 8.539277 ], [ 76.9679, 8.53904 ], [ 76.967798, 8.538838 ], [ 76.967682, 8.538504 ], [ 76.967618, 8.538334 ], [ 76.967471, 8.538039 ], [ 76.967353, 8.537864 ], [ 76.967242, 8.537756 ], [ 76.96712, 8.537685 ], [ 76.967, 8.537622 ], [ 76.966741, 8.537553 ], [ 76.966668, 8.537496 ], [ 76.966613, 8.537415 ], [ 76.966559, 8.537078 ], [ 76.966512, 8.536985 ], [ 76.966422, 8.536955 ], [ 76.966221, 8.536967 ], [ 76.965717, 8.537081 ], [ 76.965548, 8.537118 ], [ 76.965408, 8.537118 ], [ 76.965271, 8.537086 ], [ 76.965188, 8.537028 ], [ 76.965132, 8.53693 ], [ 76.965094, 8.536765 ], [ 76.965073, 8.536462 ], [ 76.965027, 8.535898 ], [ 76.96499, 8.535733 ], [ 76.964944, 8.535617 ], [ 76.964767, 8.535358 ], [ 76.964188, 8.534516 ], [ 76.964019, 8.534356 ], [ 76.96374, 8.53415 ], [ 76.963421, 8.533683 ], [ 76.963268, 8.533505 ], [ 76.96312, 8.533238 ], [ 76.963037, 8.533129 ], [ 76.962407, 8.53254 ], [ 76.962265, 8.532354 ], [ 76.962173, 8.532218 ], [ 76.961763, 8.531631 ], [ 76.961596, 8.531388 ], [ 76.96144, 8.531122 ], [ 76.961295, 8.530455 ], [ 76.961225, 8.530276 ], [ 76.961067, 8.52997 ], [ 76.960705, 8.529362 ], [ 76.960638, 8.529197 ], [ 76.960462, 8.528658 ], [ 76.960321, 8.528288 ], [ 76.960246, 8.527932 ], [ 76.960238, 8.527734 ], [ 76.960259, 8.527482 ], [ 76.960304, 8.527324 ], [ 76.96045, 8.527001 ], [ 76.960614, 8.526699 ], [ 76.96073, 8.52645 ], [ 76.961037, 8.525826 ], [ 76.96112, 8.525625 ], [ 76.96122, 8.525269 ], [ 76.961246, 8.525089 ], [ 76.961252, 8.524951 ], [ 76.96123, 8.524824 ], [ 76.960962, 8.523983 ], [ 76.960898, 8.523712 ], [ 76.960858, 8.523304 ], [ 76.960828, 8.523174 ], [ 76.960694, 8.522837 ], [ 76.960659, 8.522691 ], [ 76.960654, 8.522511 ], [ 76.960731, 8.522243 ], [ 76.960786, 8.522077 ], [ 76.960831, 8.521864 ], [ 76.96081, 8.520583 ], [ 76.960802, 8.520433 ], [ 76.960745, 8.519336 ], [ 76.960657, 8.519333 ], [ 76.960532, 8.519332 ], [ 76.960223, 8.519297 ], [ 76.959121, 8.519177 ], [ 76.958343, 8.519059 ], [ 76.958074, 8.518994 ], [ 76.958003, 8.518976 ], [ 76.957756, 8.518841 ], [ 76.957673, 8.518779 ], [ 76.957557, 8.51866 ], [ 76.957277, 8.518271 ], [ 76.957137, 8.518036 ], [ 76.956996, 8.517872 ], [ 76.956931, 8.517745 ], [ 76.956956, 8.517721 ], [ 76.956958, 8.517679 ], [ 76.956924, 8.517649 ], [ 76.956865, 8.517674 ], [ 76.956766, 8.516921 ], [ 76.956749, 8.516533 ], [ 76.956672, 8.516008 ], [ 76.956455, 8.515828 ], [ 76.956203, 8.515679 ], [ 76.955781, 8.515386 ], [ 76.955661, 8.515354 ], [ 76.95548, 8.515347 ], [ 76.955152, 8.515464 ], [ 76.95495, 8.515508 ], [ 76.954647, 8.515548 ], [ 76.954546, 8.515547 ], [ 76.954364, 8.515541 ], [ 76.954266, 8.515533 ], [ 76.954001, 8.515523 ], [ 76.953906, 8.515449 ], [ 76.953771, 8.515436 ], [ 76.953752, 8.515426 ], [ 76.953747, 8.515299 ], [ 76.9537, 8.51524 ], [ 76.953668, 8.51511 ], [ 76.9537, 8.515056 ], [ 76.953508, 8.514558 ], [ 76.953443, 8.514327 ], [ 76.95341, 8.514206 ], [ 76.953415, 8.513471 ], [ 76.95354, 8.512676 ], [ 76.95361, 8.512339 ], [ 76.953653, 8.512025 ], [ 76.953578, 8.511363 ], [ 76.953547, 8.510715 ], [ 76.953507, 8.510471 ], [ 76.953309, 8.509917 ], [ 76.95327, 8.509004 ], [ 76.953245, 8.508879 ], [ 76.953175, 8.508586 ], [ 76.953156, 8.508507 ], [ 76.953004, 8.508544 ], [ 76.952375, 8.508622 ], [ 76.952249, 8.508638 ], [ 76.952159, 8.508652 ], [ 76.951274, 8.508795 ], [ 76.951056, 8.508816 ], [ 76.950888, 8.508808 ], [ 76.950727, 8.508761 ], [ 76.950597, 8.508676 ] ] } }
]
}
