{"type":"FeatureCollection","features":[{"type":"Feature","properties":{"name":"India"},"geometry":{"type":"MultiPolygon","coordinates":[[[[77.519,35.486],[77.559,35.488],[77.593,35.467],[77.634,35.464],[77.675,35.466],[77.715,35.462],[77.741,35.493],[77.781,35.499],[77.814,35.522],[77.845,35.496],[77.882,35.48],[77.92,35.493],[77.931,35.533],[77.961,35.561],[78.001,35.564],[78.037,35.585],[78.073,35.564],[78.113,35.55],[78.154,35.551],[78.161,35.59],[78.18,35.627],[78.182,35.667],[78.22,35.68],[78.243,35.716],[78.282,35.724],[78.325,35.724],[78.365,35.725],[78.409,35.731],[78.423,35.769],[78.468,35.764],[78.51,35.77],[78.554,35.772],[78.586,35.802],[78.626,35.815],[78.664,35.835],[78.702,35.857],[78.746,35.859],[78.788,35.868],[78.828,35.909],[78.842,35.947],[78.876,35.969],[78.914,35.953],[78.955,35.949],[78.991,35.929],[79.031,35.915],[79.062,35.942],[79.104,35.945],[79.145,35.945],[79.186,35.933],[79.231,35.929],[79.273,35.929],[79.308,35.954],[79.34,35.984],[79.381,35.98],[79.425,35.974],[79.44,35.934],[79.466,35.903],[79.469,35.861],[79.51,35.85],[79.544,35.876],[79.584,35.883],[79.57,35.843],[79.586,35.805],[79.62,35.783],[79.64,35.748],[79.664,35.716],[79.677,35.678],[79.703,35.647],[79.743,35.638],[79.782,35.624],[79.822,35.623],[79.837,35.585],[79.877,35.598],[79.919,35.604],[79.948,35.631],[79.982,35.607],[79.964,35.568],[79.984,35.531],[80.007,35.496],[80.026,35.458],[80.055,35.423],[80.083,35.454],[80.12,35.477],[80.156,35.501],[80.169,35.541],[80.196,35.57],[80.235,35.559],[80.277,35.553],[80.31,35.53],[80.35,35.526],[80.385,35.501],[80.415,35.47],[80.412,35.426],[80.377,35.392],[80.335,35.383],[80.295,35.363],[80.277,35.322],[80.287,35.275],[80.285,35.233],[80.255,35.206],[80.223,35.171],[80.211,35.128],[80.202,35.085],[80.212,35.03],[80.224,34.991],[80.198,34.961],[80.203,34.921],[80.184,34.884],[80.148,34.867],[80.12,34.838],[80.107,34.798],[80.075,34.769],[80.077,34.724],[80.046,34.7],[80.003,34.694],[79.962,34.686],[79.92,34.689],[79.878,34.687],[79.844,34.665],[79.81,34.638],[79.79,34.603],[79.792,34.56],[79.809,34.522],[79.794,34.48],[79.753,34.478],[79.71,34.482],[79.677,34.459],[79.63,34.453],[79.593,34.467],[79.552,34.467],[79.512,34.456],[79.533,34.42],[79.546,34.382],[79.564,34.343],[79.593,34.311],[79.607,34.272],[79.581,34.234],[79.548,34.207],[79.508,34.198],[79.495,34.155],[79.47,34.116],[79.428,34.113],[79.426,34.071],[79.409,34.033],[79.391,33.997],[79.346,34],[79.306,34.01],[79.26,34.019],[79.217,34.014],[79.177,34.024],[79.144,33.997],[79.099,33.99],[79.052,34.003],[79.01,34.024],[78.962,34.026],[78.921,34.013],[78.893,33.98],[78.916,33.937],[78.94,33.905],[78.95,33.863],[78.965,33.821],[78.995,33.788],[79.028,33.754],[79.01,33.714],[79.022,33.674],[79.064,33.666],[79.091,33.629],[79.045,33.621],[79.004,33.607],[78.95,33.618],[78.907,33.62],[78.886,33.576],[78.915,33.548],[78.931,33.487],[78.929,33.445],[78.938,33.403],[78.95,33.364],[78.977,33.334],[79.016,33.323],[79.039,33.29],[79.06,33.255],[79.081,33.221],[79.118,33.202],[79.155,33.186],[79.183,33.216],[79.217,33.238],[79.252,33.218],[79.289,33.203],[79.329,33.199],[79.37,33.198],[79.409,33.188],[79.4,33.149],[79.373,33.119],[79.365,33.078],[79.335,33.046],[79.339,33.006],[79.357,32.971],[79.388,32.944],[79.406,32.908],[79.444,32.891],[79.472,32.862],[79.469,32.821],[79.497,32.791],[79.534,32.776],[79.544,32.731],[79.541,32.691],[79.525,32.653],[79.49,32.631],[79.459,32.605],[79.437,32.571],[79.414,32.538],[79.374,32.53],[79.335,32.541],[79.294,32.541],[79.255,32.534],[79.221,32.512],[79.182,32.504],[79.15,32.478],[79.118,32.454],[79.112,32.414],[79.105,32.375],[79.065,32.386],[79.025,32.381],[78.987,32.366],[78.951,32.349],[78.914,32.368],[78.887,32.399],[78.849,32.413],[78.814,32.434],[78.797,32.471],[78.779,32.507],[78.767,32.545],[78.774,32.585],[78.772,32.625],[78.744,32.654],[78.741,32.695],[78.71,32.668],[78.671,32.656],[78.633,32.643],[78.624,32.603],[78.584,32.604],[78.545,32.614],[78.509,32.594],[78.472,32.578],[78.432,32.571],[78.402,32.545],[78.423,32.509],[78.445,32.476],[78.47,32.444],[78.471,32.404],[78.483,32.364],[78.486,32.324],[78.495,32.284],[78.523,32.254],[78.546,32.22],[78.583,32.203],[78.593,32.164],[78.625,32.14],[78.658,32.116],[78.693,32.096],[78.707,32.057],[78.726,32.02],[78.766,32.004],[78.777,31.965],[78.766,31.926],[78.747,31.89],[78.743,31.851],[78.716,31.821],[78.705,31.781],[78.727,31.748],[78.745,31.711],[78.762,31.675],[78.799,31.657],[78.828,31.629],[78.827,31.588],[78.795,31.562],[78.759,31.543],[78.727,31.518],[78.749,31.484],[78.776,31.453],[78.772,31.413],[78.758,31.375],[78.771,31.336],[78.795,31.304],[78.834,31.294],[78.873,31.305],[78.913,31.31],[78.935,31.343],[78.975,31.359],[79.013,31.347],[79.016,31.388],[79.024,31.427],[79.063,31.435],[79.098,31.454],[79.136,31.435],[79.161,31.402],[79.171,31.363],[79.21,31.354],[79.221,31.315],[79.249,31.286],[79.253,31.246],[79.29,31.228],[79.305,31.191],[79.311,31.151],[79.344,31.127],[79.383,31.116],[79.417,31.094],[79.421,31.053],[79.456,31.031],[79.496,31.031],[79.517,30.997],[79.547,30.969],[79.581,30.948],[79.622,30.951],[79.661,30.965],[79.701,30.971],[79.739,30.983],[79.78,30.986],[79.818,30.971],[79.858,30.975],[79.884,30.944],[79.911,30.912],[79.934,30.879],[79.975,30.879],[80.011,30.862],[80.043,30.837],[80.078,30.815],[80.105,30.786],[80.145,30.792],[80.185,30.794],[80.207,30.76],[80.244,30.745],[80.233,30.706],[80.199,30.686],[80.211,30.648],[80.214,30.607],[80.24,30.577],[80.281,30.569],[80.318,30.553],[80.344,30.521],[80.385,30.518],[80.425,30.514],[80.46,30.493],[80.501,30.484],[80.53,30.457],[80.57,30.464],[80.61,30.463],[80.647,30.446],[80.679,30.422],[80.718,30.411],[80.75,30.386],[80.778,30.356],[80.802,30.323],[80.841,30.315],[80.879,30.301],[80.916,30.287],[80.954,30.27],[80.995,30.266],[81.03,30.248],[81.045,30.21],[81.009,30.192],[80.97,30.186],[80.929,30.187],[80.917,30.226],[80.888,30.199],[80.868,30.163],[80.866,30.123],[80.835,30.098],[80.798,30.08],[80.769,30.053],[80.753,30.016],[80.717,29.998],[80.687,29.971],[80.65,29.956],[80.61,29.959],[80.579,29.933],[80.572,29.893],[80.553,29.858],[80.524,29.829],[80.494,29.802],[80.454,29.803],[80.415,29.795],[80.397,29.759],[80.367,29.732],[80.38,29.694],[80.399,29.659],[80.408,29.619],[80.391,29.582],[80.36,29.556],[80.348,29.518],[80.313,29.498],[80.295,29.462],[80.257,29.451],[80.242,29.413],[80.273,29.387],[80.28,29.346],[80.311,29.32],[80.304,29.28],[80.299,29.24],[80.295,29.2],[80.257,29.215],[80.261,29.174],[80.252,29.135],[80.214,29.122],[80.174,29.126],[80.128,29.061],[80.125,29.013],[80.097,28.976],[80.058,28.917],[80.065,28.838],[80.118,28.829],[80.171,28.782],[80.216,28.756],[80.256,28.754],[80.271,28.717],[80.311,28.703],[80.336,28.661],[80.366,28.635],[80.407,28.636],[80.447,28.629],[80.469,28.595],[80.5,28.569],[80.515,28.616],[80.504,28.665],[80.54,28.691],[80.59,28.68],[80.612,28.639],[80.668,28.642],[80.696,28.603],[80.724,28.575],[80.768,28.566],[80.784,28.529],[80.83,28.512],[80.866,28.49],[80.909,28.498],[80.916,28.458],[80.964,28.45],[81.018,28.452],[81.022,28.41],[81.07,28.393],[81.117,28.377],[81.164,28.369],[81.211,28.361],[81.234,28.325],[81.238,28.282],[81.273,28.242],[81.314,28.205],[81.302,28.167],[81.334,28.14],[81.374,28.147],[81.404,28.174],[81.443,28.163],[81.468,28.127],[81.478,28.083],[81.523,28.061],[81.559,28.042],[81.595,28.022],[81.629,28.001],[81.672,27.991],[81.717,27.973],[81.756,27.942],[81.789,27.917],[81.827,27.9],[81.86,27.878],[81.896,27.855],[81.93,27.883],[81.959,27.917],[82.025,27.925],[82.07,27.924],[82.101,27.886],[82.139,27.86],[82.209,27.843],[82.253,27.81],[82.303,27.773],[82.368,27.742],[82.393,27.71],[82.427,27.689],[82.473,27.676],[82.517,27.691],[82.563,27.692],[82.605,27.706],[82.655,27.713],[82.699,27.722],[82.717,27.687],[82.731,27.649],[82.736,27.609],[82.748,27.57],[82.745,27.531],[82.785,27.5],[82.833,27.502],[82.879,27.499],[82.929,27.501],[82.954,27.468],[82.994,27.459],[83.035,27.449],[83.077,27.453],[83.119,27.455],[83.166,27.458],[83.203,27.435],[83.24,27.406],[83.265,27.365],[83.293,27.336],[83.333,27.333],[83.366,27.355],[83.385,27.39],[83.39,27.43],[83.392,27.47],[83.445,27.477],[83.504,27.474],[83.555,27.472],[83.614,27.469],[83.659,27.449],[83.712,27.425],[83.76,27.402],[83.802,27.383],[83.838,27.364],[83.878,27.363],[83.859,27.399],[83.839,27.434],[83.88,27.435],[83.925,27.447],[83.966,27.446],[84.006,27.442],[84.046,27.443],[84.068,27.477],[84.099,27.503],[84.137,27.516],[84.161,27.484],[84.2,27.472],[84.236,27.454],[84.269,27.431],[84.284,27.394],[84.322,27.381],[84.362,27.374],[84.402,27.37],[84.442,27.37],[84.481,27.361],[84.52,27.353],[84.56,27.348],[84.599,27.339],[84.635,27.318],[84.658,27.279],[84.683,27.235],[84.683,27.195],[84.683,27.154],[84.677,27.115],[84.658,27.08],[84.682,27.032],[84.719,27.017],[84.757,27.003],[84.797,27.003],[84.837,27.015],[84.864,26.985],[84.901,26.97],[84.95,26.961],[84.971,26.927],[85.001,26.897],[85.042,26.891],[85.023,26.856],[85.063,26.858],[85.105,26.871],[85.154,26.871],[85.193,26.859],[85.181,26.819],[85.197,26.771],[85.24,26.762],[85.284,26.753],[85.323,26.745],[85.362,26.763],[85.399,26.78],[85.44,26.787],[85.479,26.796],[85.52,26.814],[85.558,26.844],[85.599,26.854],[85.642,26.853],[85.694,26.837],[85.729,26.808],[85.732,26.765],[85.728,26.725],[85.725,26.685],[85.745,26.642],[85.791,26.626],[85.83,26.602],[85.858,26.572],[85.891,26.594],[85.927,26.612],[85.954,26.642],[85.991,26.657],[86.053,26.66],[86.102,26.637],[86.141,26.617],[86.181,26.614],[86.214,26.591],[86.248,26.612],[86.293,26.613],[86.333,26.619],[86.377,26.598],[86.43,26.573],[86.474,26.557],[86.515,26.539],[86.553,26.524],[86.581,26.494],[86.619,26.483],[86.69,26.451],[86.725,26.426],[86.758,26.448],[86.804,26.446],[86.844,26.441],[86.881,26.458],[86.93,26.49],[86.954,26.521],[86.996,26.525],[87.031,26.555],[87.06,26.587],[87.073,26.546],[87.083,26.504],[87.09,26.458],[87.127,26.424],[87.162,26.404],[87.206,26.414],[87.247,26.414],[87.266,26.374],[87.312,26.372],[87.348,26.352],[87.364,26.401],[87.405,26.421],[87.443,26.433],[87.491,26.436],[87.534,26.422],[87.573,26.396],[87.627,26.394],[87.678,26.416],[87.717,26.422],[87.764,26.41],[87.777,26.448],[87.817,26.459],[87.861,26.449],[87.888,26.486],[87.924,26.446],[87.954,26.405],[87.992,26.373],[88.031,26.382],[88.06,26.41],[88.092,26.435],[88.105,26.473],[88.094,26.511],[88.11,26.548],[88.13,26.585],[88.142,26.625],[88.164,26.658],[88.168,26.698],[88.184,26.735],[88.186,26.776],[88.179,26.816],[88.173,26.855],[88.149,26.888],[88.141,26.927],[88.123,26.963],[88.104,26.998],[88.081,27.032],[88.042,27.036],[88.02,27.07],[87.999,27.104],[88.005,27.143],[88.013,27.182],[88.016,27.222],[88.031,27.26],[88.043,27.298],[88.062,27.333],[88.043,27.369],[88.05,27.408],[88.07,27.443],[88.046,27.475],[88.061,27.512],[88.068,27.552],[88.084,27.589],[88.114,27.615],[88.129,27.653],[88.151,27.686],[88.154,27.726],[88.178,27.759],[88.195,27.795],[88.194,27.835],[88.168,27.865],[88.137,27.892],[88.131,27.933],[88.163,27.959],[88.199,27.942],[88.231,27.967],[88.27,27.956],[88.308,27.968],[88.346,27.986],[88.386,27.981],[88.421,28.001],[88.459,28.016],[88.487,28.046],[88.527,28.037],[88.555,28.067],[88.589,28.088],[88.622,28.113],[88.657,28.094],[88.694,28.079],[88.734,28.073],[88.772,28.06],[88.803,28.034],[88.837,28.013],[88.841,27.973],[88.837,27.931],[88.87,27.907],[88.88,27.868],[88.873,27.827],[88.858,27.789],[88.864,27.748],[88.845,27.713],[88.848,27.673],[88.817,27.648],[88.807,27.609],[88.788,27.574],[88.776,27.535],[88.783,27.495],[88.783,27.455],[88.808,27.423],[88.831,27.39],[88.865,27.368],[88.893,27.34],[88.909,27.303],[88.889,27.268],[88.843,27.263],[88.802,27.249],[88.799,27.208],[88.77,27.181],[88.749,27.147],[88.788,27.135],[88.825,27.119],[88.865,27.111],[88.875,27.071],[88.877,27.031],[88.87,26.991],[88.875,26.952],[88.905,26.978],[88.946,26.974],[88.945,26.933],[88.986,26.92],[89.021,26.941],[89.05,26.908],[89.088,26.894],[89.103,26.851],[89.129,26.815],[89.169,26.817],[89.211,26.815],[89.252,26.816],[89.288,26.835],[89.334,26.846],[89.373,26.86],[89.408,26.841],[89.449,26.832],[89.481,26.802],[89.52,26.812],[89.56,26.813],[89.594,26.792],[89.633,26.782],[89.628,26.743],[89.664,26.726],[89.704,26.735],[89.744,26.729],[89.775,26.702],[89.814,26.711],[89.861,26.702],[89.897,26.725],[89.94,26.724],[89.983,26.727],[90.027,26.731],[90.071,26.735],[90.113,26.747],[90.158,26.76],[90.192,26.782],[90.194,26.822],[90.223,26.853],[90.268,26.856],[90.308,26.853],[90.346,26.874],[90.379,26.902],[90.424,26.9],[90.46,26.875],[90.497,26.85],[90.538,26.823],[90.575,26.807],[90.624,26.796],[90.666,26.783],[90.709,26.771],[90.751,26.777],[90.798,26.778],[90.843,26.78],[90.893,26.783],[90.942,26.785],[90.983,26.792],[91.026,26.788],[91.068,26.796],[91.106,26.82],[91.149,26.811],[91.198,26.815],[91.245,26.81],[91.288,26.793],[91.327,26.782],[91.368,26.793],[91.397,26.826],[91.438,26.818],[91.479,26.797],[91.526,26.796],[91.566,26.802],[91.609,26.814],[91.653,26.815],[91.697,26.81],[91.738,26.821],[91.78,26.842],[91.824,26.865],[91.848,26.898],[91.886,26.916],[91.928,26.904],[91.964,26.884],[92.001,26.855],[92.047,26.848],[92.094,26.863],[92.117,26.899],[92.118,26.939],[92.108,26.979],[92.088,27.014],[92.065,27.047],[92.035,27.073],[92.024,27.112],[92.032,27.152],[92.054,27.186],[92.07,27.223],[92.046,27.256],[92.083,27.273],[92.123,27.275],[92.095,27.304],[92.065,27.33],[92.049,27.368],[92.049,27.408],[92.027,27.441],[92.017,27.48],[91.98,27.464],[91.94,27.462],[91.9,27.471],[91.863,27.484],[91.826,27.468],[91.786,27.469],[91.746,27.471],[91.716,27.498],[91.675,27.493],[91.637,27.505],[91.614,27.538],[91.584,27.565],[91.582,27.605],[91.564,27.641],[91.592,27.669],[91.623,27.695],[91.638,27.732],[91.675,27.761],[91.718,27.761],[91.766,27.761],[91.809,27.761],[91.849,27.76],[91.871,27.726],[91.911,27.726],[91.951,27.732],[91.977,27.762],[92.013,27.78],[92.053,27.78],[92.092,27.797],[92.127,27.816],[92.164,27.831],[92.195,27.856],[92.228,27.88],[92.268,27.886],[92.303,27.853],[92.318,27.812],[92.361,27.803],[92.398,27.82],[92.436,27.805],[92.473,27.821],[92.5,27.851],[92.545,27.867],[92.582,27.883],[92.607,27.917],[92.652,27.916],[92.677,27.949],[92.714,27.967],[92.725,28.016],[92.726,28.058],[92.682,28.069],[92.665,28.108],[92.677,28.151],[92.717,28.168],[92.757,28.161],[92.791,28.188],[92.833,28.175],[92.873,28.195],[92.918,28.2],[92.931,28.243],[92.963,28.268],[92.999,28.288],[93.04,28.305],[93.077,28.325],[93.116,28.345],[93.15,28.368],[93.165,28.408],[93.168,28.451],[93.19,28.484],[93.219,28.515],[93.248,28.544],[93.286,28.565],[93.327,28.583],[93.367,28.597],[93.399,28.631],[93.426,28.662],[93.465,28.671],[93.506,28.668],[93.548,28.674],[93.588,28.679],[93.628,28.679],[93.671,28.669],[93.712,28.665],[93.745,28.69],[93.784,28.713],[93.817,28.74],[93.86,28.742],[93.9,28.755],[93.933,28.786],[93.967,28.815],[93.999,28.791],[94.019,28.828],[94.047,28.858],[94.079,28.883],[94.119,28.889],[94.162,28.904],[94.193,28.935],[94.238,28.928],[94.275,28.952],[94.303,28.985],[94.342,29.002],[94.328,29.041],[94.312,29.079],[94.275,29.1],[94.295,29.135],[94.332,29.155],[94.373,29.155],[94.405,29.183],[94.445,29.182],[94.475,29.21],[94.511,29.231],[94.553,29.229],[94.583,29.262],[94.619,29.284],[94.656,29.306],[94.697,29.315],[94.729,29.289],[94.749,29.251],[94.773,29.218],[94.798,29.184],[94.838,29.177],[94.884,29.179],[94.921,29.157],[94.961,29.16],[94.998,29.137],[95.042,29.151],[95.085,29.143],[95.117,29.116],[95.15,29.09],[95.193,29.102],[95.233,29.095],[95.269,29.071],[95.283,29.11],[95.312,29.139],[95.353,29.135],[95.396,29.129],[95.418,29.165],[95.456,29.14],[95.5,29.129],[95.508,29.169],[95.541,29.195],[95.579,29.182],[95.596,29.22],[95.636,29.223],[95.688,29.224],[95.735,29.218],[95.74,29.259],[95.741,29.303],[95.777,29.323],[95.812,29.348],[95.845,29.32],[95.887,29.327],[95.926,29.344],[95.962,29.373],[96.012,29.366],[96.054,29.383],[96.091,29.366],[96.132,29.348],[96.149,29.311],[96.178,29.283],[96.215,29.266],[96.252,29.249],[96.268,29.212],[96.302,29.19],[96.298,29.15],[96.266,29.121],[96.223,29.113],[96.214,29.073],[96.185,29.046],[96.224,29.054],[96.247,29.087],[96.286,29.098],[96.324,29.116],[96.35,29.086],[96.362,29.047],[96.399,29.03],[96.433,29.01],[96.436,28.97],[96.459,28.937],[96.498,28.946],[96.527,28.919],[96.525,28.879],[96.551,28.848],[96.58,28.82],[96.579,28.78],[96.609,28.753],[96.631,28.719],[96.641,28.681],[96.602,28.675],[96.567,28.695],[96.545,28.662],[96.526,28.627],[96.516,28.588],[96.478,28.574],[96.467,28.536],[96.429,28.519],[96.454,28.486],[96.488,28.465],[96.505,28.502],[96.493,28.54],[96.529,28.558],[96.561,28.583],[96.596,28.602],[96.631,28.622],[96.665,28.601],[96.705,28.601],[96.736,28.575],[96.752,28.538],[96.782,28.512],[96.822,28.503],[96.858,28.484],[96.87,28.445],[96.891,28.411],[96.909,28.375],[96.939,28.348],[96.976,28.33],[97.018,28.329],[97.05,28.352],[97.087,28.369],[97.126,28.362],[97.157,28.335],[97.193,28.317],[97.228,28.298],[97.249,28.264],[97.281,28.24],[97.316,28.221],[97.355,28.208],[97.359,28.165],[97.326,28.14],[97.325,28.1],[97.316,28.059],[97.359,28.063],[97.378,28.023],[97.376,27.982],[97.367,27.939],[97.379,27.892],[97.332,27.885],[97.298,27.916],[97.259,27.902],[97.226,27.874],[97.191,27.847],[97.165,27.816],[97.131,27.794],[97.099,27.768],[97.065,27.746],[97.024,27.742],[97.003,27.708],[96.982,27.673],[96.942,27.663],[96.918,27.631],[96.892,27.6],[96.909,27.561],[96.926,27.524],[96.91,27.487],[96.914,27.446],[96.938,27.414],[96.966,27.386],[96.981,27.347],[97.005,27.314],[97.037,27.289],[97.065,27.259],[97.091,27.227],[97.115,27.194],[97.143,27.165],[97.161,27.129],[97.14,27.094],[97.102,27.109],[97.064,27.092],[97.034,27.118],[96.998,27.14],[96.963,27.161],[96.923,27.165],[96.885,27.177],[96.856,27.208],[96.887,27.234],[96.858,27.262],[96.839,27.297],[96.809,27.326],[96.777,27.351],[96.738,27.358],[96.697,27.358],[96.657,27.362],[96.616,27.366],[96.59,27.336],[96.553,27.319],[96.526,27.289],[96.486,27.297],[96.446,27.302],[96.408,27.289],[96.368,27.29],[96.327,27.289],[96.287,27.287],[96.25,27.273],[96.211,27.263],[96.172,27.248],[96.133,27.239],[96.095,27.224],[96.059,27.202],[96.025,27.18],[96.01,27.143],[95.983,27.111],[95.957,27.08],[95.935,27.047],[95.897,27.029],[95.859,27.012],[95.818,27.011],[95.783,26.99],[95.759,26.955],[95.747,26.917],[95.725,26.884],[95.686,26.895],[95.646,26.884],[95.627,26.848],[95.607,26.813],[95.567,26.818],[95.526,26.824],[95.504,26.791],[95.484,26.755],[95.45,26.731],[95.427,26.698],[95.388,26.685],[95.35,26.673],[95.311,26.66],[95.27,26.657],[95.238,26.682],[95.212,26.651],[95.174,26.638],[95.148,26.607],[95.141,26.567],[95.108,26.542],[95.099,26.503],[95.073,26.473],[95.093,26.436],[95.1,26.396],[95.131,26.371],[95.123,26.331],[95.126,26.291],[95.125,26.25],[95.14,26.213],[95.125,26.175],[95.122,26.135],[95.128,26.096],[95.168,26.089],[95.164,26.049],[95.145,26.014],[95.117,25.985],[95.092,25.953],[95.054,25.938],[95.025,25.911],[95.01,25.871],[95.029,25.835],[95.05,25.799],[95.048,25.759],[95.015,25.732],[94.986,25.704],[94.955,25.68],[94.926,25.651],[94.915,25.612],[94.882,25.59],[94.851,25.563],[94.823,25.534],[94.808,25.495],[94.769,25.481],[94.729,25.476],[94.69,25.466],[94.673,25.429],[94.644,25.401],[94.633,25.362],[94.616,25.326],[94.597,25.289],[94.588,25.25],[94.582,25.211],[94.61,25.182],[94.648,25.168],[94.686,25.152],[94.724,25.137],[94.74,25.098],[94.744,25.056],[94.733,25.017],[94.706,24.986],[94.707,24.946],[94.693,24.907],[94.668,24.875],[94.64,24.846],[94.63,24.805],[94.627,24.765],[94.609,24.729],[94.572,24.711],[94.544,24.665],[94.521,24.614],[94.476,24.581],[94.442,24.53],[94.426,24.481],[94.408,24.44],[94.379,24.402],[94.361,24.351],[94.322,24.329],[94.322,24.277],[94.303,24.236],[94.284,24.2],[94.26,24.165],[94.253,24.111],[94.248,24.069],[94.23,24.024],[94.202,23.983],[94.19,23.933],[94.166,23.893],[94.157,23.848],[94.118,23.837],[94.105,23.875],[94.068,23.89],[94.035,23.913],[93.995,23.924],[93.955,23.932],[93.919,23.951],[93.88,23.942],[93.841,23.932],[93.8,23.933],[93.777,23.967],[93.759,24.003],[93.718,24],[93.677,24.006],[93.636,24.011],[93.608,23.981],[93.568,23.978],[93.533,23.958],[93.493,23.953],[93.461,23.978],[93.445,24.014],[93.425,24.049],[93.403,24.083],[93.364,24.092],[93.338,24.061],[93.338,24.021],[93.333,23.981],[93.354,23.945],[93.391,23.929],[93.389,23.889],[93.385,23.849],[93.402,23.813],[93.395,23.772],[93.406,23.733],[93.421,23.696],[93.424,23.656],[93.422,23.616],[93.422,23.576],[93.416,23.536],[93.395,23.501],[93.393,23.46],[93.388,23.42],[93.395,23.381],[93.364,23.356],[93.371,23.316],[93.369,23.276],[93.378,23.235],[93.378,23.194],[93.369,23.154],[93.355,23.116],[93.341,23.077],[93.327,23.039],[93.297,23.011],[93.256,23.008],[93.218,23.024],[93.188,23.052],[93.146,23.054],[93.125,23.019],[93.139,22.981],[93.146,22.942],[93.129,22.904],[93.119,22.865],[93.107,22.827],[93.097,22.788],[93.107,22.747],[93.092,22.709],[93.099,22.669],[93.117,22.632],[93.138,22.597],[93.115,22.563],[93.127,22.525],[93.134,22.485],[93.161,22.452],[93.182,22.416],[93.184,22.375],[93.192,22.336],[93.198,22.296],[93.198,22.255],[93.158,22.249],[93.153,22.209],[93.132,22.175],[93.1,22.199],[93.061,22.204],[93.048,22.165],[93.054,22.125],[93.021,22.102],[93.001,22.067],[92.998,22.027],[93.002,21.983],[92.97,22.007],[92.931,22.017],[92.916,21.98],[92.904,21.941],[92.898,21.982],[92.878,22.016],[92.864,22.054],[92.829,22.074],[92.796,22.097],[92.763,22.119],[92.73,22.142],[92.692,22.127],[92.691,22.085],[92.685,22.045],[92.657,22.016],[92.632,21.983],[92.599,22.007],[92.598,22.047],[92.585,22.085],[92.569,22.122],[92.609,22.13],[92.607,22.172],[92.593,22.209],[92.591,22.249],[92.583,22.289],[92.576,22.328],[92.568,22.367],[92.555,22.405],[92.55,22.445],[92.545,22.485],[92.543,22.525],[92.523,22.559],[92.536,22.597],[92.527,22.636],[92.523,22.676],[92.518,22.716],[92.49,22.746],[92.473,22.782],[92.458,22.819],[92.46,22.859],[92.447,22.897],[92.41,22.915],[92.376,22.935],[92.378,22.975],[92.38,23.016],[92.392,23.054],[92.372,23.088],[92.365,23.128],[92.361,23.168],[92.353,23.207],[92.384,23.236],[92.389,23.276],[92.376,23.315],[92.381,23.354],[92.356,23.386],[92.347,23.426],[92.325,23.459],[92.32,23.499],[92.307,23.537],[92.308,23.577],[92.288,23.612],[92.275,23.65],[92.29,23.687],[92.268,23.721],[92.24,23.693],[92.226,23.655],[92.21,23.692],[92.177,23.714],[92.137,23.719],[92.109,23.69],[92.08,23.662],[92.042,23.649],[92.007,23.667],[91.989,23.703],[91.962,23.734],[91.957,23.694],[91.941,23.657],[91.95,23.618],[91.955,23.578],[91.963,23.539],[91.969,23.499],[91.946,23.466],[91.916,23.439],[91.879,23.424],[91.845,23.401],[91.828,23.365],[91.802,23.334],[91.768,23.312],[91.766,23.272],[91.785,23.237],[91.795,23.198],[91.806,23.159],[91.813,23.119],[91.816,23.079],[91.776,23.07],[91.781,23.031],[91.745,23.011],[91.713,22.988],[91.674,22.978],[91.637,22.963],[91.599,22.976],[91.557,22.979],[91.548,23.019],[91.529,23.055],[91.519,23.094],[91.505,23.132],[91.498,23.172],[91.484,23.209],[91.46,23.242],[91.421,23.262],[91.398,23.229],[91.381,23.192],[91.39,23.151],[91.403,23.113],[91.414,23.074],[91.37,23.071],[91.347,23.104],[91.335,23.143],[91.324,23.182],[91.324,23.224],[91.314,23.265],[91.313,23.307],[91.311,23.349],[91.281,23.376],[91.275,23.416],[91.254,23.45],[91.249,23.49],[91.216,23.514],[91.194,23.547],[91.178,23.584],[91.159,23.62],[91.159,23.66],[91.197,23.646],[91.207,23.685],[91.166,23.689],[91.154,23.728],[91.188,23.751],[91.227,23.76],[91.232,23.8],[91.252,23.835],[91.237,23.875],[91.246,23.915],[91.266,23.949],[91.299,23.972],[91.335,23.989],[91.373,23.976],[91.387,24.021],[91.388,24.063],[91.375,24.101],[91.412,24.116],[91.449,24.101],[91.489,24.095],[91.529,24.08],[91.569,24.075],[91.603,24.096],[91.642,24.116],[91.647,24.157],[91.659,24.195],[91.686,24.165],[91.723,24.15],[91.763,24.142],[91.754,24.184],[91.748,24.228],[91.787,24.223],[91.826,24.213],[91.854,24.185],[91.878,24.153],[91.915,24.179],[91.926,24.219],[91.939,24.263],[91.93,24.304],[91.94,24.343],[91.978,24.329],[91.979,24.369],[92.016,24.384],[92.056,24.375],[92.096,24.373],[92.127,24.398],[92.159,24.423],[92.159,24.463],[92.153,24.502],[92.188,24.521],[92.228,24.527],[92.233,24.572],[92.242,24.611],[92.249,24.65],[92.261,24.689],[92.285,24.72],[92.291,24.761],[92.276,24.798],[92.254,24.832],[92.245,24.871],[92.263,24.908],[92.303,24.914],[92.332,24.886],[92.371,24.875],[92.401,24.849],[92.44,24.858],[92.478,24.872],[92.494,24.909],[92.489,24.948],[92.449,24.94],[92.419,24.967],[92.423,25.007],[92.396,25.036],[92.357,25.049],[92.329,25.077],[92.288,25.077],[92.25,25.088],[92.213,25.108],[92.177,25.127],[92.139,25.142],[92.11,25.17],[92.072,25.184],[92.032,25.183],[91.991,25.178],[91.949,25.178],[91.909,25.181],[91.864,25.175],[91.823,25.177],[91.78,25.166],[91.744,25.15],[91.704,25.158],[91.67,25.138],[91.632,25.125],[91.6,25.15],[91.56,25.158],[91.521,25.146],[91.481,25.137],[91.44,25.15],[91.403,25.166],[91.364,25.178],[91.324,25.181],[91.287,25.196],[91.247,25.197],[91.206,25.201],[91.165,25.197],[91.124,25.194],[91.084,25.196],[91.044,25.188],[91.005,25.18],[90.966,25.172],[90.927,25.162],[90.885,25.166],[90.846,25.158],[90.806,25.166],[90.769,25.183],[90.733,25.165],[90.692,25.161],[90.663,25.189],[90.627,25.172],[90.587,25.175],[90.546,25.174],[90.506,25.171],[90.468,25.156],[90.427,25.149],[90.389,25.161],[90.352,25.175],[90.31,25.189],[90.27,25.198],[90.23,25.204],[90.192,25.215],[90.148,25.224],[90.105,25.23],[90.068,25.249],[90.028,25.266],[89.986,25.28],[89.947,25.294],[89.909,25.308],[89.875,25.286],[89.835,25.295],[89.831,25.335],[89.821,25.374],[89.825,25.414],[89.84,25.451],[89.849,25.491],[89.855,25.53],[89.87,25.567],[89.88,25.607],[89.876,25.647],[89.855,25.683],[89.834,25.717],[89.84,25.757],[89.829,25.796],[89.832,25.837],[89.839,25.877],[89.864,25.909],[89.886,25.943],[89.845,25.94],[89.868,25.973],[89.844,26.006],[89.814,26.032],[89.774,26.037],[89.797,26.071],[89.779,26.108],[89.755,26.141],[89.72,26.161],[89.687,26.183],[89.679,26.222],[89.639,26.227],[89.647,26.188],[89.608,26.18],[89.596,26.141],[89.63,26.12],[89.634,26.08],[89.607,26.05],[89.578,26.022],[89.586,25.982],[89.548,25.967],[89.538,26.006],[89.498,26.003],[89.458,26.001],[89.433,26.033],[89.394,26.023],[89.357,26.008],[89.327,26.034],[89.289,26.048],[89.256,26.071],[89.241,26.108],[89.207,26.128],[89.166,26.13],[89.151,26.167],[89.149,26.207],[89.131,26.243],[89.106,26.274],[89.105,26.314],[89.096,26.354],[89.081,26.391],[89.042,26.4],[89.005,26.417],[88.978,26.447],[88.943,26.428],[88.908,26.407],[88.913,26.367],[88.953,26.366],[88.987,26.343],[88.984,26.303],[89.024,26.308],[89.061,26.291],[89.05,26.252],[89.011,26.245],[88.97,26.24],[88.938,26.264],[88.905,26.288],[88.866,26.279],[88.873,26.24],[88.832,26.238],[88.813,26.274],[88.794,26.31],[88.753,26.311],[88.721,26.288],[88.686,26.268],[88.678,26.307],[88.717,26.318],[88.746,26.346],[88.708,26.333],[88.688,26.368],[88.683,26.408],[88.645,26.419],[88.625,26.454],[88.585,26.45],[88.553,26.475],[88.519,26.498],[88.489,26.525],[88.45,26.536],[88.424,26.566],[88.418,26.606],[88.379,26.596],[88.367,26.557],[88.352,26.52],[88.331,26.486],[88.352,26.452],[88.371,26.488],[88.41,26.477],[88.449,26.467],[88.487,26.451],[88.499,26.413],[88.514,26.374],[88.481,26.351],[88.441,26.352],[88.407,26.331],[88.376,26.305],[88.35,26.275],[88.356,26.235],[88.325,26.209],[88.287,26.198],[88.248,26.191],[88.213,26.169],[88.179,26.15],[88.174,26.11],[88.184,26.071],[88.17,26.033],[88.144,26.001],[88.124,25.966],[88.099,25.934],[88.092,25.895],[88.11,25.859],[88.109,25.819],[88.142,25.795],[88.182,25.796],[88.222,25.799],[88.259,25.813],[88.276,25.777],[88.311,25.756],[88.343,25.731],[88.37,25.701],[88.403,25.677],[88.441,25.667],[88.455,25.629],[88.467,25.59],[88.494,25.56],[88.53,25.543],[88.558,25.514],[88.597,25.506],[88.637,25.499],[88.668,25.475],[88.708,25.48],[88.74,25.505],[88.779,25.516],[88.812,25.494],[88.837,25.462],[88.831,25.422],[88.841,25.383],[88.867,25.352],[88.905,25.338],[88.929,25.306],[88.969,25.302],[89.009,25.303],[88.985,25.271],[88.952,25.248],[88.961,25.209],[88.942,25.174],[88.902,25.18],[88.865,25.193],[88.824,25.191],[88.787,25.176],[88.747,25.183],[88.715,25.206],[88.675,25.2],[88.635,25.203],[88.597,25.191],[88.56,25.176],[88.526,25.2],[88.488,25.211],[88.45,25.197],[88.459,25.158],[88.442,25.122],[88.447,25.081],[88.447,25.041],[88.425,25.008],[88.405,24.973],[88.383,24.939],[88.343,24.942],[88.328,24.905],[88.304,24.872],[88.27,24.894],[88.253,24.93],[88.227,24.96],[88.187,24.952],[88.152,24.933],[88.162,24.894],[88.163,24.853],[88.134,24.826],[88.105,24.798],[88.076,24.77],[88.066,24.727],[88.036,24.699],[88.009,24.668],[88.05,24.629],[88.073,24.595],[88.094,24.561],[88.123,24.531],[88.166,24.499],[88.193,24.467],[88.231,24.454],[88.27,24.442],[88.298,24.411],[88.331,24.383],[88.371,24.374],[88.412,24.377],[88.456,24.372],[88.493,24.354],[88.53,24.337],[88.551,24.302],[88.587,24.325],[88.625,24.313],[88.665,24.315],[88.706,24.311],[88.735,24.279],[88.738,24.236],[88.734,24.195],[88.742,24.155],[88.716,24.125],[88.716,24.084],[88.743,24.053],[88.732,24.014],[88.765,23.99],[88.735,23.963],[88.734,23.923],[88.7,23.901],[88.665,23.882],[88.628,23.865],[88.589,23.871],[88.587,23.831],[88.582,23.791],[88.575,23.751],[88.565,23.712],[88.573,23.673],[88.594,23.639],[88.605,23.6],[88.644,23.609],[88.652,23.57],[88.682,23.543],[88.709,23.513],[88.742,23.488],[88.781,23.501],[88.79,23.462],[88.762,23.434],[88.754,23.395],[88.745,23.356],[88.746,23.316],[88.708,23.304],[88.722,23.266],[88.753,23.24],[88.788,23.221],[88.811,23.255],[88.845,23.234],[88.885,23.229],[88.923,23.218],[88.964,23.215],[88.945,23.179],[88.925,23.145],[88.9,23.113],[88.87,23.086],[88.875,23.044],[88.879,23.004],[88.858,22.97],[88.894,22.952],[88.896,22.912],[88.918,22.878],[88.955,22.864],[88.964,22.824],[88.942,22.791],[88.914,22.761],[88.926,22.723],[88.959,22.699],[88.944,22.662],[88.933,22.62],[88.941,22.581],[88.963,22.546],[88.974,22.505],[88.995,22.471],[89,22.432],[88.99,22.393],[88.988,22.352],[89.008,22.317],[89.007,22.277],[89.036,22.248],[89.057,22.212],[89.063,22.171],[89.096,22.149],[89.063,22.124],[89.039,22.091],[89.044,22.049],[89.066,22.014],[89.074,21.974],[89.062,21.933],[89.021,21.932],[89.02,21.975],[88.995,21.942],[89.018,21.907],[89.029,21.867],[89.031,21.825],[89.019,21.781],[89.04,21.743],[89.068,21.715],[89.088,21.679],[89.1,21.637],[89.065,21.613],[89.031,21.637],[89.014,21.599],[88.973,21.609],[88.943,21.64],[88.903,21.648],[88.88,21.683],[88.879,21.726],[88.879,21.766],[88.839,21.777],[88.853,21.737],[88.843,21.691],[88.858,21.653],[88.837,21.619],[88.825,21.658],[88.783,21.66],[88.738,21.669],[88.711,21.702],[88.698,21.743],[88.713,21.78],[88.707,21.822],[88.703,21.862],[88.718,21.9],[88.724,21.941],[88.741,21.977],[88.763,22.011],[88.76,22.052],[88.72,22.054],[88.739,22.014],[88.699,22.009],[88.663,22.026],[88.654,22.066],[88.63,22.034],[88.61,21.995],[88.607,21.952],[88.611,21.911],[88.571,21.907],[88.576,21.858],[88.557,21.819],[88.547,21.859],[88.5,21.874],[88.519,21.91],[88.512,21.95],[88.497,21.912],[88.458,21.896],[88.486,21.867],[88.467,21.825],[88.476,21.782],[88.467,21.735],[88.466,21.691],[88.465,21.651],[88.451,21.612],[88.427,21.645],[88.42,21.687],[88.416,21.647],[88.41,21.604],[88.385,21.641],[88.38,21.681],[88.403,21.718],[88.365,21.731],[88.373,21.691],[88.343,21.72],[88.303,21.727],[88.301,21.685],[88.298,21.642],[88.286,21.603],[88.299,21.563],[88.259,21.557],[88.231,21.596],[88.235,21.636],[88.217,21.673],[88.215,21.713],[88.216,21.761],[88.205,21.805],[88.184,21.84],[88.167,21.882],[88.176,21.926],[88.158,21.962],[88.191,21.992],[88.211,22.029],[88.223,22.071],[88.217,22.114],[88.203,22.157],[88.181,22.191],[88.141,22.199],[88.097,22.208],[88.056,22.224],[88.016,22.211],[88.054,22.198],[88.095,22.19],[88.137,22.181],[88.164,22.147],[88.189,22.114],[88.171,22.079],[88.134,22.055],[88.101,22.031],[88.062,22.015],[88.04,21.98],[88.023,21.943],[88,21.9],[87.981,21.865],[87.952,21.829],[87.919,21.801],[87.88,21.81],[87.874,21.765],[87.837,21.729],[87.8,21.704],[87.758,21.695],[87.726,21.668],[87.686,21.655],[87.642,21.649],[87.599,21.639],[87.559,21.632],[87.521,21.62],[87.482,21.609],[87.44,21.597],[87.402,21.58],[87.357,21.58],[87.317,21.556],[87.26,21.555],[87.22,21.55],[87.18,21.543],[87.144,21.521],[87.102,21.525],[87.079,21.475],[87.039,21.478],[87.024,21.437],[86.967,21.39],[86.94,21.357],[86.912,21.327],[86.888,21.292],[86.865,21.258],[86.846,21.221],[86.829,21.184],[86.83,21.141],[86.84,21.099],[86.858,21.06],[86.885,21.022],[86.903,20.987],[86.915,20.947],[86.938,20.912],[86.952,20.873],[86.971,20.832],[86.97,20.788],[86.927,20.79],[86.887,20.797],[86.928,20.768],[86.97,20.766],[87.006,20.747],[86.981,20.715],[86.938,20.715],[86.978,20.708],[87.018,20.699],[87.058,20.715],[87.026,20.69],[86.987,20.665],[86.951,20.643],[86.908,20.616],[86.869,20.59],[86.83,20.563],[86.797,20.54],[86.772,20.507],[86.734,20.534],[86.762,20.504],[86.729,20.48],[86.731,20.435],[86.721,20.396],[86.761,20.392],[86.779,20.356],[86.754,20.32],[86.717,20.303],[86.678,20.294],[86.724,20.294],[86.768,20.324],[86.799,20.357],[86.773,20.321],[86.737,20.297],[86.698,20.278],[86.663,20.254],[86.615,20.231],[86.576,20.21],[86.535,20.195],[86.516,20.154],[86.496,20.119],[86.473,20.086],[86.44,20.057],[86.432,20.014],[86.4,19.988],[86.356,19.98],[86.315,19.988],[86.351,19.963],[86.312,19.943],[86.274,19.925],[86.238,19.906],[86.193,19.887],[86.155,19.875],[86.116,19.865],[86.077,19.855],[86.036,19.845],[85.993,19.837],[85.953,19.829],[85.913,19.821],[85.875,19.808],[85.836,19.795],[85.797,19.783],[85.757,19.77],[85.717,19.755],[85.678,19.743],[85.64,19.725],[85.595,19.719],[85.555,19.7],[85.527,19.67],[85.488,19.65],[85.448,19.633],[85.409,19.616],[85.369,19.595],[85.333,19.573],[85.299,19.552],[85.263,19.528],[85.23,19.505],[85.193,19.477],[85.158,19.454],[85.124,19.428],[85.095,19.4],[85.067,19.371],[85.029,19.343],[84.994,19.32],[84.96,19.295],[84.925,19.266],[84.893,19.24],[84.842,19.191],[84.815,19.157],[84.796,19.118],[84.756,19.115],[84.741,19.076],[84.775,19.105],[84.758,19.062],[84.734,19.03],[84.71,18.994],[84.684,18.961],[84.655,18.933],[84.609,18.888],[84.585,18.854],[84.561,18.811],[84.54,18.774],[84.506,18.75],[84.471,18.712],[84.447,18.674],[84.422,18.641],[84.382,18.603],[84.362,18.567],[84.325,18.551],[84.304,18.51],[84.264,18.476],[84.223,18.44],[84.182,18.4],[84.148,18.367],[84.111,18.351],[84.133,18.317],[84.093,18.29],[84.058,18.268],[84.018,18.251],[83.981,18.23],[83.941,18.222],[83.904,18.201],[83.867,18.175],[83.829,18.161],[83.789,18.145],[83.748,18.126],[83.71,18.105],[83.673,18.085],[83.644,18.057],[83.609,18.037],[83.574,18.016],[83.556,17.98],[83.527,17.948],[83.489,17.925],[83.457,17.9],[83.435,17.866],[83.417,17.823],[83.388,17.786],[83.357,17.756],[83.329,17.715],[83.295,17.689],[83.271,17.654],[83.238,17.628],[83.218,17.594],[83.181,17.577],[83.146,17.556],[83.107,17.544],[83.07,17.527],[83.032,17.511],[83.001,17.481],[82.962,17.46],[82.922,17.441],[82.882,17.425],[82.844,17.406],[82.805,17.389],[82.765,17.371],[82.725,17.352],[82.687,17.332],[82.652,17.313],[82.615,17.29],[82.579,17.27],[82.546,17.247],[82.503,17.218],[82.471,17.193],[82.44,17.167],[82.406,17.137],[82.347,17.078],[82.306,17.038],[82.287,17],[82.274,16.962],[82.249,16.926],[82.25,16.879],[82.288,16.865],[82.329,16.855],[82.357,16.825],[82.365,16.87],[82.364,16.912],[82.36,16.952],[82.332,16.982],[82.364,16.956],[82.37,16.915],[82.37,16.873],[82.365,16.833],[82.357,16.792],[82.342,16.755],[82.312,16.727],[82.276,16.708],[82.317,16.703],[82.356,16.713],[82.336,16.677],[82.322,16.638],[82.31,16.599],[82.288,16.634],[82.264,16.667],[82.282,16.63],[82.299,16.591],[82.268,16.565],[82.234,16.543],[82.196,16.523],[82.156,16.502],[82.118,16.484],[82.076,16.464],[82.041,16.444],[82,16.422],[81.963,16.397],[81.922,16.39],[81.882,16.381],[81.842,16.366],[81.802,16.347],[81.766,16.328],[81.726,16.311],[81.725,16.358],[81.713,16.318],[81.67,16.327],[81.63,16.334],[81.585,16.34],[81.541,16.35],[81.477,16.353],[81.437,16.349],[81.393,16.339],[81.354,16.325],[81.313,16.305],[81.279,16.281],[81.247,16.252],[81.224,16.218],[81.207,16.178],[81.188,16.143],[81.195,16.103],[81.175,16.064],[81.157,16.028],[81.148,15.988],[81.126,15.955],[81.087,15.923],[81.055,15.889],[81.027,15.86],[81,15.825],[81.007,15.783],[80.997,15.741],[80.959,15.759],[80.954,15.718],[80.912,15.745],[80.888,15.712],[80.845,15.703],[80.833,15.742],[80.805,15.771],[80.785,15.808],[80.782,15.852],[80.795,15.809],[80.797,15.851],[80.758,15.87],[80.709,15.879],[80.661,15.88],[80.619,15.874],[80.577,15.864],[80.536,15.849],[80.497,15.836],[80.458,15.818],[80.421,15.798],[80.379,15.774],[80.342,15.743],[80.311,15.716],[80.28,15.681],[80.25,15.652],[80.242,15.611],[80.23,15.573],[80.217,15.533],[80.2,15.496],[80.196,15.456],[80.165,15.421],[80.138,15.387],[80.115,15.352],[80.098,15.313],[80.085,15.273],[80.088,15.232],[80.085,15.191],[80.069,15.154],[80.055,15.113],[80.049,15.073],[80.051,15.029],[80.06,14.989],[80.068,14.943],[80.08,14.903],[80.09,14.858],[80.093,14.817],[80.102,14.777],[80.12,14.741],[80.14,14.704],[80.155,14.661],[80.169,14.623],[80.172,14.581],[80.188,14.543],[80.181,14.493],[80.177,14.453],[80.175,14.407],[80.171,14.361],[80.16,14.321],[80.144,14.282],[80.121,14.248],[80.131,14.208],[80.129,14.167],[80.131,14.119],[80.142,14.074],[80.15,14.034],[80.167,13.995],[80.184,13.958],[80.198,13.92],[80.216,13.883],[80.232,13.846],[80.25,13.805],[80.25,13.763],[80.239,13.723],[80.235,13.678],[80.239,13.637],[80.255,13.597],[80.275,13.552],[80.288,13.513],[80.305,13.476],[80.316,13.435],[80.327,13.393],[80.327,13.434],[80.333,13.394],[80.343,13.355],[80.347,13.31],[80.344,13.27],[80.328,13.233],[80.321,13.192],[80.307,13.152],[80.297,13.109],[80.288,13.067],[80.28,13.016],[80.268,12.976],[80.26,12.928],[80.254,12.887],[80.25,12.839],[80.234,12.797],[80.249,12.758],[80.235,12.718],[80.222,12.678],[80.206,12.639],[80.194,12.599],[80.181,12.558],[80.167,12.521],[80.16,12.481],[80.146,12.443],[80.115,12.403],[80.085,12.367],[80.06,12.334],[80.036,12.302],[80.015,12.266],[79.983,12.243],[79.974,12.198],[79.949,12.158],[79.924,12.123],[79.903,12.089],[79.88,12.053],[79.862,12.015],[79.848,11.976],[79.837,11.935],[79.828,11.896],[79.815,11.853],[79.805,11.813],[79.796,11.774],[79.788,11.733],[79.77,11.697],[79.769,11.657],[79.762,11.616],[79.756,11.574],[79.761,11.533],[79.77,11.49],[79.8,11.456],[79.815,11.417],[79.823,11.377],[79.779,11.385],[79.814,11.359],[79.836,11.323],[79.84,11.28],[79.85,11.235],[79.857,11.185],[79.86,11.142],[79.86,11.098],[79.858,11.052],[79.857,11.01],[79.854,10.956],[79.854,10.903],[79.852,10.837],[79.85,10.794],[79.85,10.744],[79.854,10.69],[79.855,10.648],[79.855,10.607],[79.858,10.555],[79.861,10.511],[79.864,10.469],[79.866,10.429],[79.868,10.381],[79.875,10.337],[79.873,10.295],[79.832,10.275],[79.801,10.302],[79.761,10.315],[79.711,10.326],[79.671,10.332],[79.637,10.355],[79.602,10.33],[79.562,10.314],[79.597,10.333],[79.559,10.351],[79.521,10.33],[79.482,10.34],[79.523,10.317],[79.48,10.314],[79.422,10.319],[79.382,10.315],[79.353,10.287],[79.315,10.272],[79.276,10.243],[79.266,10.201],[79.24,10.17],[79.24,10.13],[79.236,10.085],[79.257,10.05],[79.225,10.006],[79.198,9.97],[79.166,9.938],[79.138,9.903],[79.122,9.866],[79.098,9.831],[79.067,9.79],[79.035,9.762],[79.01,9.727],[78.985,9.694],[78.97,9.653],[78.945,9.615],[78.93,9.577],[78.926,9.532],[78.918,9.491],[78.917,9.443],[78.946,9.403],[78.978,9.369],[78.999,9.335],[78.959,9.342],[79,9.333],[79.038,9.312],[79.077,9.295],[79.12,9.29],[79.165,9.284],[79.125,9.269],[79.08,9.259],[79.039,9.264],[78.994,9.27],[78.954,9.269],[78.915,9.252],[78.874,9.255],[78.836,9.243],[78.798,9.228],[78.76,9.214],[78.721,9.199],[78.682,9.192],[78.646,9.172],[78.616,9.145],[78.578,9.129],[78.533,9.133],[78.491,9.124],[78.45,9.119],[78.412,9.106],[78.372,9.077],[78.34,9.05],[78.308,9.025],[78.273,9.001],[78.236,8.98],[78.206,8.952],[78.185,8.916],[78.17,8.876],[78.166,8.832],[78.163,8.792],[78.16,8.752],[78.198,8.772],[78.17,8.743],[78.149,8.703],[78.133,8.666],[78.128,8.622],[78.115,8.58],[78.127,8.541],[78.131,8.498],[78.105,8.467],[78.079,8.433],[78.062,8.396],[78.037,8.361],[77.997,8.344],[77.96,8.317],[77.925,8.295],[77.892,8.271],[77.854,8.255],[77.814,8.244],[77.785,8.215],[77.754,8.18],[77.711,8.165],[77.669,8.159],[77.629,8.153],[77.584,8.137],[77.56,8.103],[77.525,8.079],[77.485,8.086],[77.445,8.094],[77.405,8.106],[77.366,8.118],[77.324,8.123],[77.292,8.151],[77.253,8.17],[77.222,8.195],[77.183,8.217],[77.143,8.255],[77.105,8.283],[77.07,8.311],[77.036,8.337],[77.004,8.363],[76.972,8.388],[76.96,8.427],[76.929,8.457],[76.9,8.49],[76.874,8.521],[76.849,8.554],[76.821,8.586],[76.791,8.624],[76.766,8.656],[76.74,8.688],[76.707,8.727],[76.685,8.762],[76.66,8.796],[76.635,8.83],[76.607,8.86],[76.57,8.875],[76.544,8.907],[76.582,8.921],[76.6,8.961],[76.639,8.95],[76.661,8.984],[76.62,8.981],[76.579,8.974],[76.542,8.957],[76.522,8.993],[76.509,9.033],[76.491,9.072],[76.471,9.113],[76.481,9.153],[76.453,9.182],[76.441,9.225],[76.444,9.182],[76.46,9.141],[76.441,9.181],[76.425,9.219],[76.405,9.256],[76.389,9.298],[76.371,9.337],[76.355,9.374],[76.338,9.418],[76.324,9.458],[76.315,9.501],[76.309,9.544],[76.304,9.589],[76.296,9.629],[76.292,9.672],[76.288,9.713],[76.283,9.755],[76.273,9.798],[76.265,9.846],[76.256,9.885],[76.248,9.924],[76.236,9.964],[76.265,9.936],[76.28,9.973],[76.272,10.013],[76.232,10.019],[76.242,9.979],[76.215,10.013],[76.202,10.052],[76.188,10.09],[76.187,10.132],[76.17,10.17],[76.203,10.192],[76.162,10.187],[76.145,10.224],[76.136,10.269],[76.124,10.309],[76.111,10.347],[76.095,10.391],[76.077,10.428],[76.056,10.472],[76.045,10.51],[76.047,10.551],[76.01,10.569],[75.995,10.608],[75.976,10.645],[75.959,10.685],[75.943,10.722],[75.93,10.761],[75.945,10.798],[75.913,10.823],[75.916,10.782],[75.904,10.823],[75.896,10.863],[75.887,10.91],[75.879,10.949],[75.865,10.988],[75.855,11.029],[75.847,11.071],[75.833,11.108],[75.815,11.146],[75.797,11.182],[75.783,11.221],[75.768,11.258],[75.753,11.298],[75.735,11.342],[75.722,11.381],[75.703,11.417],[75.677,11.448],[75.64,11.464],[75.616,11.497],[75.601,11.536],[75.594,11.576],[75.57,11.617],[75.556,11.655],[75.536,11.692],[75.511,11.727],[75.481,11.755],[75.465,11.792],[75.428,11.81],[75.402,11.84],[75.36,11.857],[75.337,11.892],[75.314,11.926],[75.31,11.966],[75.283,11.995],[75.302,11.958],[75.27,11.982],[75.241,12.012],[75.201,12.004],[75.185,12.042],[75.168,12.079],[75.149,12.124],[75.135,12.162],[75.125,12.202],[75.105,12.238],[75.089,12.277],[75.073,12.316],[75.055,12.354],[75.029,12.393],[75.01,12.429],[74.993,12.467],[74.972,12.507],[74.955,12.548],[74.937,12.589],[74.92,12.632],[74.904,12.668],[74.889,12.706],[74.87,12.742],[74.855,12.78],[74.836,12.821],[74.83,12.864],[74.82,12.905],[74.824,12.865],[74.81,12.904],[74.801,12.949],[74.79,13],[74.78,13.049],[74.781,13.09],[74.763,13.126],[74.752,13.168],[74.74,13.207],[74.731,13.248],[74.718,13.302],[74.695,13.343],[74.694,13.384],[74.692,13.43],[74.688,13.47],[74.684,13.51],[74.68,13.553],[74.672,13.599],[74.686,13.638],[74.68,13.679],[74.669,13.638],[74.646,13.677],[74.64,13.717],[74.631,13.757],[74.626,13.797],[74.615,13.837],[74.6,13.874],[74.588,13.913],[74.56,13.943],[74.527,13.973],[74.51,14.009],[74.499,14.051],[74.487,14.09],[74.48,14.131],[74.472,14.172],[74.451,14.208],[74.435,14.251],[74.479,14.248],[74.442,14.272],[74.416,14.305],[74.409,14.346],[74.401,14.386],[74.385,14.424],[74.374,14.463],[74.355,14.499],[74.371,14.536],[74.337,14.515],[74.306,14.556],[74.292,14.594],[74.334,14.603],[74.293,14.598],[74.283,14.638],[74.275,14.685],[74.256,14.722],[74.217,14.734],[74.177,14.745],[74.141,14.772],[74.102,14.79],[74.123,14.83],[74.164,14.837],[74.122,14.845],[74.098,14.881],[74.064,14.905],[74.041,14.939],[74.034,14.98],[74.009,15.015],[73.986,15.048],[73.953,15.072],[73.914,15.082],[73.937,15.118],[73.955,15.153],[73.937,15.189],[73.928,15.23],[73.915,15.268],[73.905,15.311],[73.888,15.347],[73.848,15.358],[73.811,15.375],[73.785,15.408],[73.826,15.403],[73.868,15.402],[73.85,15.45],[73.806,15.453],[73.818,15.493],[73.778,15.489],[73.763,15.527],[73.742,15.564],[73.735,15.604],[73.765,15.63],[73.725,15.628],[73.709,15.666],[73.695,15.703],[73.666,15.735],[73.659,15.778],[73.639,15.813],[73.626,15.854],[73.601,15.887],[73.57,15.914],[73.538,15.94],[73.509,15.968],[73.492,16.005],[73.476,16.043],[73.46,16.081],[73.467,16.124],[73.448,16.162],[73.447,16.202],[73.423,16.234],[73.414,16.273],[73.394,16.311],[73.39,16.351],[73.425,16.37],[73.386,16.359],[73.406,16.395],[73.447,16.408],[73.406,16.408],[73.367,16.397],[73.359,16.438],[73.342,16.474],[73.325,16.513],[73.321,16.555],[73.35,16.525],[73.36,16.485],[73.404,16.506],[73.444,16.5],[73.4,16.51],[73.359,16.529],[73.393,16.55],[73.355,16.563],[73.323,16.589],[73.355,16.614],[73.39,16.593],[73.391,16.635],[73.349,16.62],[73.333,16.66],[73.319,16.7],[73.305,16.741],[73.31,16.783],[73.331,16.819],[73.294,16.833],[73.289,16.879],[73.286,16.92],[73.293,16.96],[73.33,16.945],[73.307,16.979],[73.285,17.013],[73.257,17.044],[73.288,17.016],[73.325,17.032],[73.284,17.041],[73.307,17.075],[73.288,17.11],[73.266,17.144],[73.255,17.183],[73.245,17.223],[73.224,17.259],[73.2,17.292],[73.243,17.283],[73.284,17.28],[73.245,17.294],[73.221,17.327],[73.215,17.367],[73.18,17.386],[73.191,17.426],[73.191,17.472],[73.179,17.514],[73.148,17.541],[73.176,17.575],[73.216,17.587],[73.176,17.582],[73.143,17.605],[73.135,17.652],[73.116,17.687],[73.132,17.728],[73.118,17.765],[73.098,17.804],[73.126,17.833],[73.087,17.846],[73.072,17.885],[73.055,17.924],[73.092,17.939],[73.047,17.93],[73.034,17.967],[73.072,17.985],[73.031,17.99],[73.004,18.02],[73.035,18.047],[72.995,18.05],[72.994,18.092],[72.973,18.13],[72.987,18.171],[72.967,18.206],[72.941,18.237],[72.936,18.277],[72.974,18.262],[73.01,18.243],[73.049,18.229],[73.059,18.185],[73.089,18.145],[73.067,18.185],[73.081,18.222],[73.069,18.263],[73.045,18.296],[73.085,18.307],[73.043,18.302],[73.031,18.263],[72.993,18.276],[72.969,18.308],[72.945,18.341],[72.915,18.369],[72.907,18.41],[72.9,18.451],[72.903,18.491],[72.906,18.535],[72.949,18.538],[72.973,18.504],[73,18.474],[72.98,18.511],[72.957,18.545],[72.917,18.563],[72.9,18.599],[72.893,18.639],[72.865,18.67],[72.862,18.71],[72.865,18.75],[72.864,18.792],[72.902,18.803],[72.939,18.825],[72.968,18.793],[72.986,18.757],[73.007,18.718],[72.99,18.756],[72.98,18.797],[72.987,18.839],[72.947,18.844],[72.917,18.872],[72.923,18.911],[72.963,18.915],[72.978,18.954],[73.012,18.976],[73.043,19.002],[73.003,19.003],[72.998,19.045],[72.994,19.087],[72.987,19.127],[72.986,19.167],[72.966,19.132],[72.955,19.093],[72.961,19.052],[72.935,19.022],[72.903,18.995],[72.863,19.002],[72.85,18.962],[72.84,18.922],[72.812,18.891],[72.823,18.932],[72.802,18.97],[72.817,19.012],[72.836,19.047],[72.835,19.087],[72.819,19.125],[72.829,19.165],[72.799,19.138],[72.796,19.191],[72.821,19.223],[72.792,19.192],[72.78,19.231],[72.782,19.271],[72.792,19.31],[72.834,19.31],[72.875,19.307],[72.912,19.287],[72.885,19.32],[72.854,19.35],[72.82,19.325],[72.785,19.346],[72.759,19.38],[72.76,19.42],[72.745,19.46],[72.775,19.486],[72.822,19.492],[72.853,19.521],[72.812,19.509],[72.772,19.508],[72.732,19.527],[72.72,19.568],[72.748,19.599],[72.724,19.632],[72.709,19.672],[72.709,19.712],[72.689,19.749],[72.69,19.79],[72.665,19.824],[72.68,19.863],[72.677,19.909],[72.687,19.948],[72.722,19.968],[72.72,20.009],[72.712,20.053],[72.729,20.094],[72.738,20.133],[72.743,20.173],[72.763,20.214],[72.744,20.25],[72.754,20.29],[72.775,20.329],[72.811,20.355],[72.826,20.392],[72.828,20.435],[72.855,20.465],[72.882,20.496],[72.889,20.536],[72.898,20.578],[72.893,20.62],[72.89,20.66],[72.865,20.695],[72.85,20.733],[72.892,20.738],[72.93,20.759],[72.891,20.744],[72.85,20.759],[72.85,20.801],[72.819,20.841],[72.801,20.882],[72.783,20.919],[72.824,20.915],[72.851,20.947],[72.811,20.955],[72.771,20.938],[72.744,20.97],[72.734,21.01],[72.727,21.052],[72.767,21.046],[72.808,21.043],[72.848,21.032],[72.803,21.045],[72.816,21.089],[72.782,21.068],[72.738,21.08],[72.704,21.102],[72.719,21.14],[72.759,21.151],[72.789,21.18],[72.749,21.175],[72.721,21.144],[72.68,21.159],[72.661,21.12],[72.656,21.08],[72.625,21.107],[72.646,21.141],[72.621,21.179],[72.65,21.211],[72.69,21.204],[72.731,21.201],[72.693,21.22],[72.65,21.23],[72.621,21.259],[72.639,21.298],[72.598,21.293],[72.63,21.318],[72.66,21.345],[72.647,21.385],[72.67,21.418],[72.698,21.447],[72.735,21.463],[72.695,21.468],[72.658,21.45],[72.675,21.493],[72.707,21.529],[72.744,21.565],[72.773,21.593],[72.814,21.607],[72.836,21.642],[72.868,21.667],[72.909,21.666],[72.869,21.69],[72.825,21.67],[72.784,21.664],[72.747,21.689],[72.708,21.68],[72.668,21.685],[72.626,21.682],[72.58,21.671],[72.542,21.66],[72.527,21.711],[72.552,21.744],[72.562,21.783],[72.579,21.82],[72.598,21.858],[72.616,21.893],[72.644,21.925],[72.674,21.954],[72.712,21.936],[72.748,21.964],[72.706,21.963],[72.654,21.962],[72.614,21.949],[72.577,21.925],[72.543,21.899],[72.51,21.924],[72.516,21.966],[72.518,22.007],[72.521,22.048],[72.531,22.087],[72.541,22.127],[72.557,22.167],[72.586,22.205],[72.628,22.216],[72.667,22.205],[72.702,22.184],[72.743,22.175],[72.778,22.198],[72.807,22.226],[72.83,22.259],[72.868,22.235],[72.908,22.254],[72.875,22.279],[72.832,22.279],[72.793,22.255],[72.76,22.232],[72.719,22.24],[72.679,22.265],[72.632,22.283],[72.592,22.29],[72.554,22.304],[72.519,22.274],[72.48,22.258],[72.45,22.231],[72.412,22.209],[72.413,22.249],[72.398,22.291],[72.38,22.337],[72.35,22.311],[72.338,22.268],[72.316,22.234],[72.295,22.2],[72.305,22.154],[72.302,22.114],[72.28,22.081],[72.253,22.044],[72.224,22.015],[72.185,22.022],[72.227,22.01],[72.237,21.968],[72.245,21.927],[72.213,21.953],[72.173,21.954],[72.212,21.95],[72.241,21.922],[72.257,21.885],[72.256,21.845],[72.242,21.806],[72.22,21.843],[72.178,21.827],[72.208,21.8],[72.232,21.767],[72.236,21.727],[72.262,21.695],[72.287,21.662],[72.306,21.627],[72.28,21.596],[72.264,21.554],[72.257,21.514],[72.244,21.474],[72.22,21.434],[72.191,21.404],[72.158,21.366],[72.129,21.334],[72.095,21.312],[72.105,21.272],[72.086,21.233],[72.111,21.201],[72.074,21.18],[72.037,21.162],[72.007,21.135],[71.961,21.124],[71.912,21.112],[71.878,21.088],[71.84,21.073],[71.8,21.058],[71.76,21.053],[71.742,21.017],[71.698,21.007],[71.658,20.996],[71.625,20.973],[71.584,20.959],[71.545,20.948],[71.583,20.985],[71.546,20.958],[71.507,20.945],[71.488,20.909],[71.461,20.879],[71.413,20.865],[71.372,20.868],[71.334,20.845],[71.294,20.83],[71.252,20.811],[71.209,20.805],[71.177,20.78],[71.137,20.77],[71.091,20.756],[71.057,20.732],[71.013,20.738],[70.972,20.728],[70.938,20.705],[70.898,20.697],[70.857,20.706],[70.813,20.697],[70.775,20.715],[70.735,20.725],[70.695,20.744],[70.653,20.759],[70.614,20.771],[70.578,20.79],[70.536,20.807],[70.495,20.827],[70.458,20.847],[70.422,20.87],[70.386,20.895],[70.349,20.911],[70.314,20.933],[70.281,20.956],[70.245,20.986],[70.212,21.012],[70.169,21.045],[70.136,21.074],[70.103,21.105],[70.052,21.15],[70.019,21.186],[69.983,21.223],[69.951,21.258],[69.922,21.291],[69.889,21.328],[69.862,21.358],[69.835,21.389],[69.81,21.42],[69.781,21.451],[69.753,21.483],[69.725,21.513],[69.688,21.549],[69.65,21.587],[69.612,21.627],[69.574,21.643],[69.542,21.67],[69.512,21.698],[69.481,21.727],[69.449,21.755],[69.411,21.787],[69.383,21.817],[69.39,21.857],[69.355,21.835],[69.317,21.866],[69.275,21.9],[69.247,21.929],[69.218,21.959],[69.182,21.997],[69.146,22.036],[69.113,22.072],[69.086,22.103],[69.052,22.133],[69.022,22.167],[68.989,22.2],[68.967,22.235],[68.95,22.274],[68.935,22.313],[68.959,22.35],[68.973,22.394],[68.998,22.428],[69.032,22.454],[69.068,22.479],[69.054,22.44],[69.04,22.403],[69.077,22.388],[69.112,22.41],[69.152,22.402],[69.187,22.42],[69.18,22.38],[69.164,22.342],[69.166,22.297],[69.197,22.27],[69.239,22.26],[69.283,22.27],[69.32,22.292],[69.342,22.325],[69.387,22.32],[69.427,22.32],[69.469,22.329],[69.497,22.367],[69.515,22.402],[69.555,22.388],[69.589,22.366],[69.571,22.33],[69.607,22.347],[69.651,22.348],[69.66,22.388],[69.699,22.398],[69.704,22.438],[69.726,22.472],[69.744,22.434],[69.785,22.41],[69.823,22.422],[69.856,22.447],[69.896,22.465],[69.919,22.499],[69.959,22.504],[69.982,22.539],[70.022,22.547],[70.062,22.553],[70.102,22.551],[70.143,22.546],[70.178,22.567],[70.201,22.603],[70.228,22.634],[70.257,22.665],[70.266,22.707],[70.295,22.734],[70.317,22.773],[70.328,22.814],[70.342,22.853],[70.361,22.895],[70.396,22.916],[70.423,22.946],[70.402,22.982],[70.392,22.94],[70.354,22.925],[70.316,22.937],[70.277,22.951],[70.24,22.975],[70.234,23.016],[70.222,23.055],[70.22,23.013],[70.233,22.97],[70.202,22.944],[70.162,22.942],[70.125,22.959],[70.109,22.92],[70.07,22.912],[70.029,22.912],[69.988,22.901],[69.945,22.908],[69.909,22.882],[69.872,22.866],[69.829,22.853],[69.786,22.853],[69.759,22.819],[69.739,22.781],[69.705,22.757],[69.662,22.756],[69.621,22.758],[69.58,22.762],[69.54,22.782],[69.499,22.783],[69.456,22.775],[69.415,22.798],[69.377,22.814],[69.371,22.854],[69.351,22.819],[69.313,22.83],[69.268,22.822],[69.23,22.835],[69.225,22.876],[69.225,22.835],[69.187,22.85],[69.149,22.864],[69.118,22.89],[69.08,22.908],[69.075,22.948],[69.037,22.93],[69.007,22.961],[68.97,22.978],[68.93,22.99],[68.892,23.011],[68.854,23.032],[68.82,23.054],[68.782,23.074],[68.737,23.1],[68.702,23.125],[68.662,23.145],[68.629,23.172],[68.667,23.149],[68.708,23.13],[68.677,23.158],[68.638,23.177],[68.602,23.204],[68.607,23.244],[68.646,23.255],[68.626,23.29],[68.666,23.299],[68.63,23.321],[68.614,23.358],[68.576,23.347],[68.56,23.385],[68.53,23.419],[68.51,23.455],[68.507,23.495],[68.469,23.481],[68.485,23.524],[68.447,23.537],[68.461,23.575],[68.47,23.62],[68.492,23.654],[68.522,23.683],[68.548,23.714],[68.586,23.735],[68.624,23.762],[68.65,23.795],[68.682,23.821],[68.723,23.828],[68.762,23.841],[68.793,23.87],[68.757,23.851],[68.717,23.855],[68.674,23.856],[68.636,23.84],[68.602,23.817],[68.557,23.782],[68.53,23.752],[68.487,23.76],[68.447,23.74],[68.451,23.785],[68.438,23.823],[68.434,23.783],[68.402,23.752],[68.42,23.717],[68.405,23.675],[68.398,23.634],[68.364,23.612],[68.339,23.58],[68.293,23.572],[68.275,23.609],[68.256,23.569],[68.209,23.577],[68.178,23.603],[68.189,23.644],[68.229,23.639],[68.269,23.657],[68.302,23.692],[68.33,23.723],[68.289,23.727],[68.266,23.694],[68.223,23.695],[68.192,23.723],[68.211,23.76],[68.21,23.802],[68.232,23.836],[68.266,23.859],[68.291,23.893],[68.329,23.913],[68.346,23.955],[68.384,23.97],[68.426,23.97],[68.474,23.97],[68.519,23.971],[68.56,23.971],[68.605,23.971],[68.645,23.971],[68.695,23.971],[68.738,23.971],[68.756,24.009],[68.759,24.063],[68.762,24.114],[68.764,24.155],[68.765,24.207],[68.769,24.25],[68.765,24.292],[68.802,24.311],[68.838,24.292],[68.845,24.252],[68.866,24.212],[68.891,24.244],[68.91,24.282],[68.945,24.303],[68.969,24.269],[68.985,24.228],[69.027,24.232],[69.063,24.255],[69.102,24.272],[69.141,24.257],[69.18,24.242],[69.223,24.248],[69.262,24.262],[69.302,24.277],[69.344,24.275],[69.385,24.27],[69.429,24.277],[69.47,24.271],[69.513,24.27],[69.554,24.28],[69.594,24.292],[69.624,24.266],[69.655,24.239],[69.685,24.212],[69.718,24.183],[69.761,24.171],[69.803,24.171],[69.846,24.171],[69.888,24.171],[69.93,24.171],[69.972,24.171],[70.015,24.171],[70.051,24.19],[70.077,24.221],[70.095,24.262],[70.115,24.297],[70.159,24.303],[70.2,24.315],[70.24,24.323],[70.278,24.338],[70.321,24.351],[70.363,24.351],[70.4,24.368],[70.44,24.384],[70.483,24.393],[70.521,24.405],[70.561,24.421],[70.603,24.408],[70.583,24.369],[70.571,24.329],[70.585,24.29],[70.571,24.252],[70.61,24.238],[70.65,24.224],[70.69,24.22],[70.735,24.218],[70.78,24.22],[70.821,24.225],[70.856,24.246],[70.898,24.256],[70.874,24.289],[70.905,24.316],[70.939,24.342],[70.977,24.361],[71.02,24.347],[71.058,24.362],[71.084,24.395],[71.123,24.408],[71.09,24.436],[71.045,24.434],[71.004,24.446],[71,24.486],[71.003,24.529],[70.992,24.568],[70.993,24.609],[71.024,24.641],[71.063,24.655],[71.093,24.684],[71.066,24.717],[71.049,24.755],[71.032,24.794],[71.009,24.835],[70.983,24.876],[70.958,24.909],[70.935,24.948],[70.922,24.988],[70.909,25.041],[70.898,25.098],[70.889,25.147],[70.858,25.176],[70.823,25.21],[70.789,25.242],[70.76,25.27],[70.743,25.31],[70.721,25.346],[70.689,25.373],[70.669,25.41],[70.673,25.452],[70.676,25.493],[70.667,25.535],[70.669,25.579],[70.671,25.623],[70.674,25.664],[70.66,25.702],[70.613,25.715],[70.573,25.701],[70.533,25.685],[70.49,25.684],[70.449,25.682],[70.4,25.675],[70.358,25.68],[70.317,25.695],[70.276,25.711],[70.252,25.756],[70.223,25.792],[70.188,25.821],[70.157,25.854],[70.133,25.889],[70.105,25.93],[70.095,25.974],[70.091,26.018],[70.086,26.063],[70.107,26.113],[70.138,26.152],[70.156,26.189],[70.172,26.234],[70.168,26.278],[70.174,26.327],[70.185,26.371],[70.179,26.415],[70.18,26.455],[70.182,26.498],[70.174,26.551],[70.138,26.572],[70.087,26.593],[70.04,26.598],[70,26.591],[69.957,26.585],[69.91,26.58],[69.861,26.583],[69.811,26.592],[69.768,26.618],[69.728,26.65],[69.691,26.667],[69.64,26.688],[69.588,26.71],[69.543,26.73],[69.502,26.763],[69.484,26.805],[69.493,26.846],[69.5,26.889],[69.507,26.942],[69.512,26.986],[69.522,27.03],[69.541,27.074],[69.557,27.113],[69.574,27.152],[69.594,27.189],[69.628,27.211],[69.66,27.241],[69.69,27.271],[69.722,27.298],[69.757,27.319],[69.794,27.351],[69.827,27.375],[69.862,27.402],[69.89,27.433],[69.915,27.469],[69.949,27.51],[69.983,27.535],[70.024,27.561],[70.045,27.605],[70.064,27.644],[70.085,27.693],[70.1,27.731],[70.118,27.774],[70.138,27.812],[70.174,27.846],[70.207,27.879],[70.237,27.906],[70.274,27.925],[70.31,27.948],[70.34,27.979],[70.372,28.012],[70.422,28.018],[70.464,28.027],[70.505,28.037],[70.55,28.027],[70.589,28.01],[70.618,27.976],[70.657,27.941],[70.678,27.899],[70.684,27.828],[70.716,27.784],[70.739,27.744],[70.773,27.719],[70.82,27.713],[70.864,27.707],[70.906,27.709],[70.944,27.726],[70.983,27.742],[71.022,27.759],[71.062,27.774],[71.099,27.791],[71.136,27.807],[71.204,27.835],[71.247,27.843],[71.293,27.853],[71.333,27.862],[71.377,27.871],[71.419,27.873],[71.46,27.874],[71.506,27.875],[71.549,27.876],[71.598,27.877],[71.639,27.877],[71.68,27.883],[71.719,27.897],[71.759,27.912],[71.803,27.928],[71.841,27.942],[71.879,27.956],[71.903,27.99],[71.911,28.03],[71.918,28.073],[71.926,28.113],[71.95,28.15],[71.976,28.183],[72.002,28.216],[72.034,28.241],[72.07,28.267],[72.106,28.294],[72.143,28.326],[72.178,28.363],[72.206,28.393],[72.22,28.436],[72.241,28.498],[72.257,28.541],[72.27,28.579],[72.285,28.623],[72.297,28.663],[72.322,28.696],[72.349,28.727],[72.379,28.758],[72.412,28.787],[72.453,28.802],[72.49,28.818],[72.529,28.838],[72.568,28.86],[72.606,28.88],[72.648,28.903],[72.687,28.924],[72.726,28.944],[72.763,28.959],[72.804,28.974],[72.841,28.989],[72.881,29.004],[72.923,29.019],[72.954,29.046],[72.971,29.082],[72.99,29.123],[73.01,29.159],[73.038,29.188],[73.069,29.221],[73.097,29.257],[73.118,29.292],[73.139,29.329],[73.16,29.365],[73.183,29.404],[73.204,29.439],[73.225,29.475],[73.251,29.519],[73.274,29.558],[73.29,29.598],[73.303,29.637],[73.316,29.679],[73.329,29.719],[73.341,29.76],[73.354,29.801],[73.366,29.843],[73.382,29.897],[73.394,29.939],[73.438,29.961],[73.482,29.977],[73.521,29.991],[73.559,30.005],[73.597,30.019],[73.637,30.028],[73.678,30.038],[73.718,30.047],[73.758,30.057],[73.799,30.066],[73.83,30.093],[73.864,30.118],[73.9,30.144],[73.938,30.171],[73.973,30.198],[73.966,30.239],[73.955,30.277],[73.934,30.313],[73.905,30.346],[73.916,30.386],[73.946,30.414],[73.974,30.444],[73.932,30.438],[73.932,30.478],[73.971,30.49],[74.003,30.514],[74.039,30.54],[74.078,30.529],[74.092,30.57],[74.102,30.611],[74.14,30.628],[74.172,30.652],[74.205,30.676],[74.224,30.712],[74.262,30.724],[74.265,30.765],[74.303,30.782],[74.314,30.822],[74.341,30.854],[74.381,30.86],[74.387,30.9],[74.424,30.916],[74.442,30.952],[74.478,30.973],[74.519,30.981],[74.542,31.014],[74.562,31.049],[74.605,31.041],[74.645,31.049],[74.684,31.065],[74.697,31.103],[74.664,31.126],[74.622,31.133],[74.607,31.095],[74.569,31.082],[74.548,31.116],[74.511,31.132],[74.511,31.173],[74.526,31.21],[74.533,31.25],[74.533,31.291],[74.537,31.331],[74.555,31.367],[74.587,31.392],[74.614,31.422],[74.655,31.426],[74.648,31.465],[74.615,31.489],[74.576,31.5],[74.608,31.526],[74.609,31.566],[74.58,31.594],[74.552,31.623],[74.539,31.661],[74.512,31.691],[74.503,31.733],[74.542,31.749],[74.555,31.787],[74.571,31.824],[74.593,31.859],[74.622,31.886],[74.658,31.905],[74.692,31.927],[74.731,31.941],[74.773,31.95],[74.811,31.962],[74.829,31.998],[74.861,32.022],[74.888,32.053],[74.926,32.067],[74.969,32.055],[75.006,32.037],[75.046,32.046],[75.083,32.06],[75.121,32.075],[75.161,32.078],[75.197,32.096],[75.24,32.091],[75.274,32.114],[75.287,32.152],[75.322,32.179],[75.331,32.219],[75.372,32.225],[75.373,32.265],[75.343,32.292],[75.327,32.329],[75.295,32.354],[75.259,32.372],[75.225,32.394],[75.195,32.422],[75.154,32.421],[75.119,32.444],[75.089,32.47],[75.051,32.485],[75.016,32.464],[74.976,32.456],[74.937,32.467],[74.896,32.469],[74.862,32.491],[74.822,32.497],[74.785,32.479],[74.744,32.479],[74.707,32.493],[74.691,32.531],[74.673,32.567],[74.647,32.598],[74.655,32.637],[74.691,32.654],[74.663,32.683],[74.663,32.723],[74.676,32.761],[74.692,32.799],[74.705,32.837],[74.667,32.824],[74.657,32.785],[74.635,32.751],[74.596,32.756],[74.556,32.759],[74.517,32.746],[74.484,32.769],[74.451,32.793],[74.413,32.773],[74.372,32.77],[74.341,32.81],[74.294,32.828],[74.251,32.85],[74.213,32.866],[74.173,32.883],[74.132,32.902],[74.093,32.922],[74.053,32.931],[74.002,32.954],[73.972,32.982],[73.948,33.016],[73.904,33.039],[73.857,33.026],[73.816,33.01],[73.776,33.021],[73.749,33.054],[73.711,33.069],[73.667,33.078],[73.629,33.103],[73.657,33.145],[73.67,33.211],[73.627,33.242],[73.618,33.289],[73.608,33.335],[73.576,33.377],[73.602,33.435],[73.626,33.472],[73.616,33.514],[73.626,33.555],[73.608,33.595],[73.579,33.624],[73.577,33.667],[73.601,33.699],[73.599,33.74],[73.577,33.776],[73.573,33.817],[73.588,33.855],[73.593,33.897],[73.565,33.926],[73.542,33.96],[73.519,34],[73.511,34.059],[73.501,34.103],[73.495,34.173],[73.491,34.229],[73.484,34.269],[73.452,34.3],[73.426,34.342],[73.398,34.378],[73.428,34.417],[73.429,34.469],[73.437,34.525],[73.452,34.567],[73.496,34.577],[73.537,34.572],[73.591,34.585],[73.636,34.565],[73.659,34.599],[73.693,34.639],[73.665,34.67],[73.686,34.706],[73.716,34.736],[73.744,34.773],[73.778,34.795],[73.831,34.791],[73.871,34.814],[73.914,34.815],[73.968,34.836],[74.004,34.869],[74.045,34.89],[74.064,34.931],[74.062,34.976],[74.097,35.001],[74.077,35.048],[74.095,35.091],[74.132,35.119],[74.097,35.146],[74.055,35.153],[74.008,35.171],[73.958,35.165],[73.926,35.21],[73.882,35.206],[73.847,35.226],[73.809,35.243],[73.765,35.221],[73.736,35.258],[73.709,35.29],[73.693,35.333],[73.707,35.384],[73.727,35.419],[73.767,35.446],[73.785,35.483],[73.786,35.524],[73.735,35.532],[73.693,35.531],[73.648,35.534],[73.588,35.541],[73.542,35.541],[73.5,35.543],[73.445,35.53],[73.401,35.536],[73.398,35.577],[73.364,35.6],[73.338,35.643],[73.297,35.662],[73.253,35.662],[73.203,35.674],[73.162,35.703],[73.126,35.721],[73.112,35.759],[73.158,35.762],[73.2,35.787],[73.198,35.831],[73.161,35.85],[73.116,35.854],[73.076,35.863],[73.035,35.849],[72.991,35.862],[72.947,35.849],[72.904,35.842],[72.874,35.876],[72.827,35.879],[72.792,35.86],[72.753,35.839],[72.713,35.828],[72.67,35.822],[72.627,35.839],[72.58,35.846],[72.552,35.88],[72.515,35.902],[72.533,35.945],[72.558,35.997],[72.554,36.043],[72.521,36.079],[72.532,36.125],[72.543,36.165],[72.542,36.206],[72.57,36.254],[72.622,36.269],[72.668,36.266],[72.7,36.293],[72.739,36.319],[72.794,36.35],[72.848,36.376],[72.863,36.433],[72.924,36.474],[72.967,36.477],[73.01,36.524],[73.043,36.552],[73.073,36.607],[73.058,36.646],[73.062,36.697],[73.108,36.705],[73.152,36.73],[73.194,36.724],[73.24,36.717],[73.293,36.729],[73.355,36.753],[73.409,36.759],[73.449,36.741],[73.507,36.73],[73.569,36.736],[73.604,36.71],[73.657,36.707],[73.705,36.725],[73.753,36.724],[73.81,36.716],[73.852,36.718],[73.868,36.755],[73.839,36.801],[73.793,36.812],[73.748,36.842],[73.697,36.855],[73.663,36.896],[73.7,36.92],[73.755,36.913],[73.801,36.9],[73.842,36.907],[73.89,36.886],[73.946,36.869],[73.975,36.841],[74.022,36.841],[74.064,36.84],[74.115,36.852],[74.151,36.918],[74.218,36.914],[74.277,36.915],[74.324,36.945],[74.358,36.975],[74.406,36.989],[74.501,37.009],[74.537,36.977],[74.576,37.004],[74.601,37.05],[74.672,37.086],[74.717,37.075],[74.735,37.038],[74.781,37.034],[74.812,37.065],[74.846,37.039],[74.87,36.998],[74.894,36.95],[74.939,36.948],[74.937,36.992],[74.979,37.004],[75.033,37.026],[75.085,37.015],[75.131,37.021],[75.169,36.999],[75.219,36.981],[75.26,36.974],[75.313,36.98],[75.358,36.969],[75.406,36.965],[75.398,36.909],[75.433,36.876],[75.426,36.828],[75.426,36.784],[75.447,36.748],[75.491,36.746],[75.534,36.734],[75.535,36.774],[75.586,36.772],[75.633,36.78],[75.677,36.771],[75.719,36.755],[75.759,36.739],[75.811,36.708],[75.847,36.686],[75.898,36.639],[75.941,36.606],[75.943,36.566],[75.969,36.522],[75.998,36.489],[76.028,36.44],[76.149,36.425],[76.239,36.32],[76.319,36.33],[76.389,36.31],[76.429,36.24],[76.469,36.22],[76.568,36.19],[76.669,36.19],[76.719,36.16],[76.759,36.11],[76.779,36.04],[76.779,35.98],[76.779,35.91],[76.839,35.86],[76.939,35.84],[77.009,35.82],[77.069,35.78],[77.09,35.74],[77.129,35.73],[77.209,35.71],[77.309,35.72],[77.421,35.64],[77.469,35.652],[77.509,35.58],[77.519,35.486]]],[[[93.846,7.245],[93.87,7.21],[93.89,7.172],[93.895,7.121],[93.908,7.08],[93.922,7.041],[93.949,7.011],[93.94,6.971],[93.925,6.932],[93.91,6.893],[93.907,6.85],[93.915,6.81],[93.873,6.818],[93.86,6.778],[93.823,6.761],[93.827,6.802],[93.803,6.835],[93.79,6.873],[93.779,6.913],[93.758,6.948],[93.735,6.982],[93.705,7.013],[93.675,7.04],[93.671,7.08],[93.661,7.122],[93.685,7.155],[93.715,7.19],[93.752,7.205],[93.796,7.212],[93.828,7.24],[93.846,7.245]]],[[[93.736,7.423],[93.758,7.389],[93.76,7.347],[93.739,7.312],[93.699,7.29],[93.676,7.257],[93.65,7.297],[93.648,7.339],[93.672,7.374],[93.709,7.391],[93.721,7.43],[93.736,7.423]]],[[[93.378,8.021],[93.399,7.98],[93.432,7.956],[93.459,7.921],[93.466,7.879],[93.427,7.898],[93.387,7.885],[93.346,7.885],[93.35,7.926],[93.313,7.945],[93.319,7.985],[93.353,8.006],[93.378,8.021]]],[[[93.567,8.026],[93.592,7.992],[93.595,7.948],[93.555,7.954],[93.519,7.983],[93.542,8.019],[93.567,8.026]]],[[[93.598,8.113],[93.605,8.071],[93.585,8.108],[93.598,8.113]]],[[[93.537,8.236],[93.554,8.199],[93.523,8.173],[93.525,8.133],[93.547,8.1],[93.56,8.06],[93.53,8.033],[93.508,7.999],[93.497,8.039],[93.537,8.053],[93.496,8.056],[93.483,8.097],[93.473,8.135],[93.465,8.175],[93.499,8.202],[93.527,8.235],[93.537,8.236]]],[[[73.061,8.278],[73.021,8.268],[73.061,8.29],[73.061,8.278]]],[[[93.131,8.355],[93.138,8.315],[93.134,8.273],[93.161,8.242],[93.199,8.223],[93.163,8.205],[93.127,8.225],[93.097,8.263],[93.091,8.309],[93.107,8.347],[93.131,8.355]]],[[[93.628,8.529],[93.644,8.489],[93.63,8.447],[93.631,8.488],[93.624,8.527],[93.618,8.569],[93.628,8.529]]],[[[92.78,9.247],[92.816,9.218],[92.824,9.174],[92.826,9.134],[92.783,9.117],[92.742,9.12],[92.72,9.165],[92.721,9.207],[92.762,9.215],[92.776,9.255],[92.78,9.247]]],[[[92.549,10.88],[92.589,10.853],[92.593,10.812],[92.596,10.772],[92.62,10.737],[92.62,10.695],[92.598,10.659],[92.57,10.63],[92.548,10.592],[92.567,10.556],[92.54,10.525],[92.503,10.506],[92.462,10.529],[92.421,10.541],[92.404,10.577],[92.416,10.629],[92.386,10.657],[92.388,10.698],[92.385,10.742],[92.385,10.791],[92.423,10.805],[92.452,10.835],[92.487,10.87],[92.52,10.895],[92.549,10.88]]],[[[72.779,11.191],[72.789,11.232],[72.816,11.265],[72.799,11.227],[72.779,11.191]]],[[[92.661,11.494],[92.688,11.463],[92.695,11.423],[92.656,11.406],[92.693,11.386],[92.674,11.349],[92.632,11.345],[92.591,11.355],[92.596,11.396],[92.63,11.417],[92.62,11.458],[92.634,11.497],[92.661,11.494]]],[[[92.233,11.587],[92.273,11.585],[92.282,11.546],[92.248,11.523],[92.221,11.556],[92.233,11.587]]],[[[92.548,11.605],[92.574,11.573],[92.539,11.55],[92.541,11.591],[92.548,11.605]]],[[[93.024,11.848],[93.067,11.842],[93.03,11.827],[93.024,11.848]]],[[[92.975,12.033],[93.015,12.02],[93.024,11.98],[93.049,11.943],[93.06,11.902],[93.021,11.912],[93.013,11.955],[92.972,11.964],[92.937,11.985],[92.959,12.022],[92.975,12.033]]],[[[93.006,12.103],[93.009,12.062],[92.97,12.072],[92.996,12.107],[93.006,12.103]]],[[[92.975,12.147],[92.995,12.112],[92.962,12.14],[92.975,12.147]]],[[[93.032,12.147],[93.041,12.108],[93.059,12.069],[93.018,12.076],[93.013,12.12],[93.03,12.16],[93.032,12.147]]],[[[93.079,12.209],[93.097,12.17],[93.094,12.129],[93.091,12.089],[93.056,12.109],[93.049,12.152],[93.063,12.191],[93.079,12.209]]],[[[92.71,12.227],[92.72,12.187],[92.76,12.179],[92.756,12.138],[92.74,12.099],[92.745,12.058],[92.785,12.049],[92.748,12.031],[92.772,11.998],[92.736,11.98],[92.727,11.94],[92.733,11.9],[92.763,11.931],[92.798,11.909],[92.797,11.868],[92.785,11.828],[92.778,11.787],[92.775,11.745],[92.764,11.699],[92.723,11.7],[92.712,11.66],[92.673,11.648],[92.701,11.618],[92.731,11.649],[92.763,11.619],[92.754,11.579],[92.741,11.541],[92.733,11.502],[92.688,11.506],[92.654,11.528],[92.646,11.569],[92.615,11.597],[92.648,11.622],[92.61,11.643],[92.606,11.686],[92.568,11.701],[92.563,11.742],[92.558,11.783],[92.552,11.824],[92.521,11.849],[92.534,11.887],[92.557,11.922],[92.594,11.901],[92.614,11.858],[92.622,11.899],[92.621,11.943],[92.622,11.984],[92.629,12.026],[92.627,12.067],[92.63,12.107],[92.645,12.146],[92.658,12.186],[92.685,12.217],[92.71,12.227]]],[[[92.74,12.206],[92.775,12.184],[92.734,12.186],[92.73,12.23],[92.74,12.206]]],[[[92.915,12.243],[92.888,12.212],[92.905,12.249],[92.915,12.243]]],[[[93.114,12.238],[93.076,12.225],[93.108,12.253],[93.114,12.238]]],[[[92.717,12.295],[92.728,12.257],[92.714,12.294],[92.717,12.295]]],[[[92.95,12.277],[92.937,12.237],[92.908,12.267],[92.939,12.302],[92.95,12.277]]],[[[92.827,12.303],[92.871,12.3],[92.891,12.262],[92.875,12.226],[92.85,12.193],[92.826,12.16],[92.81,12.122],[92.8,12.08],[92.761,12.071],[92.756,12.117],[92.766,12.157],[92.775,12.201],[92.755,12.239],[92.78,12.272],[92.806,12.303],[92.827,12.303]]],[[[92.97,12.412],[92.95,12.376],[92.942,12.416],[92.97,12.412]]],[[[92.725,12.825],[92.727,12.783],[92.737,12.742],[92.713,12.776],[92.717,12.817],[92.725,12.825]]],[[[92.91,12.911],[92.937,12.88],[92.949,12.841],[92.962,12.795],[92.964,12.755],[92.978,12.715],[92.977,12.672],[92.968,12.629],[92.971,12.585],[92.986,12.547],[92.978,12.504],[92.945,12.476],[92.93,12.437],[92.887,12.444],[92.855,12.47],[92.883,12.441],[92.845,12.425],[92.811,12.457],[92.836,12.425],[92.856,12.388],[92.88,12.356],[92.891,12.317],[92.853,12.304],[92.814,12.314],[92.775,12.302],[92.734,12.301],[92.707,12.333],[92.712,12.373],[92.707,12.416],[92.714,12.456],[92.715,12.497],[92.71,12.538],[92.714,12.583],[92.723,12.625],[92.749,12.658],[92.788,12.647],[92.795,12.689],[92.757,12.669],[92.749,12.71],[92.741,12.751],[92.743,12.792],[92.749,12.832],[92.788,12.825],[92.799,12.866],[92.827,12.895],[92.866,12.877],[92.904,12.895],[92.91,12.911]]],[[[92.711,12.986],[92.721,12.942],[92.734,12.899],[92.72,12.858],[92.698,12.825],[92.682,12.785],[92.666,12.826],[92.668,12.869],[92.679,12.91],[92.674,12.953],[92.697,12.989],[92.711,12.986]]],[[[93.017,12.988],[92.997,12.952],[92.963,12.973],[93,12.989],[93.017,12.988]]],[[[93.049,13.546],[93.052,13.506],[93.044,13.463],[93.022,13.429],[93.053,13.402],[93.07,13.363],[93.096,13.328],[93.055,13.316],[93.026,13.344],[92.985,13.339],[93.003,13.302],[93.036,13.278],[93.073,13.262],[93.056,13.22],[93.044,13.181],[93.049,13.138],[93.043,13.095],[93.036,13.053],[93.003,13.028],[92.965,13.014],[92.945,13.051],[92.95,13.091],[92.941,13.052],[92.911,13.078],[92.895,13.04],[92.915,13.002],[92.946,12.974],[92.915,12.945],[92.908,12.985],[92.884,12.949],[92.867,12.911],[92.828,12.897],[92.807,12.943],[92.805,12.985],[92.837,13.01],[92.795,13.013],[92.803,13.057],[92.815,13.098],[92.842,13.127],[92.818,13.16],[92.831,13.202],[92.846,13.24],[92.829,13.278],[92.833,13.319],[92.843,13.36],[92.877,13.381],[92.881,13.422],[92.879,13.467],[92.909,13.493],[92.941,13.521],[92.977,13.54],[93.01,13.564],[93.048,13.547],[93.049,13.546]]],[[[93.029,13.67],[93.043,13.631],[93.002,13.639],[93.029,13.67]]],[[[88.53,21.56],[88.487,21.556],[88.492,21.596],[88.532,21.581],[88.53,21.56]]],[[[88.845,21.6],[88.884,21.586],[88.851,21.56],[88.832,21.597],[88.845,21.6]]],[[[88.553,21.631],[88.586,21.608],[88.556,21.575],[88.521,21.595],[88.522,21.639],[88.553,21.631]]],[[[88.308,21.706],[88.347,21.686],[88.351,21.645],[88.323,21.613],[88.313,21.653],[88.305,21.699],[88.308,21.706]]],[[[88.727,21.666],[88.765,21.654],[88.782,21.611],[88.751,21.583],[88.71,21.591],[88.721,21.634],[88.698,21.671],[88.727,21.666]]],[[[88.211,21.67],[88.222,21.631],[88.187,21.656],[88.182,21.696],[88.211,21.67]]],[[[88.559,21.73],[88.587,21.701],[88.592,21.66],[88.596,21.62],[88.557,21.635],[88.534,21.67],[88.518,21.708],[88.546,21.737],[88.559,21.73]]],[[[88.545,21.812],[88.563,21.772],[88.561,21.731],[88.523,21.719],[88.504,21.756],[88.522,21.795],[88.545,21.812]]],[[[88.598,21.847],[88.613,21.804],[88.577,21.823],[88.598,21.847]]],[[[88.169,21.786],[88.171,21.746],[88.16,21.704],[88.129,21.678],[88.158,21.649],[88.126,21.624],[88.085,21.633],[88.042,21.65],[88.051,21.689],[88.06,21.729],[88.077,21.766],[88.092,21.803],[88.115,21.845],[88.156,21.838],[88.169,21.8],[88.169,21.786]]],[[[88.646,21.917],[88.653,21.873],[88.649,21.833],[88.642,21.793],[88.621,21.831],[88.598,21.864],[88.625,21.896],[88.646,21.917]]],[[[88.664,22.019],[88.704,22.003],[88.693,21.962],[88.652,21.955],[88.635,21.997],[88.664,22.019]]],[[[88.07,21.922],[88.059,21.969],[88.08,22.009],[88.126,22.02],[88.11,21.973],[88.086,21.938],[88.07,21.922]]]]}}]}