{
"type": "FeatureCollection",
"name": "junctions",
"crs": { "type": "name", "properties": { "name": "urn:ogc:def:crs:OGC:1.3:CRS84" } },
"features": [
{ "type": "Feature", "properties": { "full_id": "n1499032393", "osm_id": "1499032393", "osm_type": "node", "junction": "yes", "historic": null, "building:levels": null, "place": null, "alt_name": null, "name:en": null, "addr:street": null, "name:ml": "pathinonnaam kallu", "name": "11th Stone, Pathinonnam Kallu" }, "geometry": { "type": "Point", "coordinates": [ 76.9979976, 8.6040081 ] } },
{ "type": "Feature", "properties": { "full_id": "n6351686760", "osm_id": "6351686760", "osm_type": "node", "junction": "yes", "historic": null, "building:levels": null, "place": null, "alt_name": null, "name:en": null, "addr:street": null, "name:ml": "Thottumukku", "name": "Thottumukku" }, "geometry": { "type": "Point", "coordinates": [ 76.9909044, 8.5934354 ] } },
{ "type": "Feature", "properties": { "full_id": "n6300501770", "osm_id": "6300501770", "osm_type": "node", "junction": "yes", "historic": null, "building:levels": null, "place": null, "alt_name": null, "name:en": null, "addr:street": null, "name:ml": null, "name": "LIC Junction" }, "geometry": { "type": "Point", "coordinates": [ 76.9984122, 8.6053873 ] } },
{ "type": "Feature", "properties": { "full_id": "n4476502183", "osm_id": "4476502183", "osm_type": "node", "junction": "yes", "historic": null, "building:levels": null, "place": null, "alt_name": null, "name:en": null, "addr:street": null, "name:ml": null, "name": "Sannagar" }, "geometry": { "type": "Point", "coordinates": [ 76.979543, 8.5913162 ] } },
{ "type": "Feature", "properties": { "full_id": "n2889270397", "osm_id": "2889270397", "osm_type": "node", "junction": "yes", "historic": null, "building:levels": null, "place": null, "alt_name": null, "name:en": null, "addr:street": null, "name:ml": "Kallampara", "name": "Kallampara" }, "geometry": { "type": "Point", "coordinates": [ 76.9981239, 8.6094509 ] } },
{ "type": "Feature", "properties": { "full_id": "n245581703", "osm_id": "245581703", "osm_type": "node", "junction": "yes", "historic": null, "building:levels": null, "place": null, "alt_name": null, "name:en": null, "addr:street": null, "name:ml": null, "name": "Market Junction" }, "geometry": { "type": "Point", "coordinates": [ 77.0027942, 8.6033154 ] } },
{ "type": "Feature", "properties": { "full_id": "n7500251192", "osm_id": "7500251192", "osm_type": "node", "junction": "yes", "historic": null, "building:levels": null, "place": null, "alt_name": null, "name:en": null, "addr:street": null, "name:ml": null, "name": "Vencodu" }, "geometry": { "type": "Point", "coordinates": [ 76.9727998, 8.5927045 ] } },
{ "type": "Feature", "properties": { "full_id": "n8571228256", "osm_id": "8571228256", "osm_type": "node", "junction": "yes", "historic": null, "building:levels": null, "place": null, "alt_name": null, "name:en": null, "addr:street": null, "name:ml": null, "name": "Girls High School Junction" }, "geometry": { "type": "Point", "coordinates": [ 77.001152, 8.6053672 ] } },
{ "type": "Feature", "properties": { "full_id": "n2889270402", "osm_id": "2889270402", "osm_type": "node", "junction": "yes", "historic": null, "building:levels": null, "place": null, "alt_name": null, "name:en": null, "addr:street": null, "name:ml": "Vaalikkodu", "name": "Valikkode Junction" }, "geometry": { "type": "Point", "coordinates": [ 76.9959632, 8.6010761 ] } },
{ "type": "Feature", "properties": { "full_id": "n7082002968", "osm_id": "7082002968", "osm_type": "node", "junction": "yes", "historic": null, "building:levels": null, "place": null, "alt_name": null, "name:en": null, "addr:street": null, "name:ml": null, "name": "Palam Junction" }, "geometry": { "type": "Point", "coordinates": [ 77.0198496, 8.6137284 ] } },
{ "type": "Feature", "properties": { "full_id": "n245581720", "osm_id": "245581720", "osm_type": "node", "junction": "yes", "historic": null, "building:levels": null, "place": null, "alt_name": null, "name:en": null, "addr:street": null, "name:ml": null, "name": "Pazhakutty Pump Junction" }, "geometry": { "type": "Point", "coordinates": [ 76.9978272, 8.6115313 ] } },
{ "type": "Feature", "properties": { "full_id": "n1988649620", "osm_id": "1988649620", "osm_type": "node", "junction": "yes", "historic": null, "building:levels": null, "place": null, "alt_name": null, "name:en": null, "addr:street": null, "name:ml": "16-ാം കല്ല് ജംഗ്ഷൻ", "name": "16th stone Junction" }, "geometry": { "type": "Point", "coordinates": [ 77.0318016, 8.6350342 ] } },
{ "type": "Feature", "properties": { "full_id": "n7793508398", "osm_id": "7793508398", "osm_type": "node", "junction": "yes", "historic": null, "building:levels": null, "place": null, "alt_name": null, "name:en": null, "addr:street": null, "name:ml": null, "name": "Chenthupur" }, "geometry": { "type": "Point", "coordinates": [ 76.9672, 8.5947646 ] } },
{ "type": "Feature", "properties": { "full_id": "n3931695632", "osm_id": "3931695632", "osm_type": "node", "junction": "yes", "historic": null, "building:levels": null, "place": null, "alt_name": null, "name:en": null, "addr:street": null, "name:ml": null, "name": "Pazhakutty" }, "geometry": { "type": "Point", "coordinates": [ 76.9971695, 8.6129857 ] } },
{ "type": "Feature", "properties": { "full_id": "n6275841795", "osm_id": "6275841795", "osm_type": "node", "junction": "yes", "historic": null, "building:levels": null, "place": null, "alt_name": null, "name:en": null, "addr:street": null, "name:ml": "Netta", "name": "Netta" }, "geometry": { "type": "Point", "coordinates": [ 76.995305, 8.6071243 ] } },
{ "type": "Feature", "properties": { "full_id": "n7631677938", "osm_id": "7631677938", "osm_type": "node", "junction": "yes", "historic": null, "building:levels": null, "place": "quarter", "alt_name": null, "name:en": null, "addr:street": null, "name:ml": "മന്നൂർക്കോണം", "name": "Manoorkonam" }, "geometry": { "type": "Point", "coordinates": [ 77.0440526, 8.6391866 ] } }
]
}
