{
"type": "FeatureCollection",
"name": "vettyoorkavu market routes",
"crs": { "type": "name", "properties": { "name": "urn:ogc:def:crs:OGC:1.3:CRS84" } },
"features": [
{ "type": "Feature", "properties": { "DIST_KM": 13.869, "DURATION_H": 0.267, "PROFILE": "driving-car", "PREF": "fastest", "OPTIONS": { }, "FROM_ID": null, "TO_ID": null }, "geometry": { "type": "LineString", "coordinates": [ [ 76.98884, 8.525233 ], [ 76.988915, 8.52521 ], [ 76.988965, 8.525342 ], [ 76.98913, 8.5253 ], [ 76.989554, 8.526389 ], [ 76.98971, 8.526971 ], [ 76.989793, 8.52763 ], [ 76.989933, 8.528702 ], [ 76.99016, 8.529852 ], [ 76.990314, 8.530158 ], [ 76.990521, 8.530501 ], [ 76.990624, 8.530784 ], [ 76.990667, 8.530918 ], [ 76.991039, 8.532426 ], [ 76.991156, 8.532906 ], [ 76.991295, 8.533575 ], [ 76.991275, 8.533796 ], [ 76.99121, 8.534174 ], [ 76.991081, 8.534732 ], [ 76.991001, 8.535047 ], [ 76.990884, 8.535444 ], [ 76.990737, 8.536005 ], [ 76.990507, 8.537288 ], [ 76.990463, 8.537528 ], [ 76.990408, 8.537826 ], [ 76.990367, 8.537981 ], [ 76.990331, 8.538216 ], [ 76.990225, 8.538785 ], [ 76.990112, 8.539107 ], [ 76.990052, 8.539227 ], [ 76.990025, 8.539284 ], [ 76.989912, 8.539644 ], [ 76.989798, 8.540008 ], [ 76.989638, 8.540534 ], [ 76.989614, 8.54065 ], [ 76.989564, 8.540805 ], [ 76.989552, 8.540835 ], [ 76.989406, 8.541255 ], [ 76.989371, 8.54133 ], [ 76.989228, 8.54169 ], [ 76.989225, 8.541702 ], [ 76.989164, 8.541819 ], [ 76.988897, 8.542175 ], [ 76.988602, 8.54251 ], [ 76.988433, 8.542721 ], [ 76.988157, 8.543008 ], [ 76.987953, 8.543262 ], [ 76.987724, 8.543618 ], [ 76.987517, 8.543927 ], [ 76.987255, 8.544375 ], [ 76.987154, 8.544552 ], [ 76.987017, 8.545016 ], [ 76.986958, 8.545331 ], [ 76.986933, 8.545593 ], [ 76.986883, 8.545987 ], [ 76.986855, 8.546192 ], [ 76.986855, 8.546471 ], [ 76.98687, 8.546633 ], [ 76.986935, 8.54694 ], [ 76.987001, 8.547123 ], [ 76.987349, 8.547526 ], [ 76.987565, 8.547714 ], [ 76.987656, 8.547782 ], [ 76.987771, 8.548027 ], [ 76.988041, 8.548491 ], [ 76.988267, 8.548949 ], [ 76.988359, 8.549141 ], [ 76.988573, 8.549608 ], [ 76.988699, 8.549875 ], [ 76.988866, 8.550469 ], [ 76.988933, 8.550685 ], [ 76.989257, 8.551208 ], [ 76.989478, 8.551719 ], [ 76.989788, 8.552168 ], [ 76.989905, 8.552274 ], [ 76.990187, 8.552479 ], [ 76.99079, 8.552859 ], [ 76.99096, 8.552921 ], [ 76.991082, 8.552946 ], [ 76.991179, 8.552925 ], [ 76.991258, 8.552864 ], [ 76.99133, 8.552703 ], [ 76.991378, 8.552503 ], [ 76.991392, 8.552274 ], [ 76.991434, 8.552152 ], [ 76.991518, 8.552089 ], [ 76.991636, 8.552042 ], [ 76.991819, 8.552006 ], [ 76.991921, 8.552006 ], [ 76.992069, 8.552006 ], [ 76.992555, 8.552101 ], [ 76.992799, 8.552151 ], [ 76.992984, 8.552221 ], [ 76.993126, 8.552327 ], [ 76.993504, 8.552651 ], [ 76.994126, 8.553132 ], [ 76.994269, 8.553276 ], [ 76.994371, 8.553453 ], [ 76.994419, 8.553556 ], [ 76.994628, 8.553859 ], [ 76.994834, 8.554231 ], [ 76.994945, 8.554427 ], [ 76.994987, 8.554672 ], [ 76.994951, 8.554851 ], [ 76.994885, 8.555171 ], [ 76.994894, 8.555993 ], [ 76.994832, 8.556475 ], [ 76.994826, 8.556766 ], [ 76.994854, 8.556848 ], [ 76.994929, 8.556891 ], [ 76.995028, 8.55692 ], [ 76.995136, 8.556944 ], [ 76.995303, 8.55695 ], [ 76.996716, 8.556795 ], [ 76.996857, 8.556734 ], [ 76.997232, 8.556572 ], [ 76.997641, 8.556528 ], [ 76.998448, 8.556502 ], [ 76.998556, 8.556483 ], [ 76.999137, 8.556376 ], [ 76.999163, 8.556371 ], [ 76.999307, 8.556195 ], [ 76.999472, 8.55607 ], [ 76.99971, 8.556013 ], [ 76.999999, 8.55599 ], [ 77.00025, 8.556036 ], [ 77.000832, 8.55673 ], [ 77.000952, 8.556751 ], [ 77.001122, 8.556745 ], [ 77.001355, 8.55669 ], [ 77.001661, 8.556673 ], [ 77.001805, 8.556695 ], [ 77.002185, 8.556802 ], [ 77.002489, 8.557068 ], [ 77.002689, 8.55736 ], [ 77.002759, 8.557418 ], [ 77.003104, 8.557707 ], [ 77.003177, 8.557807 ], [ 77.003213, 8.55789 ], [ 77.003224, 8.558116 ], [ 77.003169, 8.558555 ], [ 77.002971, 8.559142 ], [ 77.002937, 8.559499 ], [ 77.002967, 8.559662 ], [ 77.002978, 8.55984 ], [ 77.003045, 8.559957 ], [ 77.003136, 8.560063 ], [ 77.003243, 8.560145 ], [ 77.003386, 8.560161 ], [ 77.003844, 8.5601 ], [ 77.00419, 8.560155 ], [ 77.004504, 8.560281 ], [ 77.004868, 8.561043 ], [ 77.004833, 8.561417 ], [ 77.004676, 8.562324 ], [ 77.004573, 8.562578 ], [ 77.004515, 8.562722 ], [ 77.004071, 8.563182 ], [ 77.003752, 8.56383 ], [ 77.003458, 8.564356 ], [ 77.003113, 8.565144 ], [ 77.002877, 8.566447 ], [ 77.002834, 8.566747 ], [ 77.002567, 8.567697 ], [ 77.002064, 8.568342 ], [ 77.001994, 8.568384 ], [ 77.001739, 8.568535 ], [ 77.001637, 8.568548 ], [ 77.001104, 8.56862 ], [ 76.99898, 8.568084 ], [ 76.998017, 8.567863 ], [ 76.99737, 8.568057 ], [ 76.99723, 8.568076 ], [ 76.997133, 8.568042 ], [ 76.996788, 8.567821 ], [ 76.996563, 8.567621 ], [ 76.99642, 8.567576 ], [ 76.996299, 8.56757 ], [ 76.996108, 8.567591 ], [ 76.995867, 8.567667 ], [ 76.995514, 8.5678 ], [ 76.995459, 8.567833 ], [ 76.995329, 8.567912 ], [ 76.994989, 8.568224 ], [ 76.994882, 8.568287 ], [ 76.994769, 8.568307 ], [ 76.994651, 8.568298 ], [ 76.994121, 8.568097 ], [ 76.993999, 8.568091 ], [ 76.993599, 8.568143 ], [ 76.992833, 8.568153 ], [ 76.992633, 8.568185 ], [ 76.991618, 8.56851 ], [ 76.991225, 8.568696 ], [ 76.990872, 8.568895 ], [ 76.99011, 8.569559 ], [ 76.990044, 8.569574 ], [ 76.989938, 8.569597 ], [ 76.9897, 8.569699 ], [ 76.989757, 8.569836 ], [ 76.989884, 8.57014 ], [ 76.989931, 8.570261 ], [ 76.990084, 8.570585 ], [ 76.990134, 8.570733 ], [ 76.990157, 8.570892 ], [ 76.990108, 8.571054 ], [ 76.989947, 8.571224 ], [ 76.989919, 8.571278 ], [ 76.989925, 8.571319 ], [ 76.990559, 8.572489 ], [ 76.990568, 8.572568 ], [ 76.9905, 8.57269 ], [ 76.9904, 8.572745 ], [ 76.990252, 8.572775 ], [ 76.990165, 8.572829 ], [ 76.990119, 8.573021 ], [ 76.990101, 8.573235 ], [ 76.989694, 8.573731 ], [ 76.989273, 8.574427 ], [ 76.989028, 8.574642 ], [ 76.988853, 8.574979 ], [ 76.98869, 8.575248 ], [ 76.988477, 8.575336 ], [ 76.987985, 8.575668 ], [ 76.987952, 8.575709 ], [ 76.987933, 8.575776 ], [ 76.987891, 8.576379 ], [ 76.987846, 8.576685 ], [ 76.987788, 8.577082 ], [ 76.987764, 8.577122 ], [ 76.987719, 8.577148 ], [ 76.987311, 8.577158 ], [ 76.986843, 8.577135 ], [ 76.986662, 8.5771 ], [ 76.986607, 8.577546 ], [ 76.986505, 8.577921 ], [ 76.986251, 8.578454 ], [ 76.986205, 8.578778 ], [ 76.98613, 8.579225 ], [ 76.98603, 8.579802 ], [ 76.985938, 8.580219 ], [ 76.985909, 8.580498 ], [ 76.98592, 8.580879 ], [ 76.985903, 8.580991 ], [ 76.98583, 8.581279 ], [ 76.985519, 8.58199 ], [ 76.985479, 8.582147 ], [ 76.985455, 8.58243 ], [ 76.985489, 8.582693 ], [ 76.985525, 8.582869 ], [ 76.98557, 8.582971 ], [ 76.985694, 8.583069 ], [ 76.985805, 8.583188 ], [ 76.985805, 8.583315 ], [ 76.985745, 8.583719 ], [ 76.985831, 8.583784 ], [ 76.986048, 8.584144 ], [ 76.986435, 8.584377 ], [ 76.986565, 8.584458 ], [ 76.986773, 8.584623 ], [ 76.986974, 8.584818 ], [ 76.987119, 8.585172 ], [ 76.987249, 8.585321 ], [ 76.987437, 8.585604 ], [ 76.987555, 8.585724 ], [ 76.98807, 8.586255 ], [ 76.988305, 8.586667 ], [ 76.988532, 8.587439 ], [ 76.988635, 8.587854 ], [ 76.988842, 8.588403 ], [ 76.989211, 8.589071 ], [ 76.989283, 8.589259 ], [ 76.989375, 8.589497 ], [ 76.989617, 8.589873 ], [ 76.989892, 8.590252 ], [ 76.990171, 8.590618 ], [ 76.990792, 8.591355 ], [ 76.991021, 8.591677 ], [ 76.991081, 8.591847 ], [ 76.991087, 8.592051 ], [ 76.9909, 8.593253 ], [ 76.990901, 8.593313 ], [ 76.990904, 8.593411 ], [ 76.990904, 8.593435 ], [ 76.990941, 8.59366 ], [ 76.991113, 8.594257 ], [ 76.991382, 8.594898 ], [ 76.991586, 8.595232 ], [ 76.991672, 8.595375 ], [ 76.992037, 8.595927 ], [ 76.992328, 8.596345 ], [ 76.9924, 8.596486 ], [ 76.992469, 8.596623 ], [ 76.992645, 8.59697 ], [ 76.992799, 8.597274 ], [ 76.993113, 8.597694 ], [ 76.993208, 8.597838 ], [ 76.99354, 8.598257 ], [ 76.993575, 8.598303 ], [ 76.993738, 8.598566 ], [ 76.993944, 8.599045 ], [ 76.994194, 8.600119 ], [ 76.994258, 8.600297 ], [ 76.994293, 8.600436 ], [ 76.994553, 8.600459 ], [ 76.994721, 8.600526 ], [ 76.99501, 8.600645 ], [ 76.995963, 8.601076 ], [ 76.995963, 8.601484 ], [ 76.995962, 8.601679 ], [ 76.996134, 8.602183 ], [ 76.996295, 8.602437 ], [ 76.996427, 8.602563 ], [ 76.996499, 8.60266 ], [ 76.996547, 8.602779 ], [ 76.996687, 8.603247 ], [ 76.996784, 8.603459 ], [ 76.996872, 8.60357 ], [ 76.996933, 8.603633 ], [ 76.997019, 8.603681 ], [ 76.997169, 8.603707 ], [ 76.997376, 8.603697 ], [ 76.997516, 8.603706 ], [ 76.997683, 8.60378 ], [ 76.997998, 8.604008 ], [ 76.998334, 8.603909 ], [ 76.998872, 8.603716 ], [ 76.999078, 8.603675 ], [ 77.000188, 8.603453 ], [ 77.000339, 8.603438 ], [ 77.000731, 8.603439 ], [ 77.001528, 8.603221 ], [ 77.001744, 8.603206 ], [ 77.002386, 8.603293 ], [ 77.002606, 8.60332 ], [ 77.002794, 8.603315 ], [ 77.003058, 8.60373 ], [ 77.003095, 8.604037 ], [ 77.003024, 8.604698 ], [ 77.002954, 8.605189 ], [ 77.003364, 8.605167 ], [ 77.003991, 8.604924 ], [ 77.004052, 8.605093 ], [ 77.004067, 8.605218 ], [ 77.004058, 8.605379 ], [ 77.004042, 8.605406 ], [ 77.003621, 8.605585 ] ] } }
]
}
