{
"type": "FeatureCollection",
"name": "muncipality boundries",
"crs": { "type": "name", "properties": { "name": "urn:ogc:def:crs:OGC:1.3:CRS84" } },
"features": [
{ "type": "Feature", "properties": { "gml_parent": null, "gml_pare_1": "featureMembers", "gml_id": "Thiruvanathapuram_Editor.fid--715e5034_19246a0be1c_1030", "geom": null, "District": "Thiruvanathapuram", "LSGD": "Nedumangad", "Ward_Name": "KODIPPURAM", "Ward_No": 12, "Lsgd_Type": "Municipality", "Created_Da": "2024-10-18T09:12:40.986", "Surveyor": "Jeevan", "Mob_No": null, "Remarks": null, "_distLsgd": "Thiruvanathapuram_Nedumangad", "OBJECTID": 439, "_result": "Thiruvanathapuram_Nedumangad", "_ulid": "01JBBD70X170A88TT77VY8PM1H", "_distLsgd2": "Thiruvanathapuram_Nedumangad" }, "geometry": { "type": "MultiPolygon", "coordinates": [ [ [ [ 76.986593235699999, 8.588126535800001 ], [ 76.986314895199996, 8.5880743837 ], [ 76.985985077400002, 8.5880148479 ], [ 76.985704435599999, 8.588025801200001 ], [ 76.985355750799997, 8.588184437100001 ], [ 76.984752166899995, 8.5884259296 ], [ 76.984349565, 8.5885896614 ], [ 76.983859511, 8.588769475299999 ], [ 76.983257533499994, 8.5890197017 ], [ 76.982761635399996, 8.5892170457 ], [ 76.982494099600004, 8.5892738932 ], [ 76.982161491799999, 8.589290096 ], [ 76.9817701849, 8.589302028600001 ], [ 76.981307321100005, 8.5895129977 ], [ 76.980939573900002, 8.5898184185 ], [ 76.980768914, 8.589976579 ], [ 76.980552829800004, 8.590257122 ], [ 76.980292256799999, 8.5905254507 ], [ 76.979821648500007, 8.5910540024 ], [ 76.979565824700003, 8.591289009900001 ], [ 76.979384239300003, 8.591502485 ], [ 76.979195246900005, 8.5917849978 ], [ 76.978941575799993, 8.5921436036 ], [ 76.978763139500003, 8.5924672831 ], [ 76.978544729800007, 8.592779076699999 ], [ 76.978305072400005, 8.5930713691 ], [ 76.978144636400003, 8.593275159799999 ], [ 76.978016607599997, 8.593409487400001 ], [ 76.977929118299997, 8.593517586899999 ], [ 76.977803316600003, 8.5935914777 ], [ 76.977710020399996, 8.5936250898 ], [ 76.977627514299996, 8.593666219899999 ], [ 76.977477610600005, 8.5936979583 ], [ 76.977260467799994, 8.593709771 ], [ 76.976990338, 8.593740739899999 ], [ 76.976698223699998, 8.593800488399999 ], [ 76.976452614199999, 8.593810679400001 ], [ 76.976245228899998, 8.593857357699999 ], [ 76.976005418900002, 8.593843783500001 ], [ 76.975838981799996, 8.593851413199999 ], [ 76.975657518299997, 8.5937274949 ], [ 76.975489946799996, 8.593577304 ], [ 76.975320864799997, 8.593436368500001 ], [ 76.975038377900006, 8.593189971099999 ], [ 76.974939702200004, 8.593159031900001 ], [ 76.974829670299997, 8.5931623669 ], [ 76.974685514900003, 8.5931982425 ], [ 76.974536773400004, 8.593191602299999 ], [ 76.9743493223, 8.593174987 ], [ 76.974172444900006, 8.5930935842 ], [ 76.973960419, 8.593027465 ], [ 76.973755163099995, 8.5928845558 ], [ 76.973414141700005, 8.592832040699999 ], [ 76.9730626801, 8.592690492899999 ], [ 76.972846850500005, 8.5926123711 ], [ 76.9726095762, 8.5926067985 ], [ 76.972419644, 8.5926524634 ], [ 76.972233327200001, 8.592793668900001 ], [ 76.971976227900001, 8.592991954 ], [ 76.971976673200004, 8.5929928049 ], [ 76.971953942499994, 8.5930208479 ], [ 76.971951609200005, 8.593018669299999 ], [ 76.971453483800005, 8.5930886472 ], [ 76.971054924599997, 8.59319167 ], [ 76.9707424801, 8.5932535054 ], [ 76.969725566600005, 8.5938945312 ], [ 76.969506968800005, 8.5940499486 ], [ 76.969376093500003, 8.594232258 ], [ 76.969024607899996, 8.594374678 ], [ 76.968605877499996, 8.594586766899999 ], [ 76.96834884, 8.594793194899999 ], [ 76.968137667600004, 8.594877753600001 ], [ 76.967942953700003, 8.5948886751 ], [ 76.967592063799998, 8.594781106799999 ], [ 76.967397951300001, 8.5947624544 ], [ 76.967187177900001, 8.5947538258 ], [ 76.966849241899993, 8.594892077200001 ], [ 76.966395981100007, 8.594962946800001 ], [ 76.965218172799993, 8.5954232563 ], [ 76.965020353300005, 8.5956604469 ], [ 76.964824737200004, 8.595715729 ], [ 76.9646021203, 8.595700947799999 ], [ 76.964138439, 8.5956273797 ], [ 76.963885310799995, 8.5956415776 ], [ 76.963572768, 8.5957818128 ], [ 76.963343032099999, 8.5960435165 ], [ 76.963204332399997, 8.596389869899999 ], [ 76.963117425299998, 8.596837843899999 ], [ 76.963015864, 8.5972707333 ], [ 76.963032640400002, 8.5978435479 ], [ 76.963048908, 8.5981471232 ], [ 76.963024194499994, 8.5983247739 ], [ 76.963025207800001, 8.598304820799999 ], [ 76.962861863599997, 8.598504075099999 ], [ 76.962647995599994, 8.598509012699999 ], [ 76.962349179900002, 8.598439391599999 ], [ 76.962157485500001, 8.598118661399999 ], [ 76.961846958099997, 8.597730933199999 ], [ 76.961613253500005, 8.597609526799999 ], [ 76.961359041099996, 8.5976670224 ], [ 76.961116288900001, 8.597783125599999 ], [ 76.960943276400002, 8.5977880257 ], [ 76.960921485499995, 8.5975186599 ], [ 76.9609777366, 8.5971783469 ], [ 76.961114139800003, 8.597025908 ], [ 76.961051287499998, 8.5967503471 ], [ 76.960769197299996, 8.596270927699999 ], [ 76.960514668499997, 8.5960307427 ], [ 76.960153306, 8.595905995700001 ], [ 76.9600399407, 8.5958111169 ], [ 76.959837860799993, 8.5954722245 ], [ 76.959600977400001, 8.595250202300001 ], [ 76.959287718599995, 8.595240411400001 ], [ 76.959092657799999, 8.5952650331 ], [ 76.958571960599997, 8.595742270400001 ], [ 76.958097171, 8.5960174115 ], [ 76.957856228099999, 8.5959957452 ], [ 76.957651268800007, 8.5958831828 ], [ 76.957182144, 8.595931715300001 ], [ 76.956915848600005, 8.595957761399999 ], [ 76.956683906199999, 8.5960929779 ], [ 76.956357385, 8.596504238 ], [ 76.956357896399993, 8.596529526499999 ], [ 76.956355333199994, 8.5965686486 ], [ 76.956344276300001, 8.5966427368 ], [ 76.956333881500001, 8.5968791802 ], [ 76.956325579, 8.5970562105 ], [ 76.956433085599997, 8.5972884187 ], [ 76.956493622500005, 8.5976331019 ], [ 76.956512184299996, 8.5978944658 ], [ 76.956521510200005, 8.598165592799999 ], [ 76.956542256800006, 8.598509962 ], [ 76.956536457, 8.598825658 ], [ 76.956379324, 8.599126155 ], [ 76.956093606, 8.599425449 ], [ 76.955886446799994, 8.5997544832 ], [ 76.955868729499997, 8.599922217 ], [ 76.955678370300006, 8.600114366 ], [ 76.955554736500005, 8.6002769602 ], [ 76.955583165799993, 8.600669549499999 ], [ 76.955594975099999, 8.6008599652 ], [ 76.955611818700007, 8.601025613 ], [ 76.955630145499995, 8.601267865100001 ], [ 76.955677358100004, 8.6013944452 ], [ 76.955762522300006, 8.6016281258 ], [ 76.955822944299996, 8.6018349205 ], [ 76.955992707199997, 8.602856364399999 ], [ 76.956233785199998, 8.6031422738 ], [ 76.956505003800004, 8.603462095199999 ], [ 76.956722066200001, 8.6037247121 ], [ 76.957242978099998, 8.6042978016 ], [ 76.957582233500005, 8.605151748200001 ], [ 76.957777000099995, 8.605389456399999 ], [ 76.95781713, 8.605576982600001 ], [ 76.958443585099999, 8.6064947331 ], [ 76.958458174699999, 8.6068654584 ], [ 76.958586090400004, 8.6071057652 ], [ 76.958404625599997, 8.6076261064 ], [ 76.958491031299999, 8.6080285497 ], [ 76.958922802199993, 8.6077783218 ], [ 76.958880547099994, 8.6085202069 ], [ 76.95859657, 8.6085199496 ], [ 76.958718656599999, 8.6087869399 ], [ 76.958821574500007, 8.6088154765 ], [ 76.959039162, 8.609392230399999 ], [ 76.959122728, 8.609605805699999 ], [ 76.959997169499999, 8.609561039500001 ], [ 76.960199919600001, 8.6106381491 ], [ 76.960200138800005, 8.610638081699999 ], [ 76.960201547699995, 8.610637648200001 ], [ 76.960203440599997, 8.610647869599999 ], [ 76.9602025473, 8.610648189 ], [ 76.960244052899995, 8.6107956937 ], [ 76.960198929200004, 8.6110030188 ], [ 76.959227125699996, 8.6126216321 ], [ 76.958879809500004, 8.613042070600001 ], [ 76.958653497200004, 8.6136012022 ], [ 76.958711664600003, 8.6143022763 ], [ 76.958644899800007, 8.6144834355 ], [ 76.9580449284, 8.615035136099999 ], [ 76.957996379400001, 8.6152478414 ], [ 76.957762535399993, 8.615488047 ], [ 76.957295154600004, 8.6157236094 ], [ 76.956727152400006, 8.6160819083 ], [ 76.956653180900005, 8.616387660399999 ], [ 76.9566562941, 8.6164762078 ], [ 76.956569212800005, 8.6166334655 ], [ 76.956466667800001, 8.617280189700001 ], [ 76.957056014200006, 8.617501347799999 ], [ 76.957396087, 8.617632481299999 ], [ 76.957525591600003, 8.6176821027 ], [ 76.957796869899994, 8.6180197271 ], [ 76.958166750299995, 8.6184720834 ], [ 76.958176317600007, 8.618714485 ], [ 76.958211469, 8.619693489099999 ], [ 76.958211562935546, 8.619693454581833 ], [ 76.958218285499996, 8.6199151156 ], [ 76.958255806699995, 8.620292863 ], [ 76.958009684199993, 8.620986461099999 ], [ 76.957871774200001, 8.621372254500001 ], [ 76.957757051300007, 8.6218365594 ], [ 76.957877868400004, 8.6220889262 ], [ 76.958052114, 8.6225660814 ], [ 76.958323738299995, 8.623321752700001 ], [ 76.958681609500005, 8.623590363 ], [ 76.959106861699993, 8.6237276791 ], [ 76.959518900199996, 8.623842076400001 ], [ 76.960175526399993, 8.623877879 ], [ 76.960581945499996, 8.623736963700001 ], [ 76.960915782599997, 8.623759898699999 ], [ 76.9613024704, 8.623953758400001 ], [ 76.962073143500007, 8.6249507249 ], [ 76.962471273700004, 8.6253336942 ], [ 76.962722392499998, 8.6254601518 ], [ 76.963090080499995, 8.6256178144 ], [ 76.963353513900003, 8.6257465919 ], [ 76.963595730325963, 8.625856990020521 ], [ 76.963620083199999, 8.625870326399999 ], [ 76.963657277, 8.6258885561 ], [ 76.963659845799995, 8.6260856206 ], [ 76.963624064599998, 8.6262210981 ], [ 76.963594193399999, 8.626453016099999 ], [ 76.963672467699993, 8.6264273862 ], [ 76.963806043100007, 8.626280271700001 ], [ 76.964065565400006, 8.626183580699999 ], [ 76.964498347599999, 8.626035873799999 ], [ 76.964834053700002, 8.6259416163 ], [ 76.965091607800005, 8.6258872029 ], [ 76.965273219899998, 8.6259037344 ], [ 76.965468588600004, 8.626028876399999 ], [ 76.965807470599998, 8.6263041842 ], [ 76.9660114335, 8.626570252 ], [ 76.966254352700005, 8.626757233299999 ], [ 76.966561666, 8.626731270400001 ], [ 76.966742687899995, 8.6265547284 ], [ 76.966685504799997, 8.626253691800001 ], [ 76.966783527199993, 8.625916455900001 ], [ 76.9667889503, 8.6255849048 ], [ 76.966729485, 8.6252176961 ], [ 76.966923522200005, 8.6249269666 ], [ 76.967333168, 8.6249033835 ], [ 76.967609432900005, 8.624698456 ], [ 76.967846725599998, 8.624451368900001 ], [ 76.968641915600003, 8.6243689177 ], [ 76.968642295818469, 8.624368696227279 ], [ 76.968967046499998, 8.624184335100001 ], [ 76.969099272899996, 8.624108804700001 ], [ 76.969104990100007, 8.624105569699999 ], [ 76.96910996, 8.6241027 ], [ 76.969369085699995, 8.6240094232 ], [ 76.971034930900004, 8.623863221300001 ], [ 76.971883309899994, 8.623349641 ], [ 76.972238613100004, 8.6230446222 ], [ 76.972241816199997, 8.6229960995 ], [ 76.972247738600004, 8.623022625100001 ], [ 76.972514078700002, 8.6230427487 ], [ 76.972811956599998, 8.623138581499999 ], [ 76.973145296200002, 8.6231526058 ], [ 76.973459722900003, 8.6233676453 ], [ 76.973814339399993, 8.6236598183 ], [ 76.974164227800003, 8.624038474200001 ], [ 76.974497567300006, 8.624227802 ], [ 76.974882917299993, 8.6243166224 ], [ 76.9752375339, 8.624276886900001 ], [ 76.975530359900006, 8.6244190424 ], [ 76.975682435500005, 8.624533443700001 ], [ 76.975820479500001, 8.6245655974 ], [ 76.976127625700002, 8.624456411600001 ], [ 76.976396810099999, 8.6243779342 ], [ 76.976907570199998, 8.6243745222 ], [ 76.977394172800004, 8.6244325272 ], [ 76.977766889600005, 8.624507592500001 ], [ 76.978080938, 8.624490532199999 ], [ 76.978284551900003, 8.624306281 ], [ 76.978439850499996, 8.6240367281 ], [ 76.978619306799999, 8.6236921097 ], [ 76.978905746600006, 8.623449853 ], [ 76.979199088499996, 8.623248540900001 ], [ 76.979530392399994, 8.623153003 ], [ 76.979734006200005, 8.623156415 ], [ 76.980206804399998, 8.6233236064 ], [ 76.980679602600006, 8.623350903 ], [ 76.980986748899994, 8.623279249499999 ], [ 76.981442291700006, 8.623344078900001 ], [ 76.981749438, 8.623289485800001 ], [ 76.982028975600002, 8.6231734754 ], [ 76.982229138299999, 8.622903921800001 ], [ 76.982401692400003, 8.622549066 ], [ 76.982577697599993, 8.622323869 ], [ 76.982746800599998, 8.6220543147 ], [ 76.982853784100001, 8.6219553644 ], [ 76.9829849252, 8.6217949965 ], [ 76.983150577200007, 8.621450376 ], [ 76.983385250699996, 8.6213138926 ], [ 76.983761418599997, 8.621245650800001 ], [ 76.984023515199993, 8.6211896915 ], [ 76.984246012400007, 8.621082514199999 ], [ 76.984016841, 8.620829973299999 ], [ 76.983868189099994, 8.620712664299999 ], [ 76.983658456900002, 8.620584882899999 ], [ 76.983497049099995, 8.6202285731 ], [ 76.983308201900002, 8.620132186599999 ], [ 76.983332793800002, 8.6200673804 ], [ 76.983446820300003, 8.619978057 ], [ 76.983566061399998, 8.619835096899999 ], [ 76.98371461, 8.619721784 ], [ 76.983851566699997, 8.619653636200001 ], [ 76.984059354699994, 8.6193589022 ], [ 76.984097742, 8.6192933746 ], [ 76.984178678299998, 8.619030153300001 ], [ 76.984267430700001, 8.618869032899999 ], [ 76.984351713400002, 8.618769953899999 ], [ 76.984472121600007, 8.6186933658 ], [ 76.985384468099994, 8.618024722199999 ], [ 76.985834276700004, 8.617699309900001 ], [ 76.986010489500003, 8.617497906700001 ], [ 76.986932617500003, 8.6167355563 ], [ 76.987122477900002, 8.6162524146 ], [ 76.987271876199998, 8.615830819099999 ], [ 76.987608365, 8.615494316099999 ], [ 76.987909962399996, 8.614911151899999 ], [ 76.988174851500006, 8.6146514656 ], [ 76.988325349299998, 8.614541725700001 ], [ 76.989155509900002, 8.614450219 ], [ 76.989831020599993, 8.6143596576 ], [ 76.990625405200007, 8.6143620011 ], [ 76.990624496300001, 8.614385366600001 ], [ 76.990732958500004, 8.6143917372 ], [ 76.990728826600005, 8.614392066100001 ], [ 76.991009574299994, 8.614431956200001 ], [ 76.991213786100005, 8.6144434182 ], [ 76.991565668299998, 8.6144100295 ], [ 76.991858864899996, 8.6143035396 ], [ 76.992235831900004, 8.614294665499999 ], [ 76.992454233499998, 8.6141645112 ], [ 76.993097470899997, 8.613889412200001 ], [ 76.9936928395, 8.613534445499999 ], [ 76.994125153799999, 8.6132896841 ], [ 76.994877650500001, 8.6132532296 ], [ 76.995965985200002, 8.6136354717 ], [ 76.996342841399994, 8.613783229099999 ], [ 76.996412057, 8.6136149253 ], [ 76.996720587200002, 8.613858009299999 ], [ 76.996791964099998, 8.6138379611 ], [ 76.996980376099998, 8.6137515044 ], [ 76.996930436200003, 8.613590396799999 ], [ 76.996892013299998, 8.613305586299999 ], [ 76.996892471500004, 8.613103672699999 ], [ 76.997166799394762, 8.613027710131998 ], [ 76.9972300421, 8.6132581434 ], [ 76.997396537300006, 8.6134725398 ], [ 76.997719476300006, 8.613922846099999 ], [ 76.997878319700007, 8.614195220699999 ], [ 76.997837200700005, 8.614499739699999 ], [ 76.997709303899995, 8.6147246387 ], [ 76.997505004600001, 8.6150425091 ], [ 76.997418926600005, 8.6152213205 ], [ 76.997214562400004, 8.615734721300001 ], [ 76.997138922900007, 8.615950893200001 ], [ 76.997169367, 8.6162656595 ], [ 76.997275407299995, 8.6164946075 ], [ 76.997469051600007, 8.616791145100001 ], [ 76.997566222800003, 8.617098778800001 ], [ 76.997531530800003, 8.617471546100001 ], [ 76.997356847600003, 8.6181765088 ], [ 76.997295613, 8.618589802900001 ], [ 76.997314834, 8.6188091833 ], [ 76.997395987700003, 8.618933998499999 ], [ 76.997793823, 8.6192385488 ], [ 76.998106451599995, 8.6195192263 ], [ 76.998226004, 8.620213153 ], [ 76.998228458400007, 8.6202136505 ], [ 76.998236561900001, 8.620265165499999 ], [ 76.998279299900005, 8.620919492200001 ], [ 76.998329796, 8.6211252911 ], [ 76.998397419400007, 8.6213856432 ], [ 76.998464283800004, 8.6216821138 ], [ 76.998448564499995, 8.621850417699999 ], [ 76.998501101100004, 8.6222489741 ], [ 76.998474359499994, 8.622651923899999 ], [ 76.998413869399997, 8.622921688 ], [ 76.998305556199995, 8.6231483128 ], [ 76.998093357399995, 8.6233908706 ], [ 76.998048207099998, 8.6235103903 ], [ 76.998063816300004, 8.623637180399999 ], [ 76.998193390699996, 8.623827395499999 ], [ 76.998545659800001, 8.6241658613 ], [ 76.998912509700006, 8.624390201700001 ], [ 76.999729915399996, 8.6246237975 ], [ 77.000262042800003, 8.6248093765 ], [ 77.000368727799994, 8.6249500818 ], [ 77.0004065408, 8.625179707299999 ], [ 77.000274395600002, 8.6256708236 ], [ 77.000178275899998, 8.6261867685 ], [ 77.000416041799994, 8.626113797 ], [ 77.000676852500007, 8.6260175225 ], [ 77.000953002299994, 8.625922681400001 ], [ 77.001136065899999, 8.625827037700001 ], [ 77.001452276799995, 8.6255625289 ], [ 77.001849173799997, 8.6255164811 ], [ 77.001927439900001, 8.625560245200001 ], [ 77.002104515100001, 8.6255397934 ], [ 77.002342586300003, 8.625225500599999 ], [ 77.002614406, 8.6250443921 ], [ 77.002914265, 8.624978283900001 ], [ 77.00303882, 8.624848351200001 ], [ 77.003066210499995, 8.624704377700001 ], [ 77.003171867099994, 8.624604168399999 ], [ 77.003232247, 8.624629498099999 ], [ 77.003600598600002, 8.624492528699999 ], [ 77.003710319700005, 8.6244887603 ], [ 77.003858976, 8.6243713672 ], [ 77.004106441299996, 8.624189758 ], [ 77.004271971799994, 8.6241389573 ], [ 77.004460718199994, 8.624142834600001 ], [ 77.004610529399997, 8.624260336700001 ], [ 77.0046594911, 8.6242492978 ], [ 77.005089520400006, 8.624655606299999 ], [ 77.005306812100002, 8.6247504051 ], [ 77.005486054200006, 8.624916690299999 ], [ 77.005566470900007, 8.624858118800001 ], [ 77.005825529199996, 8.6248739308 ], [ 77.005900224499996, 8.624782945 ], [ 77.006327422, 8.624740320500001 ], [ 77.006748113399993, 8.6245125219 ], [ 77.006882144200006, 8.624566675400001 ], [ 77.007331855499999, 8.6244422731 ], [ 77.007487536300005, 8.624455751199999 ], [ 77.007816417100003, 8.624143826099999 ], [ 77.009705687799993, 8.623463903399999 ], [ 77.009709345600001, 8.6234667258 ], [ 77.009785237399996, 8.623431137600001 ], [ 77.009810136799999, 8.623452322 ], [ 77.010601788, 8.624337863099999 ], [ 77.011180543600005, 8.625099716399999 ], [ 77.011305488299996, 8.6253068185 ], [ 77.012739314200005, 8.6247567554 ], [ 77.013744690799996, 8.6244337297 ], [ 77.013972559899997, 8.6243603787 ], [ 77.014108929700001, 8.624317749799999 ], [ 77.014156253, 8.624243285 ], [ 77.014159321245188, 8.624238867047103 ], [ 77.014159511700001, 8.624238977099999 ], [ 77.01416039804144, 8.62423742885249 ], [ 77.014303371300002, 8.624256820499999 ], [ 77.0143779271, 8.6242780559 ], [ 77.014458530599995, 8.6242895631 ], [ 77.014466279499999, 8.6242097044 ], [ 77.014478533599998, 8.6241303151 ], [ 77.014739712799994, 8.624176197400001 ], [ 77.015201546300005, 8.624247716 ], [ 77.015268265299994, 8.624531230900001 ], [ 77.015437402200007, 8.624628125199999 ], [ 77.015580743399994, 8.624755114499999 ], [ 77.015715761500005, 8.6247960201 ], [ 77.015909026399996, 8.624931223500001 ], [ 77.015987066, 8.625084424500001 ], [ 77.016240090699995, 8.625062596499999 ], [ 77.016448551400003, 8.6251995339 ], [ 77.016621613500007, 8.625310991 ], [ 77.01665637780556, 8.625327479745112 ], [ 77.016656375, 8.625327481599999 ], [ 77.016656402799995, 8.6253274916 ], [ 77.017208113699994, 8.625599323699999 ], [ 77.017146746899996, 8.625692944100001 ], [ 77.017201114499997, 8.6257237611 ], [ 77.017373767, 8.6257705446 ], [ 77.017283318500006, 8.626014434 ], [ 77.017216522400005, 8.6262741864 ], [ 77.017200939899993, 8.626462070100001 ], [ 77.017699459400006, 8.626586420700001 ], [ 77.017891390599999, 8.6267559308 ], [ 77.018367702600003, 8.6267916519 ], [ 77.018568496100002, 8.626949591200001 ], [ 77.019040350200001, 8.6272637572 ], [ 77.019352750400003, 8.627295073 ], [ 77.019443436, 8.6271159033 ], [ 77.019736642799998, 8.6271178386 ], [ 77.020194758499997, 8.6271981918 ], [ 77.020472366, 8.6271846463 ], [ 77.0207897385, 8.6270680071 ], [ 77.020995862800007, 8.6269462373 ], [ 77.021051565500002, 8.626910072699999 ], [ 77.021551033500003, 8.626539431299999 ], [ 77.022078692299999, 8.626182414600001 ], [ 77.022202537200002, 8.6261379711 ], [ 77.0224556079, 8.6261947089 ], [ 77.022575655500006, 8.626278834300001 ], [ 77.022693440599994, 8.6262514776 ], [ 77.02271794, 8.626308678 ], [ 77.023296482899994, 8.6269741911 ], [ 77.023640468400004, 8.627267015899999 ], [ 77.023819713699993, 8.627461155 ], [ 77.023835127699996, 8.6279326931 ], [ 77.023658230400002, 8.628899050199999 ], [ 77.0234259498, 8.62970225 ], [ 77.023455190500002, 8.630532129900001 ], [ 77.022906709599994, 8.6314856267 ], [ 77.022101067799994, 8.6323980127 ], [ 77.021382041300001, 8.634184618600001 ], [ 77.021021911299997, 8.6350867972 ], [ 77.021072975, 8.6351708499 ], [ 77.021080477799998, 8.635577835599999 ], [ 77.0218188156, 8.636372679500001 ], [ 77.022071759300005, 8.6368166052 ], [ 77.022161903899999, 8.637196768600001 ], [ 77.022271374499994, 8.637106403400001 ], [ 77.022590933199993, 8.637055483599999 ], [ 77.0228962459, 8.6369475214 ], [ 77.024198863199999, 8.6371978714 ], [ 77.025384545400001, 8.6370689969 ], [ 77.025820485300002, 8.636842039599999 ], [ 77.025876065600002, 8.6368989199 ], [ 77.025875026799994, 8.6369002754 ], [ 77.0269648684, 8.6370683132 ], [ 77.027717189399993, 8.637273288 ], [ 77.031308439100002, 8.6378841576 ], [ 77.031311793699999, 8.637877982899999 ], [ 77.031307268700004, 8.6378972938 ], [ 77.031297195700006, 8.637940281300001 ], [ 77.031515691099997, 8.6391755615 ], [ 77.032089784, 8.640139761 ], [ 77.032539374799995, 8.640816750700001 ], [ 77.032892130700006, 8.6413501357 ], [ 77.033127301299999, 8.641541607 ], [ 77.033438556500002, 8.641609989599999 ], [ 77.033846646599997, 8.6415757983 ], [ 77.035257670099995, 8.6409671927 ], [ 77.035721094500005, 8.640775721100001 ], [ 77.035873263699997, 8.640550057900001 ], [ 77.036253686699993, 8.640392777500001 ], [ 77.036744778200003, 8.6403517478 ], [ 77.036986865499998, 8.640379101 ], [ 77.037360371800006, 8.640577411100001 ], [ 77.037706210799996, 8.640645793799999 ], [ 77.038024382800003, 8.6408782952 ], [ 77.038252636600006, 8.6409193248 ], [ 77.038716061, 8.6408099124 ], [ 77.039144901499995, 8.640734691400001 ], [ 77.039483823799998, 8.640762044500001 ], [ 77.039919581, 8.640659470399999 ], [ 77.040362972400004, 8.640396455 ], [ 77.040358024200003, 8.6403917635 ], [ 77.040871793500003, 8.6398898979 ], [ 77.041422869300007, 8.6395060743 ], [ 77.041716558600001, 8.639340063900001 ], [ 77.042072449700001, 8.6392102346 ], [ 77.042075411100001, 8.639215184599999 ], [ 77.042214166600004, 8.6391827961 ], [ 77.042497156899998, 8.6391978842 ], [ 77.043157245100005, 8.6391371681 ], [ 77.043470876300006, 8.639152729799999 ], [ 77.043821757, 8.639121552400001 ], [ 77.044039248399997, 8.639203656799999 ], [ 77.044090400399995, 8.6391755615 ], [ 77.044287852599993, 8.6386666783 ], [ 77.044593011900005, 8.638065592 ], [ 77.044649348199997, 8.6375360998 ], [ 77.044780254800003, 8.636958507799999 ], [ 77.044837713, 8.6367198631 ], [ 77.045241438399998, 8.636546643 ], [ 77.045786675599999, 8.6360262879 ], [ 77.046487995099994, 8.635613084199999 ], [ 77.047378113700006, 8.6345138158 ], [ 77.048096781799998, 8.63400879 ], [ 77.048885672400004, 8.6335390614 ], [ 77.049149021299996, 8.6332587616 ], [ 77.048692964599994, 8.6325538651 ], [ 77.047482005800006, 8.6319053412 ], [ 77.047507562600003, 8.631645607499999 ], [ 77.047574098200002, 8.631464709699999 ], [ 77.047271431799999, 8.6313341463 ], [ 77.047218870199998, 8.631300146399999 ], [ 77.047300020899996, 8.6308495427 ], [ 77.047051524500006, 8.6307696509 ], [ 77.047042516600001, 8.6307484388 ], [ 77.046921529800002, 8.6306614062 ], [ 77.046684011599993, 8.630382678 ], [ 77.046508831, 8.6301435064 ], [ 77.046342787699999, 8.6298691419 ], [ 77.045979754800001, 8.62970374 ], [ 77.046093299700004, 8.6295348238 ], [ 77.046187130500002, 8.629295193200001 ], [ 77.046255935299996, 8.6289739902 ], [ 77.046304254299997, 8.6288782791 ], [ 77.046270353099999, 8.6287750281 ], [ 77.046267068, 8.6287655263 ], [ 77.046261770399994, 8.628746809600001 ], [ 77.046252734700005, 8.628720984799999 ], [ 77.046233825499996, 8.6286812087 ], [ 77.046012653600002, 8.6282498924 ], [ 77.045996603199995, 8.6282170978 ], [ 77.045986109, 8.6279986882 ], [ 77.045962641399996, 8.6279002345 ], [ 77.045888371499998, 8.6278954608 ], [ 77.045671284799994, 8.627885753499999 ], [ 77.045371505700004, 8.6279154561 ], [ 77.045354031399995, 8.627933258100001 ], [ 77.045144709300004, 8.628124422 ], [ 77.044962416399997, 8.628175853 ], [ 77.044937484100004, 8.6282222479 ], [ 77.044908390100005, 8.6282763871 ], [ 77.044977978399999, 8.6281467343 ], [ 77.0449792868, 8.6281444599 ], [ 77.044658080900007, 8.6281104742 ], [ 77.044604548600006, 8.627867012299999 ], [ 77.044379712899996, 8.6275388678 ], [ 77.043812270499998, 8.627835256399999 ], [ 77.043448250799997, 8.6274965266 ], [ 77.043351892700002, 8.626999016599999 ], [ 77.043223415100002, 8.6267132127 ], [ 77.043212708699997, 8.6265015059 ], [ 77.043480370200001, 8.626141604200001 ], [ 77.043416131399994, 8.6254853119 ], [ 77.043105644099995, 8.6252418484 ], [ 77.042987873, 8.6242679926 ], [ 77.042773743799998, 8.6240668699 ], [ 77.042195594899994, 8.6236328679 ], [ 77.041660271799998, 8.6232941343 ], [ 77.041371197399997, 8.623167109100001 ], [ 77.041039297099999, 8.6225743244 ], [ 77.040835874300001, 8.622277931699999 ], [ 77.040739516200006, 8.6218121712 ], [ 77.040204193099996, 8.6216533891 ], [ 77.039915118699994, 8.6212723118 ], [ 77.039753332199993, 8.6212727823 ], [ 77.039400019, 8.6212621968 ], [ 77.038639860200007, 8.6207011656 ], [ 77.038350785800006, 8.6203306728 ], [ 77.037365791400006, 8.6192615345 ], [ 77.037226607400001, 8.618827527 ], [ 77.036584219700003, 8.6181288797 ], [ 77.035588518799997, 8.6169432935 ], [ 77.035385096100001, 8.616519869 ], [ 77.035513573599999, 8.6150908076 ], [ 77.035352976699997, 8.6146779667 ], [ 77.035342270200005, 8.614095754299999 ], [ 77.035160260400005, 8.613598226700001 ], [ 77.034806947199996, 8.613301826900001 ], [ 77.033896898, 8.6125925837 ], [ 77.033747007599999, 8.612402040499999 ], [ 77.033033894799999, 8.611994194799999 ], [ 77.033090903900003, 8.611919885300001 ], [ 77.033117761300005, 8.6117280101 ], [ 77.033153747100002, 8.6112028982 ], [ 77.033042025, 8.609927429800001 ], [ 77.033219586100003, 8.6091314516 ], [ 77.033582555099997, 8.6082089062 ], [ 77.033667782699993, 8.6079202342 ], [ 77.033655504600006, 8.607584043499999 ], [ 77.033582315499999, 8.607328237300001 ], [ 77.0331330673, 8.6070149552 ], [ 77.032605308, 8.606743658699999 ], [ 77.032194331400007, 8.6065439149 ], [ 77.0316084504, 8.6064552141 ], [ 77.031151091, 8.6063375132 ], [ 77.030906633800001, 8.6060985495 ], [ 77.030616093299997, 8.605497700800001 ], [ 77.030571999, 8.6049849412 ], [ 77.030620571900002, 8.6043508297 ], [ 77.030682208, 8.6041464287 ], [ 77.030750962200003, 8.6040366803 ], [ 77.031096113399997, 8.6036662917 ], [ 77.0310996977, 8.6034899523 ], [ 77.031056719800006, 8.603097869500001 ], [ 77.030589901799999, 8.6027641382 ], [ 77.030194213599998, 8.602662517 ], [ 77.0300275309, 8.602692577599999 ], [ 77.029829278199998, 8.602864348700001 ], [ 77.029820212900006, 8.602858558799999 ], [ 77.029688450099997, 8.6029576491 ], [ 77.029598736500006, 8.6030828046 ], [ 77.029471300400004, 8.6033351831 ], [ 77.029381937799997, 8.603499900499999 ], [ 77.029357734599998, 8.6035197047 ], [ 77.0293592461, 8.6035155632 ], [ 77.028841212100005, 8.6036255214 ], [ 77.028800494199999, 8.603303435100001 ], [ 77.027971901100003, 8.603537082200001 ], [ 77.0270817599, 8.6037563529 ], [ 77.026456558299998, 8.6037561894 ], [ 77.025513564500002, 8.605064072699999 ], [ 77.024746602199997, 8.605003013 ], [ 77.024356921199995, 8.6049125054 ], [ 77.024371766200005, 8.604755984900001 ], [ 77.024319038800002, 8.6047076459 ], [ 77.023813150400002, 8.6046877444 ], [ 77.0231834187, 8.604611264400001 ], [ 77.022743532, 8.604450636499999 ], [ 77.022342354200006, 8.604180104599999 ], [ 77.021915788499996, 8.603920091399999 ], [ 77.021247113200005, 8.6033152141 ], [ 77.021173316299993, 8.603160412299999 ], [ 77.021137070600005, 8.6029472266 ], [ 77.021534429499994, 8.6025005291 ], [ 77.021504360600005, 8.6022017199 ], [ 77.021397492, 8.6013768578 ], [ 77.021144797299996, 8.6007032204 ], [ 77.021474340699996, 8.599883670200001 ], [ 77.021876214399995, 8.59943765 ], [ 77.022420458200003, 8.598883926799999 ], [ 77.022837759699996, 8.5988079763 ], [ 77.022954714299999, 8.5987182621 ], [ 77.0230255946, 8.598603646400001 ], [ 77.022316843900001, 8.5983417802 ], [ 77.021659446499996, 8.5981958949 ], [ 77.021060418299996, 8.5980066666 ], [ 77.020470224899995, 8.597997791899999 ], [ 77.020084136199998, 8.598063188199999 ], [ 77.019594899699996, 8.5982617872 ], [ 77.019378436799997, 8.598413927599999 ], [ 77.019130692499999, 8.5984941876 ], [ 77.018993222899994, 8.5985380461 ], [ 77.018843236600006, 8.598514918199999 ], [ 77.018603963900006, 8.598462869900001 ], [ 77.018064454035951, 8.598378972049803 ], [ 77.018064244032075, 8.598378940313651 ], [ 77.018064324, 8.598378954 ], [ 77.018064089319708, 8.59837891693325 ], [ 77.018063750300001, 8.598378865700001 ], [ 77.018063666543213, 8.598378850157504 ], [ 77.018063433273483, 8.598378813313543 ], [ 77.018061947553662, 8.598378582272915 ], [ 77.018061672265503, 8.59837853886296 ], [ 77.018061279542792, 8.598378479264028 ], [ 77.018061495, 8.5983785121 ], [ 77.018061515346972, 8.598378515299569 ], [ 77.018061424099997, 8.598378502299999 ], [ 77.018061067721945, 8.598378447803556 ], [ 77.018061067302199, 8.598378447739371 ], [ 77.018060876973578, 8.598378418634791 ], [ 77.0180608406, 8.598378413300001 ], [ 77.018060843757965, 8.598378413555542 ], [ 77.018060823903198, 8.598378410519404 ], [ 77.018060818470957, 8.598378408996055 ], [ 77.018060853630658, 8.598378414354441 ], [ 77.018060913071139, 8.598378419146249 ], [ 77.018060913307039, 8.598378419183447 ], [ 77.018060913474557, 8.598378419197005 ], [ 77.018060958, 8.5983784228 ], [ 77.018061018814095, 8.598378432449882 ], [ 77.018061034059414, 8.598378434367911 ], [ 77.018060956088917, 8.598378422052802 ], [ 77.018060756300073, 8.598378391561658 ], [ 77.018060688828072, 8.598378372640683 ], [ 77.018060688700004, 8.598378372199999 ], [ 77.018060588699996, 8.598378352099999 ], [ 77.0180605149, 8.598378347200001 ], [ 77.018060309399999, 8.5983782996 ], [ 77.018060213699997, 8.5983782741 ], [ 77.018060086299997, 8.5983782493 ], [ 77.018029717199994, 8.5983724518 ], [ 77.018017901600004, 8.5983699019 ], [ 77.018008483399996, 8.5983687849 ], [ 77.017986712099997, 8.5983638298 ], [ 77.017979716799999, 8.598362460500001 ], [ 77.0179774896, 8.598362032800001 ], [ 77.017975041499994, 8.5983615486 ], [ 77.017971029400002, 8.5983607163 ], [ 77.017966127799994, 8.5983595806 ], [ 77.017961772800007, 8.598358667699999 ], [ 77.017956851500003, 8.5983575738 ], [ 77.017951527299999, 8.5983564151 ], [ 77.017942248300002, 8.5983543217 ], [ 77.017937590800003, 8.5983533061 ], [ 77.017929394500001, 8.5983514573 ], [ 77.0179286937, 8.5983513142 ], [ 77.017468515900006, 8.5982573797 ], [ 77.0174629614, 8.598257241600001 ], [ 77.017495658499996, 8.598235263899999 ], [ 77.017497701099998, 8.598221806 ], [ 77.017499327400003, 8.5982213119 ], [ 77.017520311699997, 8.5980781185 ], [ 77.017514463799998, 8.598014598400001 ], [ 77.017513487299993, 8.5980149596 ], [ 77.017534947300007, 8.5979006757 ], [ 77.017475617200006, 8.597512950200001 ], [ 77.017340463400004, 8.5974699424 ], [ 77.017123662900005, 8.597367568199999 ], [ 77.016831306200004, 8.5974030663 ], [ 77.016723727799999, 8.5972447999 ], [ 77.016621260199997, 8.5970362207 ], [ 77.016558135500006, 8.596901603399999 ], [ 77.016451150699993, 8.596764606500001 ], [ 77.016399857699994, 8.596674112300001 ], [ 77.016320869400005, 8.596593542800001 ], [ 77.0162439793, 8.596481671699999 ], [ 77.016198649972083, 8.596399836543481 ], [ 77.016207838300005, 8.596392551599999 ], [ 77.016302784100006, 8.5963172739 ], [ 77.016308360899998, 8.596311652100001 ], [ 77.016457995, 8.596160810400001 ], [ 77.01662252, 8.5959975036 ], [ 77.016647512800006, 8.5959709061 ], [ 77.016647527100005, 8.595970920799999 ], [ 77.016667802300006, 8.595958927 ], [ 77.016694092700007, 8.5959993809 ], [ 77.016697371299998, 8.5960044259 ], [ 77.016773489599998, 8.5959440754 ], [ 77.016897677499998, 8.595707554300001 ], [ 77.016598875200003, 8.595148803900001 ], [ 77.016301201299996, 8.5951849926 ], [ 77.016428428799998, 8.594866132 ], [ 77.016346428800006, 8.5944116069 ], [ 77.016110848799997, 8.5943295347 ], [ 77.016015194700003, 8.594071125099999 ], [ 77.015908926199998, 8.5939264923 ], [ 77.016111534499998, 8.593754954 ], [ 77.016027671800003, 8.593628888 ], [ 77.016185468499998, 8.5934202158 ], [ 77.016115848400005, 8.5932210937 ], [ 77.015922089100002, 8.592909673099999 ], [ 77.015781304699999, 8.592727009100001 ], [ 77.0154791442, 8.592363474500001 ], [ 77.0152768544, 8.592422132899999 ], [ 77.014842661399996, 8.5920906178 ], [ 77.014964230299995, 8.591791887399999 ], [ 77.014675022399999, 8.591517855299999 ], [ 77.0143366601, 8.5914351202 ], [ 77.013474646, 8.5919496939 ], [ 77.01279428, 8.5921679217 ], [ 77.012157281399993, 8.5921299017 ], [ 77.011849551400005, 8.592072550599999 ], [ 77.011532772099997, 8.591595203800001 ], [ 77.011073288099993, 8.591214444 ], [ 77.010991400400002, 8.5906137766 ], [ 77.010196302400004, 8.5902891704 ], [ 77.010031120099995, 8.5902465677 ], [ 77.009829959699999, 8.590058921 ], [ 77.009658431199995, 8.5896863202 ], [ 77.009640292200004, 8.5894827306 ], [ 77.009527619400004, 8.5892531805 ], [ 77.008977901500003, 8.589164285600001 ], [ 77.008534510100006, 8.5889749421 ], [ 77.008289609800002, 8.5888139016 ], [ 77.008118081299997, 8.588441299499999 ], [ 77.00767469, 8.588251955700001 ], [ 77.007385695899998, 8.5882429344 ], [ 77.007077909, 8.587893599399999 ], [ 77.006718266500002, 8.5878679356 ], [ 77.006530560399995, 8.5877019125 ], [ 77.006493409, 8.5876823981 ], [ 77.006493409, 8.5876823982 ], [ 77.005966264400001, 8.5872650335 ], [ 77.005677626899995, 8.5870553505 ], [ 77.004768190600004, 8.586737209100001 ], [ 77.004386367, 8.586554336300001 ], [ 77.003950849500001, 8.5863301696 ], [ 77.0036107878, 8.585663567699999 ], [ 77.0030220238, 8.585124975399999 ], [ 77.002665775, 8.5847575371 ], [ 77.002154507499995, 8.5843368971 ], [ 77.001838397499995, 8.5841121829 ], [ 77.001275150799998, 8.5839464409 ], [ 77.000174375499995, 8.583646057299999 ], [ 76.999225782500005, 8.583427788 ], [ 76.997700451900002, 8.583122827 ], [ 76.997704671299999, 8.5831275284 ], [ 76.997489564199995, 8.5830718102 ], [ 76.997030855199995, 8.5829353941 ], [ 76.996648666400006, 8.5828186118 ], [ 76.996361150400006, 8.582821773 ], [ 76.996347801, 8.582820051500001 ], [ 76.996347793400005, 8.582820294499999 ], [ 76.996211730499994, 8.5828208848 ], [ 76.996093369700006, 8.5827918381 ], [ 76.996093780500004, 8.582791119099999 ], [ 76.996093625699999, 8.5827911023 ], [ 76.995923504499999, 8.582770887900001 ], [ 76.995893191299999, 8.5829284424 ], [ 76.995700320599994, 8.582859841699999 ], [ 76.995370243, 8.5827476668 ], [ 76.995414287200006, 8.582634021800001 ], [ 76.995416483499994, 8.5826282563 ], [ 76.995412014799996, 8.582625842900001 ], [ 76.995373779, 8.582605493200001 ], [ 76.995321412500004, 8.582578253499999 ], [ 76.995157670200001, 8.582490522900001 ], [ 76.994932795599993, 8.582253379499999 ], [ 76.994867475800007, 8.582201982300001 ], [ 76.994752853899996, 8.5823934293 ], [ 76.994694296500001, 8.582610954 ], [ 76.994678085700002, 8.582749375900001 ], [ 76.994720637399993, 8.582926990600001 ], [ 76.994851867099996, 8.5831747144 ], [ 76.995030816799996, 8.5833246968 ], [ 76.995277937899999, 8.5834022157 ], [ 76.995523354599996, 8.5834611975 ], [ 76.995732981399996, 8.5834746791 ], [ 76.995738810700004, 8.5834675112 ], [ 76.995445619700007, 8.583925345100001 ], [ 76.994911110100006, 8.5843797752 ], [ 76.994513974399993, 8.5847675221 ], [ 76.994232994399994, 8.585100973 ], [ 76.993865324300003, 8.5854971507 ], [ 76.993385986500002, 8.5860764425 ], [ 76.992898615100003, 8.5864919433 ], [ 76.992227812300001, 8.586936868900001 ], [ 76.992052977399993, 8.5870589094 ], [ 76.992052977399993, 8.5870589095 ], [ 76.991708572199997, 8.5870202718 ], [ 76.991254429600005, 8.5869593786 ], [ 76.990849913700004, 8.5869218803 ], [ 76.990481214300004, 8.5869572953 ], [ 76.990287383799995, 8.587009376199999 ], [ 76.990222071299996, 8.5870197924 ], [ 76.990097767, 8.5868656329 ], [ 76.990009279099993, 8.586773970499999 ], [ 76.989849158200002, 8.586826051399999 ], [ 76.989627938599995, 8.5869239635 ], [ 76.988966386599998, 8.587251031599999 ], [ 76.9885993571, 8.587474032199999 ], [ 76.988601858600006, 8.5874840709 ], [ 76.9881480305, 8.587593264200001 ], [ 76.987811263300003, 8.5875374369 ], [ 76.987335632899999, 8.587608644099999 ], [ 76.987066990499997, 8.587876828600001 ], [ 76.98666969, 8.5880901165 ], [ 76.986593235699999, 8.588126535800001 ] ] ], [ [ [ 77.018060956088917, 8.598378422052802 ], [ 77.018060999927698, 8.598378428743342 ], [ 77.018060918399996, 8.598378416099999 ], [ 77.018060956088917, 8.598378422052802 ] ] ], [ [ [ 77.018061045382325, 8.598378435792458 ], [ 77.018061049559606, 8.598378436318006 ], [ 77.018060999927698, 8.598378428743342 ], [ 77.018061045382325, 8.598378435792458 ] ] ], [ [ [ 77.018061316602228, 8.598378478994345 ], [ 77.018061295343358, 8.598378476329099 ], [ 77.018061018814095, 8.598378432449882 ], [ 77.018060913474557, 8.598378419197005 ], [ 77.018061199504885, 8.598378464313743 ], [ 77.018061097678924, 8.598378451547728 ], [ 77.018060853630658, 8.598378414354441 ], [ 77.018060843757965, 8.598378413555542 ], [ 77.018060876973578, 8.598378418634791 ], [ 77.018060968100002, 8.598378432 ], [ 77.018061093246899, 8.598378450992081 ], [ 77.018061096340801, 8.598378451461606 ], [ 77.018061279542792, 8.598378479264028 ], [ 77.01806110113337, 8.59837845207419 ], [ 77.018061116200002, 8.598378454 ], [ 77.018061394086345, 8.598378494997126 ], [ 77.018061672265503, 8.59837853886296 ], [ 77.018062269139179, 8.598378629443493 ], [ 77.018063433273483, 8.598378813313543 ], [ 77.018063647622114, 8.598378846646373 ], [ 77.018063666543213, 8.598378850157504 ], [ 77.018064089319708, 8.59837891693325 ], [ 77.018064244032075, 8.598378940313651 ], [ 77.018064185144112, 8.598378930235095 ], [ 77.018064454035951, 8.598378972049803 ], [ 77.018066384600004, 8.5983792638 ], [ 77.01806371666332, 8.598378850055546 ], [ 77.018061992100002, 8.5983785549 ], [ 77.018061049559606, 8.598378436318006 ], [ 77.0180629778, 8.5983787306 ], [ 77.018061530368371, 8.598378511004247 ], [ 77.018061045382325, 8.598378435792458 ], [ 77.018061034059414, 8.598378434367911 ], [ 77.018061316602228, 8.598378478994345 ] ] ] ] } }
]
}
