{
"type": "FeatureCollection",
"name": "add road 01 ",
"crs": { "type": "name", "properties": { "name": "urn:ogc:def:crs:OGC:1.3:CRS84" } },
"features": [
{ "type": "Feature", "properties": { "full_id": "w150195564", "osm_id": "150195564", "osm_type": "way", "step_count": null, "informal": null, "sidewalk:left:surface": null, "noexit": null, "wall": null, "crossing_ref": null, "crossing:markings": null, "crossing:island": null, "crossing": null, "proposed": null, "ref:bag": null, "embankment": null, "name:zh": null, "name:etymology:wikidata": null, "opening_date": null, "check_date": null, "culvert": null, "construction": null, "cutting": null, "noname": null, "address": null, "material": null, "height": null, "fence_type": null, "barrier": null, "tracktype": null, "addr:street": null, "wikipedia": null, "wikidata": null, "roof:shape": null, "roof:orientation": null, "addr:place": null, "description": null, "healthcare": null, "playground": null, "narrow": null, "hazard": null, "tunnel": null, "vehicle": null, "bicycle_road": null, "agricultural": null, "substation": null, "ramp": null, "incline": null, "handrail": null, "maxspeed:type": null, "footway": null, "addr:state": null, "addr:country": null, "network": null, "bus": null, "addr:postcode": null, "addr:city": null, "bridge:name:ml": null, "name:ur": null, "width": null, "wheelchair": null, "man_made": null, "ford": null, "trail_visibility": null, "sac_scale": null, "circuits": null, "is_in": null, "traffic_calming": null, "restriction": null, "Pulimukku": null, "voltage": null, "power": null, "operator:wikidata": null, "operator:short": null, "operator": null, "cables": null, "service": null, "bridge:name:en": null, "tidal": null, "intermittent": null, "dual_carriageway": null, "maxspeed:advisory": null, "ref:old": null, "bridge:name": null, "length": null, "smoothness": null, "id": null, "_Shape_Le_1_": null, "_SHAPE_Leng_": null, "_OBJECTID_1_": null, "_OBJECTID_": null, "_ID_": null, "lit": null, "boundary": null, "admin_level": null, "direction": null, "junction": null, "road_marking": null, "name:en": null, "waterway": null, "bridge": null, "shoulder": null, "layer": null, "motor_vehicle": null, "source:geometry": null, "highway_authority_ref": null, "name:ml": null, "maxspeed:taxi": null, "maxspeed:motorcar": null, "maxspeed:goods": null, "horse": null, "foot": null, "cycleway": null, "comment": null, "alt_name": null, "sidewalk": null, "surface": "asphalt", "ref": null, "name": "Nedumangad Vattappara Road", "lanes:forward": null, "lanes:backward": null, "lanes": null, "lane_markings": null, "oneway": "no", "maxspeed:motorcycle": null, "maxspeed:hgv": null, "maxspeed:bus": null, "maxspeed": null, "highway": "secondary", "bicycle": null, "access": null, "natural": null }, "geometry": { "type": "LineString", "coordinates": [ [ 76.9959632, 8.6010761 ], [ 76.9958676, 8.6010328 ], [ 76.9950103, 8.6006445 ] ] } },
{ "type": "Feature", "properties": { "full_id": "w678620554", "osm_id": "678620554", "osm_type": "way", "step_count": null, "informal": null, "sidewalk:left:surface": null, "noexit": null, "wall": null, "crossing_ref": null, "crossing:markings": null, "crossing:island": null, "crossing": null, "proposed": null, "ref:bag": null, "embankment": null, "name:zh": null, "name:etymology:wikidata": null, "opening_date": null, "check_date": null, "culvert": null, "construction": null, "cutting": null, "noname": null, "address": null, "material": null, "height": null, "fence_type": null, "barrier": null, "tracktype": null, "addr:street": null, "wikipedia": null, "wikidata": null, "roof:shape": null, "roof:orientation": null, "addr:place": null, "description": null, "healthcare": null, "playground": null, "narrow": null, "hazard": null, "tunnel": null, "vehicle": null, "bicycle_road": null, "agricultural": null, "substation": null, "ramp": null, "incline": null, "handrail": null, "maxspeed:type": null, "footway": null, "addr:state": null, "addr:country": null, "network": null, "bus": null, "addr:postcode": null, "addr:city": null, "bridge:name:ml": null, "name:ur": null, "width": null, "wheelchair": null, "man_made": null, "ford": null, "trail_visibility": null, "sac_scale": null, "circuits": null, "is_in": null, "traffic_calming": null, "restriction": null, "Pulimukku": null, "voltage": null, "power": null, "operator:wikidata": null, "operator:short": null, "operator": null, "cables": null, "service": null, "bridge:name:en": null, "tidal": null, "intermittent": null, "dual_carriageway": null, "maxspeed:advisory": null, "ref:old": null, "bridge:name": null, "length": null, "smoothness": null, "id": null, "_Shape_Le_1_": null, "_SHAPE_Leng_": null, "_OBJECTID_1_": null, "_OBJECTID_": null, "_ID_": null, "lit": null, "boundary": null, "admin_level": null, "direction": null, "junction": null, "road_marking": null, "name:en": null, "waterway": null, "bridge": null, "shoulder": null, "layer": null, "motor_vehicle": null, "source:geometry": null, "highway_authority_ref": null, "name:ml": null, "maxspeed:taxi": null, "maxspeed:motorcar": null, "maxspeed:goods": null, "horse": null, "foot": null, "cycleway": null, "comment": null, "alt_name": null, "sidewalk": null, "surface": null, "ref": null, "name": "Nedumangad Vattappara Road", "lanes:forward": null, "lanes:backward": null, "lanes": null, "lane_markings": null, "oneway": "no", "maxspeed:motorcycle": null, "maxspeed:hgv": null, "maxspeed:bus": null, "maxspeed": null, "highway": "secondary", "bicycle": null, "access": null, "natural": null }, "geometry": { "type": "LineString", "coordinates": [ [ 76.9947206, 8.6005261 ], [ 76.9945533, 8.6004588 ], [ 76.9942925, 8.6004355 ], [ 76.9937381, 8.600525 ], [ 76.9935372, 8.6006038 ], [ 76.9934071, 8.6007175 ], [ 76.9932442, 8.6009666 ], [ 76.9931352, 8.6012709 ], [ 76.9930103, 8.6014194 ], [ 76.9928227, 8.6015204 ], [ 76.9926909, 8.6015335 ], [ 76.9925308, 8.6014836 ], [ 76.9923952, 8.6014131 ], [ 76.9923118, 8.6013824 ] ] } },
{ "type": "Feature", "properties": { "full_id": "w678620553", "osm_id": "678620553", "osm_type": "way", "step_count": null, "informal": null, "sidewalk:left:surface": null, "noexit": null, "wall": null, "crossing_ref": null, "crossing:markings": null, "crossing:island": null, "crossing": null, "proposed": null, "ref:bag": null, "embankment": null, "name:zh": null, "name:etymology:wikidata": null, "opening_date": null, "check_date": null, "culvert": null, "construction": null, "cutting": null, "noname": null, "address": null, "material": null, "height": null, "fence_type": null, "barrier": null, "tracktype": null, "addr:street": null, "wikipedia": null, "wikidata": null, "roof:shape": null, "roof:orientation": null, "addr:place": null, "description": null, "healthcare": null, "playground": null, "narrow": null, "hazard": null, "tunnel": null, "vehicle": null, "bicycle_road": null, "agricultural": null, "substation": null, "ramp": null, "incline": null, "handrail": null, "maxspeed:type": null, "footway": null, "addr:state": null, "addr:country": null, "network": null, "bus": null, "addr:postcode": null, "addr:city": null, "bridge:name:ml": null, "name:ur": null, "width": null, "wheelchair": null, "man_made": null, "ford": null, "trail_visibility": null, "sac_scale": null, "circuits": null, "is_in": null, "traffic_calming": null, "restriction": null, "Pulimukku": null, "voltage": null, "power": null, "operator:wikidata": null, "operator:short": null, "operator": null, "cables": null, "service": null, "bridge:name:en": null, "tidal": null, "intermittent": null, "dual_carriageway": null, "maxspeed:advisory": null, "ref:old": null, "bridge:name": null, "length": null, "smoothness": null, "id": null, "_Shape_Le_1_": null, "_SHAPE_Leng_": null, "_OBJECTID_1_": null, "_OBJECTID_": null, "_ID_": null, "lit": null, "boundary": null, "admin_level": null, "direction": null, "junction": null, "road_marking": null, "name:en": null, "waterway": null, "bridge": "yes", "shoulder": null, "layer": null, "motor_vehicle": "yes", "source:geometry": null, "highway_authority_ref": null, "name:ml": null, "maxspeed:taxi": null, "maxspeed:motorcar": null, "maxspeed:goods": null, "horse": null, "foot": "yes", "cycleway": null, "comment": null, "alt_name": null, "sidewalk": null, "surface": null, "ref": null, "name": "Nedumangad Vattappara Road", "lanes:forward": null, "lanes:backward": null, "lanes": null, "lane_markings": null, "oneway": "no", "maxspeed:motorcycle": null, "maxspeed:hgv": null, "maxspeed:bus": null, "maxspeed": null, "highway": "secondary", "bicycle": "yes", "access": "permissive", "natural": null }, "geometry": { "type": "LineString", "coordinates": [ [ 76.9950103, 8.6006445 ], [ 76.9947206, 8.6005261 ] ] } },
{ "type": "Feature", "properties": { "full_id": "w853923875", "osm_id": "853923875", "osm_type": "way", "step_count": null, "informal": null, "sidewalk:left:surface": null, "noexit": null, "wall": null, "crossing_ref": null, "crossing:markings": null, "crossing:island": null, "crossing": null, "proposed": null, "ref:bag": null, "embankment": null, "name:zh": null, "name:etymology:wikidata": null, "opening_date": null, "check_date": null, "culvert": null, "construction": null, "cutting": null, "noname": null, "address": null, "material": null, "height": null, "fence_type": null, "barrier": null, "tracktype": null, "addr:street": null, "wikipedia": null, "wikidata": null, "roof:shape": null, "roof:orientation": null, "addr:place": null, "description": null, "healthcare": null, "playground": null, "narrow": null, "hazard": null, "tunnel": null, "vehicle": null, "bicycle_road": null, "agricultural": null, "substation": null, "ramp": null, "incline": null, "handrail": null, "maxspeed:type": null, "footway": null, "addr:state": null, "addr:country": null, "network": null, "bus": null, "addr:postcode": null, "addr:city": null, "bridge:name:ml": null, "name:ur": null, "width": null, "wheelchair": null, "man_made": null, "ford": null, "trail_visibility": null, "sac_scale": null, "circuits": null, "is_in": null, "traffic_calming": null, "restriction": null, "Pulimukku": null, "voltage": null, "power": null, "operator:wikidata": null, "operator:short": null, "operator": null, "cables": null, "service": null, "bridge:name:en": null, "tidal": null, "intermittent": null, "dual_carriageway": null, "maxspeed:advisory": null, "ref:old": null, "bridge:name": null, "length": null, "smoothness": null, "id": null, "_Shape_Le_1_": null, "_SHAPE_Leng_": null, "_OBJECTID_1_": null, "_OBJECTID_": null, "_ID_": null, "lit": null, "boundary": null, "admin_level": null, "direction": null, "junction": null, "road_marking": null, "name:en": null, "waterway": null, "bridge": null, "shoulder": null, "layer": null, "motor_vehicle": null, "source:geometry": null, "highway_authority_ref": null, "name:ml": null, "maxspeed:taxi": null, "maxspeed:motorcar": null, "maxspeed:goods": null, "horse": null, "foot": null, "cycleway": null, "comment": null, "alt_name": null, "sidewalk": null, "surface": null, "ref": null, "name": "Nedumangad Vattappara Road", "lanes:forward": null, "lanes:backward": null, "lanes": null, "lane_markings": null, "oneway": "no", "maxspeed:motorcycle": null, "maxspeed:hgv": null, "maxspeed:bus": null, "maxspeed": null, "highway": "secondary", "bicycle": null, "access": null, "natural": null }, "geometry": { "type": "LineString", "coordinates": [ [ 76.9923118, 8.6013824 ], [ 76.9921929, 8.6013387 ], [ 76.9919283, 8.6013087 ], [ 76.9916946, 8.6013333 ], [ 76.9916285, 8.6013402 ], [ 76.991227, 8.6013844 ], [ 76.9910344, 8.601485 ], [ 76.9908789, 8.6016176 ], [ 76.9906857, 8.6017502 ], [ 76.9902885, 8.6018648 ], [ 76.9899559, 8.6019762 ], [ 76.9896933, 8.602148 ], [ 76.9895163, 8.6022382 ], [ 76.9892534, 8.602323 ], [ 76.9889477, 8.6023973 ], [ 76.9887277, 8.6024397 ], [ 76.9884649, 8.6024663 ], [ 76.9883361, 8.6024185 ], [ 76.9882503, 8.6022594 ], [ 76.9881054, 8.6019942 ], [ 76.9880411, 8.6016919 ], [ 76.9879338, 8.601432 ], [ 76.9878226, 8.6013668 ], [ 76.9877889, 8.6013471 ], [ 76.9876441, 8.6013153 ], [ 76.987333, 8.6012569 ], [ 76.9870326, 8.6012198 ], [ 76.9867751, 8.6011827 ], [ 76.9866997, 8.6011681 ], [ 76.9865283, 8.6011349 ], [ 76.9864532, 8.6011216 ], [ 76.9863674, 8.6010633 ], [ 76.9863111, 8.600989 ], [ 76.9862225, 8.6008803 ], [ 76.9861582, 8.6008273 ], [ 76.9860616, 8.6008644 ], [ 76.9860187, 8.6009599 ], [ 76.9859114, 8.6010554 ], [ 76.9857558, 8.6011933 ], [ 76.9855142, 8.6013503 ], [ 76.9852459, 8.6014458 ], [ 76.9849565, 8.6015964 ], [ 76.9846883, 8.6017555 ], [ 76.9844896, 8.6018595 ], [ 76.9843769, 8.6020292 ], [ 76.9842055, 8.6021533 ], [ 76.9840553, 8.6021851 ], [ 76.9838515, 8.6021639 ], [ 76.9835618, 8.6020844 ], [ 76.9833687, 8.6019995 ], [ 76.9833111, 8.6019631 ], [ 76.9832587, 8.6019299 ], [ 76.9832346, 8.6019146 ], [ 76.9831273, 8.6017661 ], [ 76.9830522, 8.6016017 ], [ 76.9829824, 8.6014373 ], [ 76.9830307, 8.6012145 ], [ 76.9830736, 8.6010448 ], [ 76.9830736, 8.6008803 ], [ 76.9830575, 8.600753 ], [ 76.9829878, 8.600631 ], [ 76.9828054, 8.6005197 ], [ 76.9825747, 8.6004613 ], [ 76.982328, 8.6003393 ], [ 76.9820007, 8.6001219 ], [ 76.9818505, 8.6000158 ], [ 76.9817003, 8.5999362 ], [ 76.9815126, 8.5998301 ], [ 76.9814428, 8.5997771 ], [ 76.9812658, 8.5997983 ], [ 76.9810941, 8.5999256 ], [ 76.9809332, 8.6000105 ], [ 76.980842, 8.6000741 ], [ 76.9806274, 8.6001325 ], [ 76.9804558, 8.6001006 ], [ 76.9802412, 8.6000953 ], [ 76.9799193, 8.6001272 ], [ 76.9796565, 8.6002067 ], [ 76.9794634, 8.6003181 ], [ 76.9791986, 8.6005143 ], [ 76.97902, 8.6006701 ], [ 76.9788196, 8.6008432 ], [ 76.9786642, 8.6009954 ], [ 76.9784334, 8.6011562 ], [ 76.9781154, 8.6012202 ], [ 76.9779721, 8.6011827 ], [ 76.977872, 8.6011183 ], [ 76.9777521, 8.6010395 ], [ 76.9774303, 8.6007796 ], [ 76.9773129, 8.6006837 ], [ 76.9771939, 8.6005865 ], [ 76.9770494, 8.6004189 ], [ 76.9768992, 8.6002173 ], [ 76.9767007, 8.6000105 ], [ 76.9765076, 8.599793 ], [ 76.9764056, 8.5996498 ], [ 76.9763466, 8.5995172 ], [ 76.9763252, 8.5993209 ], [ 76.9763574, 8.5991512 ], [ 76.9764432, 8.5989974 ], [ 76.9764164, 8.5988595 ], [ 76.9763735, 8.5987375 ], [ 76.9762876, 8.5986897 ], [ 76.9762233, 8.5986261 ], [ 76.9760677, 8.5985837 ], [ 76.9758585, 8.5985624 ], [ 76.9756707, 8.598589 ], [ 76.9755688, 8.598589 ], [ 76.975483, 8.5985094 ], [ 76.9753435, 8.5983927 ], [ 76.9752362, 8.5983132 ], [ 76.9751128, 8.5982813 ], [ 76.9749787, 8.5983344 ], [ 76.9748497, 8.5983396 ], [ 76.9747454, 8.5982946 ], [ 76.9746622, 8.5981912 ], [ 76.9746032, 8.5980055 ], [ 76.9745603, 8.5977668 ], [ 76.9745603, 8.5975281 ], [ 76.9745442, 8.5973372 ], [ 76.9745174, 8.5970985 ], [ 76.9744745, 8.5969394 ], [ 76.9743296, 8.5968863 ], [ 76.9741043, 8.5968757 ], [ 76.9737985, 8.5969659 ], [ 76.973584, 8.59695 ], [ 76.9734177, 8.5969235 ], [ 76.9732889, 8.5969076 ], [ 76.9732299, 8.5968439 ], [ 76.9731655, 8.5967219 ], [ 76.9731419, 8.5966195 ], [ 76.9731353, 8.5965185 ], [ 76.9730765, 8.5963262 ], [ 76.9729513, 8.5961406 ], [ 76.972903, 8.5960046 ], [ 76.9728067, 8.5958287 ], [ 76.9726613, 8.5957406 ], [ 76.9724521, 8.5956823 ], [ 76.9723877, 8.5955974 ], [ 76.9723861, 8.5954794 ], [ 76.9724923, 8.5953686 ], [ 76.9725457, 8.5952869 ], [ 76.972672, 8.595136 ], [ 76.9727044, 8.5949657 ], [ 76.9727268, 8.5948291 ], [ 76.9727366, 8.5947101 ], [ 76.9727203, 8.5945337 ], [ 76.972673, 8.5944544 ], [ 76.9725883, 8.5944046 ], [ 76.9724628, 8.5943297 ], [ 76.9724123, 8.5941918 ], [ 76.9724103, 8.5940261 ], [ 76.9723748, 8.5937752 ], [ 76.9722987, 8.5936476 ], [ 76.9720983, 8.5935028 ], [ 76.972017, 8.5933858 ], [ 76.9719841, 8.593271 ], [ 76.9719432, 8.5931549 ], [ 76.9719167, 8.5931301 ] ] } },
{ "type": "Feature", "properties": { "full_id": "w285244590", "osm_id": "285244590", "osm_type": "way", "step_count": null, "informal": null, "sidewalk:left:surface": null, "noexit": null, "wall": null, "crossing_ref": null, "crossing:markings": null, "crossing:island": null, "crossing": null, "proposed": null, "ref:bag": null, "embankment": null, "name:zh": null, "name:etymology:wikidata": null, "opening_date": null, "check_date": null, "culvert": null, "construction": null, "cutting": null, "noname": null, "address": null, "material": null, "height": null, "fence_type": null, "barrier": null, "tracktype": null, "addr:street": null, "wikipedia": null, "wikidata": null, "roof:shape": null, "roof:orientation": null, "addr:place": null, "description": null, "healthcare": null, "playground": null, "narrow": null, "hazard": null, "tunnel": null, "vehicle": null, "bicycle_road": null, "agricultural": null, "substation": null, "ramp": null, "incline": null, "handrail": null, "maxspeed:type": null, "footway": null, "addr:state": null, "addr:country": null, "network": null, "bus": null, "addr:postcode": null, "addr:city": null, "bridge:name:ml": null, "name:ur": null, "width": null, "wheelchair": null, "man_made": null, "ford": null, "trail_visibility": null, "sac_scale": null, "circuits": null, "is_in": null, "traffic_calming": null, "restriction": null, "Pulimukku": null, "voltage": null, "power": null, "operator:wikidata": null, "operator:short": null, "operator": null, "cables": null, "service": null, "bridge:name:en": null, "tidal": null, "intermittent": null, "dual_carriageway": null, "maxspeed:advisory": null, "ref:old": null, "bridge:name": null, "length": null, "smoothness": null, "id": null, "_Shape_Le_1_": null, "_SHAPE_Leng_": null, "_OBJECTID_1_": null, "_OBJECTID_": null, "_ID_": null, "lit": null, "boundary": null, "admin_level": null, "direction": null, "junction": null, "road_marking": null, "name:en": null, "waterway": null, "bridge": null, "shoulder": null, "layer": null, "motor_vehicle": null, "source:geometry": null, "highway_authority_ref": null, "name:ml": null, "maxspeed:taxi": null, "maxspeed:motorcar": null, "maxspeed:goods": null, "horse": null, "foot": null, "cycleway": null, "comment": null, "alt_name": null, "sidewalk": null, "surface": null, "ref": null, "name": null, "lanes:forward": null, "lanes:backward": null, "lanes": null, "lane_markings": null, "oneway": "no", "maxspeed:motorcycle": null, "maxspeed:hgv": null, "maxspeed:bus": null, "maxspeed": null, "highway": "residential", "bicycle": null, "access": null, "natural": null }, "geometry": { "type": "LineString", "coordinates": [ [ 76.9959639, 8.6007186 ], [ 76.9962801, 8.6005939 ], [ 76.9967685, 8.6003128 ], [ 76.9970904, 8.6001219 ], [ 76.9974713, 8.5999787 ], [ 76.9980077, 8.5996922 ], [ 76.998512, 8.599496 ], [ 76.9986747, 8.5994323 ], [ 76.9990001, 8.599305 ], [ 76.9991975, 8.5992408 ], [ 76.9993917, 8.5991777 ], [ 76.9995601, 8.5991311 ], [ 76.9997911, 8.5991909 ], [ 77.000158, 8.5996439 ], [ 77.0007572, 8.6004378 ], [ 77.0009985, 8.6005193 ], [ 77.0013317, 8.6007595 ], [ 77.0014629, 8.6011341 ], [ 77.0015596, 8.6013302 ], [ 77.0016924, 8.6014265 ], [ 77.0018163, 8.6014229 ], [ 77.0020726, 8.6013745 ], [ 77.0023036, 8.6013216 ], [ 77.0023971, 8.6013123 ], [ 77.0025267, 8.6013667 ], [ 77.0029294, 8.6017185 ], [ 77.0031047, 8.6018752 ], [ 77.0032287, 8.6020249 ], [ 77.003282, 8.6021594 ], [ 77.0032511, 8.6022767 ], [ 77.0031534, 8.6023788 ], [ 77.0029859, 8.6023973 ], [ 77.0026909, 8.6024185 ], [ 77.0022776, 8.6024755 ], [ 77.0022191, 8.6027471 ], [ 77.0023832, 8.6031718 ], [ 77.0023845, 8.6032214 ], [ 77.0023864, 8.6032934 ] ] } }
]
}
