{
"type": "FeatureCollection",
"name": "chaala market ",
"crs": { "type": "name", "properties": { "name": "urn:ogc:def:crs:OGC:1.3:CRS84" } },
"features": [
{ "type": "Feature", "properties": { "DIST_KM": 18.298, "DURATION_H": 0.434, "PROFILE": "driving-car", "PREF": "fastest", "OPTIONS": { }, "FROM_ID": null, "TO_ID": null }, "geometry": { "type": "LineString", "coordinates": [ [ 76.951578, 8.481639 ], [ 76.951642, 8.481937 ], [ 76.951703, 8.482149 ], [ 76.951857, 8.482462 ], [ 76.951896, 8.482641 ], [ 76.952627, 8.48246 ], [ 76.952963, 8.482365 ], [ 76.953245, 8.482289 ], [ 76.953335, 8.482251 ], [ 76.953508, 8.482194 ], [ 76.954068, 8.482074 ], [ 76.954208, 8.482026 ], [ 76.954371, 8.482493 ], [ 76.954606, 8.482878 ], [ 76.954666, 8.483002 ], [ 76.954802, 8.483274 ], [ 76.954859, 8.483528 ], [ 76.954912, 8.483998 ], [ 76.954922, 8.484326 ], [ 76.954948, 8.484482 ], [ 76.95499, 8.484555 ], [ 76.954963, 8.484615 ], [ 76.954952, 8.484809 ], [ 76.954921, 8.485215 ], [ 76.954937, 8.485292 ], [ 76.954932, 8.485364 ], [ 76.954932, 8.485418 ], [ 76.954948, 8.485501 ], [ 76.955025, 8.485666 ], [ 76.955142, 8.485878 ], [ 76.955417, 8.486206 ], [ 76.95558, 8.486385 ], [ 76.955761, 8.486571 ], [ 76.956098, 8.486966 ], [ 76.956191, 8.487076 ], [ 76.956394, 8.487367 ], [ 76.956627, 8.487677 ], [ 76.956983, 8.488176 ], [ 76.957242, 8.48856 ], [ 76.957318, 8.488679 ], [ 76.957447, 8.488886 ], [ 76.957488, 8.488998 ], [ 76.957643, 8.489456 ], [ 76.957691, 8.489594 ], [ 76.957746, 8.489751 ], [ 76.957809, 8.489932 ], [ 76.957916, 8.490074 ], [ 76.958082, 8.490155 ], [ 76.958378, 8.49023 ], [ 76.95848, 8.490291 ], [ 76.958551, 8.490417 ], [ 76.958582, 8.490528 ], [ 76.958572, 8.491032 ], [ 76.958601, 8.491277 ], [ 76.958667, 8.491634 ], [ 76.958692, 8.49199 ], [ 76.958728, 8.492487 ], [ 76.958735, 8.492637 ], [ 76.958745, 8.492889 ], [ 76.958737, 8.493105 ], [ 76.958734, 8.493156 ], [ 76.958366, 8.493267 ], [ 76.958175, 8.49329 ], [ 76.958123, 8.493395 ], [ 76.958118, 8.493487 ], [ 76.958174, 8.49431 ], [ 76.958231, 8.494908 ], [ 76.958202, 8.495015 ], [ 76.958188, 8.495229 ], [ 76.958188, 8.495695 ], [ 76.958138, 8.495894 ], [ 76.958024, 8.49619 ], [ 76.95783, 8.496828 ], [ 76.957684, 8.497537 ], [ 76.957393, 8.498369 ], [ 76.957369, 8.498393 ], [ 76.957352, 8.498477 ], [ 76.957381, 8.498528 ], [ 76.95742, 8.498552 ], [ 76.957535, 8.498873 ], [ 76.957634, 8.49929 ], [ 76.957782, 8.499685 ], [ 76.957882, 8.499914 ], [ 76.957965, 8.500052 ], [ 76.958052, 8.500178 ], [ 76.958136, 8.500257 ], [ 76.958386, 8.500486 ], [ 76.95891, 8.500959 ], [ 76.959009, 8.501078 ], [ 76.959419, 8.501988 ], [ 76.959454, 8.50205 ], [ 76.959707, 8.502943 ], [ 76.959945, 8.503826 ], [ 76.96006, 8.503998 ], [ 76.960904, 8.505107 ], [ 76.961048, 8.505306 ], [ 76.961274, 8.505626 ], [ 76.961526, 8.506059 ], [ 76.961721, 8.50647 ], [ 76.961812, 8.506663 ], [ 76.961886, 8.507006 ], [ 76.962032, 8.50773 ], [ 76.962098, 8.507985 ], [ 76.962186, 8.5084 ], [ 76.962273, 8.508926 ], [ 76.962455, 8.509838 ], [ 76.962501, 8.510034 ], [ 76.962504, 8.510357 ], [ 76.962459, 8.510784 ], [ 76.962373, 8.511201 ], [ 76.962309, 8.51136 ], [ 76.962303, 8.511363 ], [ 76.962228, 8.511428 ], [ 76.962203, 8.511523 ], [ 76.962225, 8.511602 ], [ 76.962249, 8.511635 ], [ 76.962275, 8.511779 ], [ 76.962272, 8.51183 ], [ 76.962202, 8.512145 ], [ 76.962141, 8.512325 ], [ 76.961822, 8.513268 ], [ 76.961682, 8.513699 ], [ 76.961641, 8.513848 ], [ 76.961522, 8.514168 ], [ 76.961447, 8.514314 ], [ 76.96068, 8.515517 ], [ 76.960593, 8.515676 ], [ 76.960576, 8.515767 ], [ 76.960573, 8.51606 ], [ 76.96058, 8.51662 ], [ 76.960584, 8.516858 ], [ 76.960627, 8.518651 ], [ 76.960657, 8.519333 ], [ 76.960715, 8.520572 ], [ 76.960755, 8.521858 ], [ 76.960648, 8.522198 ], [ 76.960573, 8.522476 ], [ 76.960567, 8.522618 ], [ 76.960578, 8.522749 ], [ 76.960672, 8.523057 ], [ 76.960763, 8.523236 ], [ 76.960824, 8.523772 ], [ 76.961176, 8.524932 ], [ 76.96117, 8.525122 ], [ 76.961138, 8.525315 ], [ 76.961072, 8.525545 ], [ 76.96086, 8.526036 ], [ 76.960644, 8.526437 ], [ 76.960617, 8.526505 ], [ 76.960542, 8.526653 ], [ 76.960339, 8.527046 ], [ 76.960227, 8.527311 ], [ 76.960179, 8.527582 ], [ 76.960176, 8.527696 ], [ 76.96019, 8.527998 ], [ 76.960229, 8.528225 ], [ 76.960412, 8.528679 ], [ 76.960581, 8.529207 ], [ 76.960644, 8.529367 ], [ 76.960743, 8.529563 ], [ 76.961006, 8.530004 ], [ 76.961122, 8.530229 ], [ 76.961185, 8.530385 ], [ 76.961272, 8.530698 ], [ 76.961298, 8.530904 ], [ 76.961332, 8.531021 ], [ 76.961405, 8.531193 ], [ 76.961613, 8.531558 ], [ 76.961672, 8.531666 ], [ 76.961845, 8.531912 ], [ 76.962222, 8.532412 ], [ 76.962231, 8.532436 ], [ 76.962414, 8.532647 ], [ 76.963016, 8.533215 ], [ 76.963111, 8.533353 ], [ 76.963199, 8.533529 ], [ 76.963282, 8.533613 ], [ 76.963388, 8.53375 ], [ 76.963662, 8.534163 ], [ 76.963962, 8.534401 ], [ 76.964101, 8.534516 ], [ 76.964245, 8.534715 ], [ 76.964713, 8.535393 ], [ 76.964889, 8.535665 ], [ 76.964944, 8.535787 ], [ 76.964972, 8.536001 ], [ 76.964988, 8.53623 ], [ 76.965004, 8.536466 ], [ 76.965005, 8.536556 ], [ 76.965023, 8.536755 ], [ 76.96508, 8.536989 ], [ 76.96512, 8.537066 ], [ 76.965209, 8.537136 ], [ 76.965303, 8.537169 ], [ 76.965442, 8.537185 ], [ 76.965549, 8.537175 ], [ 76.965717, 8.537142 ], [ 76.965981, 8.537072 ], [ 76.966212, 8.53706 ], [ 76.966296, 8.537074 ], [ 76.966361, 8.537109 ], [ 76.966446, 8.537201 ], [ 76.966499, 8.537289 ], [ 76.966541, 8.537517 ], [ 76.966616, 8.537598 ], [ 76.966669, 8.537625 ], [ 76.967052, 8.537728 ], [ 76.967217, 8.537839 ], [ 76.967303, 8.537911 ], [ 76.967432, 8.538106 ], [ 76.967557, 8.538396 ], [ 76.967602, 8.538545 ], [ 76.96779, 8.539029 ], [ 76.967845, 8.53914 ], [ 76.967942, 8.539255 ], [ 76.96805, 8.539339 ], [ 76.96827, 8.539495 ], [ 76.968474, 8.539588 ], [ 76.968585, 8.539656 ], [ 76.968879, 8.539784 ], [ 76.969221, 8.540037 ], [ 76.969395, 8.540266 ], [ 76.969701, 8.540799 ], [ 76.969873, 8.541028 ], [ 76.969984, 8.541142 ], [ 76.970151, 8.541293 ], [ 76.97045, 8.541628 ], [ 76.970732, 8.542035 ], [ 76.971138, 8.542692 ], [ 76.971629, 8.543428 ], [ 76.971842, 8.543708 ], [ 76.972012, 8.543932 ], [ 76.972505, 8.54477 ], [ 76.972649, 8.544989 ], [ 76.972915, 8.545334 ], [ 76.973218, 8.545803 ], [ 76.973425, 8.546138 ], [ 76.974037, 8.54719 ], [ 76.974101, 8.547474 ], [ 76.974091, 8.547634 ], [ 76.973865, 8.548765 ], [ 76.973818, 8.54894 ], [ 76.973725, 8.549087 ], [ 76.973486, 8.549416 ], [ 76.973402, 8.549617 ], [ 76.973356, 8.549941 ], [ 76.973361, 8.550204 ], [ 76.973483, 8.550484 ], [ 76.973849, 8.550896 ], [ 76.973898, 8.550952 ], [ 76.973989, 8.551029 ], [ 76.974099, 8.551123 ], [ 76.974269, 8.551265 ], [ 76.974564, 8.551505 ], [ 76.974925, 8.551728 ], [ 76.975492, 8.551932 ], [ 76.975816, 8.552118 ], [ 76.975916, 8.552223 ], [ 76.976086, 8.552542 ], [ 76.976187, 8.552892 ], [ 76.976186, 8.55302 ], [ 76.976139, 8.553321 ], [ 76.97614, 8.553631 ], [ 76.976216, 8.554151 ], [ 76.976293, 8.55435 ], [ 76.976352, 8.55441 ], [ 76.976383, 8.554447 ], [ 76.976418, 8.554468 ], [ 76.976446, 8.554489 ], [ 76.976911, 8.554781 ], [ 76.977317, 8.555073 ], [ 76.977424, 8.555205 ], [ 76.977449, 8.555259 ], [ 76.977452, 8.555315 ], [ 76.977263, 8.555969 ], [ 76.977263, 8.556015 ], [ 76.977279, 8.556236 ], [ 76.977396, 8.556491 ], [ 76.977454, 8.556618 ], [ 76.978146, 8.557543 ], [ 76.978335, 8.557859 ], [ 76.978374, 8.557945 ], [ 76.978417, 8.558125 ], [ 76.978431, 8.558256 ], [ 76.978415, 8.558373 ], [ 76.978364, 8.55851 ], [ 76.978245, 8.558697 ], [ 76.978214, 8.558752 ], [ 76.978146, 8.558957 ], [ 76.978144, 8.559104 ], [ 76.978166, 8.559181 ], [ 76.978388, 8.559403 ], [ 76.978613, 8.559586 ], [ 76.978795, 8.560013 ], [ 76.978882, 8.560204 ], [ 76.979114, 8.560378 ], [ 76.979411, 8.560566 ], [ 76.979717, 8.560755 ], [ 76.979777, 8.560786 ], [ 76.979865, 8.560814 ], [ 76.979985, 8.560821 ], [ 76.980452, 8.560706 ], [ 76.980705, 8.560737 ], [ 76.980777, 8.560746 ], [ 76.980953, 8.560888 ], [ 76.981441, 8.561371 ], [ 76.982117, 8.561858 ], [ 76.982396, 8.561954 ], [ 76.982412, 8.561959 ], [ 76.98243, 8.561964 ], [ 76.983164, 8.562158 ], [ 76.983386, 8.562195 ], [ 76.983833, 8.562212 ], [ 76.984087, 8.562236 ], [ 76.984579, 8.562339 ], [ 76.984758, 8.562403 ], [ 76.984875, 8.562482 ], [ 76.984993, 8.562598 ], [ 76.985102, 8.562742 ], [ 76.985202, 8.562985 ], [ 76.985453, 8.563589 ], [ 76.985573, 8.563893 ], [ 76.985609, 8.564005 ], [ 76.98562, 8.564208 ], [ 76.985913, 8.564002 ], [ 76.986021, 8.563967 ], [ 76.986145, 8.563988 ], [ 76.986291, 8.564035 ], [ 76.986439, 8.563984 ], [ 76.98658, 8.563824 ], [ 76.986664, 8.563681 ], [ 76.986812, 8.563555 ], [ 76.986976, 8.56348 ], [ 76.987184, 8.563425 ], [ 76.987327, 8.56347 ], [ 76.98751, 8.563555 ], [ 76.987573, 8.563555 ], [ 76.987848, 8.563472 ], [ 76.987974, 8.563799 ], [ 76.988056, 8.563861 ], [ 76.988103, 8.563932 ], [ 76.98831, 8.563992 ], [ 76.988417, 8.564041 ], [ 76.988725, 8.564133 ], [ 76.988789, 8.564347 ], [ 76.988788, 8.56463 ], [ 76.98881, 8.564803 ], [ 76.988873, 8.56497 ], [ 76.988931, 8.565248 ], [ 76.988974, 8.565294 ], [ 76.989055, 8.565341 ], [ 76.989268, 8.565368 ], [ 76.989367, 8.565403 ], [ 76.989406, 8.565432 ], [ 76.989447, 8.565518 ], [ 76.989461, 8.565634 ], [ 76.9895, 8.565727 ], [ 76.989732, 8.566008 ], [ 76.98977, 8.566038 ], [ 76.989826, 8.566045 ], [ 76.990038, 8.56598 ], [ 76.990159, 8.566178 ], [ 76.990217, 8.566315 ], [ 76.990232, 8.566651 ], [ 76.990276, 8.566846 ], [ 76.990283, 8.567019 ], [ 76.990232, 8.567328 ], [ 76.990108, 8.567583 ], [ 76.990055, 8.567799 ], [ 76.990065, 8.568043 ], [ 76.990144, 8.568224 ], [ 76.990202, 8.568405 ], [ 76.990559, 8.568812 ], [ 76.990637, 8.568867 ], [ 76.990488, 8.568954 ], [ 76.990056, 8.56911 ], [ 76.98988, 8.569189 ], [ 76.989986, 8.569415 ], [ 76.990044, 8.569574 ], [ 76.989938, 8.569597 ], [ 76.9897, 8.569699 ], [ 76.989757, 8.569836 ], [ 76.989884, 8.57014 ], [ 76.989931, 8.570261 ], [ 76.990084, 8.570585 ], [ 76.990134, 8.570733 ], [ 76.990157, 8.570892 ], [ 76.990108, 8.571054 ], [ 76.989947, 8.571224 ], [ 76.989919, 8.571278 ], [ 76.989925, 8.571319 ], [ 76.990559, 8.572489 ], [ 76.990568, 8.572568 ], [ 76.9905, 8.57269 ], [ 76.9904, 8.572745 ], [ 76.990252, 8.572775 ], [ 76.990165, 8.572829 ], [ 76.990119, 8.573021 ], [ 76.990101, 8.573235 ], [ 76.989694, 8.573731 ], [ 76.989273, 8.574427 ], [ 76.989028, 8.574642 ], [ 76.988853, 8.574979 ], [ 76.98869, 8.575248 ], [ 76.988477, 8.575336 ], [ 76.987985, 8.575668 ], [ 76.987952, 8.575709 ], [ 76.987933, 8.575776 ], [ 76.987891, 8.576379 ], [ 76.987846, 8.576685 ], [ 76.987788, 8.577082 ], [ 76.987764, 8.577122 ], [ 76.987719, 8.577148 ], [ 76.987311, 8.577158 ], [ 76.986843, 8.577135 ], [ 76.986662, 8.5771 ], [ 76.986607, 8.577546 ], [ 76.986505, 8.577921 ], [ 76.986251, 8.578454 ], [ 76.986205, 8.578778 ], [ 76.98613, 8.579225 ], [ 76.98603, 8.579802 ], [ 76.985938, 8.580219 ], [ 76.985909, 8.580498 ], [ 76.98592, 8.580879 ], [ 76.985903, 8.580991 ], [ 76.98583, 8.581279 ], [ 76.985519, 8.58199 ], [ 76.985479, 8.582147 ], [ 76.985455, 8.58243 ], [ 76.985489, 8.582693 ], [ 76.985525, 8.582869 ], [ 76.98557, 8.582971 ], [ 76.985694, 8.583069 ], [ 76.985805, 8.583188 ], [ 76.985805, 8.583315 ], [ 76.985745, 8.583719 ], [ 76.985831, 8.583784 ], [ 76.986048, 8.584144 ], [ 76.986435, 8.584377 ], [ 76.986565, 8.584458 ], [ 76.986773, 8.584623 ], [ 76.986974, 8.584818 ], [ 76.987119, 8.585172 ], [ 76.987249, 8.585321 ], [ 76.987437, 8.585604 ], [ 76.987555, 8.585724 ], [ 76.98807, 8.586255 ], [ 76.988305, 8.586667 ], [ 76.988532, 8.587439 ], [ 76.988635, 8.587854 ], [ 76.988842, 8.588403 ], [ 76.989211, 8.589071 ], [ 76.989283, 8.589259 ], [ 76.989375, 8.589497 ], [ 76.989617, 8.589873 ], [ 76.989892, 8.590252 ], [ 76.990171, 8.590618 ], [ 76.990792, 8.591355 ], [ 76.991021, 8.591677 ], [ 76.991081, 8.591847 ], [ 76.991087, 8.592051 ], [ 76.9909, 8.593253 ], [ 76.990901, 8.593313 ], [ 76.990904, 8.593411 ], [ 76.990904, 8.593435 ], [ 76.990941, 8.59366 ], [ 76.991113, 8.594257 ], [ 76.991382, 8.594898 ], [ 76.991586, 8.595232 ], [ 76.991672, 8.595375 ], [ 76.992037, 8.595927 ], [ 76.992328, 8.596345 ], [ 76.9924, 8.596486 ], [ 76.992469, 8.596623 ], [ 76.992645, 8.59697 ], [ 76.992799, 8.597274 ], [ 76.993113, 8.597694 ], [ 76.993208, 8.597838 ], [ 76.99354, 8.598257 ], [ 76.993575, 8.598303 ], [ 76.993738, 8.598566 ], [ 76.993944, 8.599045 ], [ 76.994194, 8.600119 ], [ 76.994258, 8.600297 ], [ 76.994293, 8.600436 ], [ 76.994553, 8.600459 ], [ 76.994721, 8.600526 ], [ 76.99501, 8.600645 ], [ 76.995963, 8.601076 ], [ 76.995963, 8.601484 ], [ 76.995962, 8.601679 ], [ 76.996134, 8.602183 ], [ 76.996295, 8.602437 ], [ 76.996427, 8.602563 ], [ 76.996499, 8.60266 ], [ 76.996547, 8.602779 ], [ 76.996687, 8.603247 ], [ 76.996784, 8.603459 ], [ 76.996872, 8.60357 ], [ 76.996933, 8.603633 ], [ 76.997019, 8.603681 ], [ 76.997169, 8.603707 ], [ 76.997376, 8.603697 ], [ 76.997516, 8.603706 ], [ 76.997683, 8.60378 ], [ 76.997998, 8.604008 ], [ 76.998334, 8.603909 ], [ 76.998872, 8.603716 ], [ 76.999078, 8.603675 ], [ 77.000188, 8.603453 ], [ 77.000339, 8.603438 ], [ 77.000731, 8.603439 ], [ 77.001528, 8.603221 ], [ 77.001744, 8.603206 ], [ 77.002386, 8.603293 ], [ 77.002606, 8.60332 ], [ 77.002794, 8.603315 ], [ 77.003058, 8.60373 ], [ 77.003095, 8.604037 ], [ 77.003024, 8.604698 ], [ 77.002954, 8.605189 ], [ 77.003364, 8.605167 ], [ 77.003991, 8.604924 ], [ 77.004052, 8.605093 ], [ 77.004067, 8.605218 ], [ 77.004058, 8.605379 ], [ 77.004042, 8.605406 ], [ 77.00378, 8.605517 ] ] } }
]
}
