{
"type": "FeatureCollection",
"name": "padmanabha swami temple ",
"crs": { "type": "name", "properties": { "name": "urn:ogc:def:crs:OGC:1.3:CRS84" } },
"features": [
{ "type": "Feature", "properties": { "DIST_KM": 26.353, "DURATION_H": 0.521, "PROFILE": "driving-car", "PREF": "fastest", "OPTIONS": { }, "FROM_ID": null, "TO_ID": null }, "geometry": { "type": "LineString", "coordinates": [ [ 77.004001, 8.605423 ], [ 77.003319, 8.605712 ], [ 77.003205, 8.60574 ], [ 77.003013, 8.60573 ], [ 77.002858, 8.605666 ], [ 77.002858, 8.60554 ], [ 77.002882, 8.605352 ], [ 77.002899, 8.605273 ], [ 77.002954, 8.605189 ], [ 77.002889, 8.605145 ], [ 77.002696, 8.605076 ], [ 77.002525, 8.605044 ], [ 77.002106, 8.605108 ], [ 77.001849, 8.605182 ], [ 77.001618, 8.605272 ], [ 77.001534, 8.605287 ], [ 77.001138, 8.605371 ], [ 77.00099, 8.605382 ], [ 77.000582, 8.605371 ], [ 77.000105, 8.605435 ], [ 76.9995, 8.605546 ], [ 76.999403, 8.605512 ], [ 76.999332, 8.605442 ], [ 76.999022, 8.605361 ], [ 76.998681, 8.605331 ], [ 76.998412, 8.605387 ], [ 76.998435, 8.605288 ], [ 76.99846, 8.605044 ], [ 76.998473, 8.604787 ], [ 76.998465, 8.604597 ], [ 76.998331, 8.604349 ], [ 76.997998, 8.604008 ], [ 76.997683, 8.60378 ], [ 76.997516, 8.603706 ], [ 76.997376, 8.603697 ], [ 76.997169, 8.603707 ], [ 76.997019, 8.603681 ], [ 76.996933, 8.603633 ], [ 76.996872, 8.60357 ], [ 76.996784, 8.603459 ], [ 76.996687, 8.603247 ], [ 76.996547, 8.602779 ], [ 76.996499, 8.60266 ], [ 76.996427, 8.602563 ], [ 76.996295, 8.602437 ], [ 76.996134, 8.602183 ], [ 76.995962, 8.601679 ], [ 76.995963, 8.601484 ], [ 76.995963, 8.601076 ], [ 76.99501, 8.600645 ], [ 76.994721, 8.600526 ], [ 76.994553, 8.600459 ], [ 76.994293, 8.600436 ], [ 76.994258, 8.600297 ], [ 76.994194, 8.600119 ], [ 76.993944, 8.599045 ], [ 76.993738, 8.598566 ], [ 76.993575, 8.598303 ], [ 76.99354, 8.598257 ], [ 76.993208, 8.597838 ], [ 76.993113, 8.597694 ], [ 76.992799, 8.597274 ], [ 76.992645, 8.59697 ], [ 76.992469, 8.596623 ], [ 76.9924, 8.596486 ], [ 76.992328, 8.596345 ], [ 76.992037, 8.595927 ], [ 76.991672, 8.595375 ], [ 76.991586, 8.595232 ], [ 76.991382, 8.594898 ], [ 76.991113, 8.594257 ], [ 76.990941, 8.59366 ], [ 76.990904, 8.593435 ], [ 76.990904, 8.593411 ], [ 76.990901, 8.593313 ], [ 76.9909, 8.593253 ], [ 76.991087, 8.592051 ], [ 76.991081, 8.591847 ], [ 76.991021, 8.591677 ], [ 76.990792, 8.591355 ], [ 76.990171, 8.590618 ], [ 76.989892, 8.590252 ], [ 76.989617, 8.589873 ], [ 76.989375, 8.589497 ], [ 76.989283, 8.589259 ], [ 76.989211, 8.589071 ], [ 76.988842, 8.588403 ], [ 76.988635, 8.587854 ], [ 76.988532, 8.587439 ], [ 76.988305, 8.586667 ], [ 76.98807, 8.586255 ], [ 76.987555, 8.585724 ], [ 76.987437, 8.585604 ], [ 76.987249, 8.585321 ], [ 76.987119, 8.585172 ], [ 76.986974, 8.584818 ], [ 76.986773, 8.584623 ], [ 76.986565, 8.584458 ], [ 76.986435, 8.584377 ], [ 76.986048, 8.584144 ], [ 76.985831, 8.583784 ], [ 76.985745, 8.583719 ], [ 76.985805, 8.583315 ], [ 76.985805, 8.583188 ], [ 76.985694, 8.583069 ], [ 76.98557, 8.582971 ], [ 76.985525, 8.582869 ], [ 76.985489, 8.582693 ], [ 76.985455, 8.58243 ], [ 76.985479, 8.582147 ], [ 76.985519, 8.58199 ], [ 76.98583, 8.581279 ], [ 76.985903, 8.580991 ], [ 76.98592, 8.580879 ], [ 76.985909, 8.580498 ], [ 76.985938, 8.580219 ], [ 76.98603, 8.579802 ], [ 76.98613, 8.579225 ], [ 76.986205, 8.578778 ], [ 76.986251, 8.578454 ], [ 76.986505, 8.577921 ], [ 76.986607, 8.577546 ], [ 76.986662, 8.5771 ], [ 76.986843, 8.577135 ], [ 76.987311, 8.577158 ], [ 76.987719, 8.577148 ], [ 76.987764, 8.577122 ], [ 76.987788, 8.577082 ], [ 76.987846, 8.576685 ], [ 76.987891, 8.576379 ], [ 76.987933, 8.575776 ], [ 76.987952, 8.575709 ], [ 76.987985, 8.575668 ], [ 76.988477, 8.575336 ], [ 76.98869, 8.575248 ], [ 76.988853, 8.574979 ], [ 76.989028, 8.574642 ], [ 76.989273, 8.574427 ], [ 76.989694, 8.573731 ], [ 76.990101, 8.573235 ], [ 76.990119, 8.573021 ], [ 76.990165, 8.572829 ], [ 76.990252, 8.572775 ], [ 76.9904, 8.572745 ], [ 76.9905, 8.57269 ], [ 76.990568, 8.572568 ], [ 76.990559, 8.572489 ], [ 76.989925, 8.571319 ], [ 76.989919, 8.571278 ], [ 76.989947, 8.571224 ], [ 76.990108, 8.571054 ], [ 76.990157, 8.570892 ], [ 76.990134, 8.570733 ], [ 76.990084, 8.570585 ], [ 76.989931, 8.570261 ], [ 76.989884, 8.57014 ], [ 76.989757, 8.569836 ], [ 76.9897, 8.569699 ], [ 76.989938, 8.569597 ], [ 76.990044, 8.569574 ], [ 76.99011, 8.569559 ], [ 76.990872, 8.568895 ], [ 76.991225, 8.568696 ], [ 76.991618, 8.56851 ], [ 76.992633, 8.568185 ], [ 76.992833, 8.568153 ], [ 76.993599, 8.568143 ], [ 76.993999, 8.568091 ], [ 76.994121, 8.568097 ], [ 76.994651, 8.568298 ], [ 76.994769, 8.568307 ], [ 76.994882, 8.568287 ], [ 76.994989, 8.568224 ], [ 76.995329, 8.567912 ], [ 76.995459, 8.567833 ], [ 76.995514, 8.5678 ], [ 76.995867, 8.567667 ], [ 76.996108, 8.567591 ], [ 76.996299, 8.56757 ], [ 76.99642, 8.567576 ], [ 76.996563, 8.567621 ], [ 76.996788, 8.567821 ], [ 76.997133, 8.568042 ], [ 76.99723, 8.568076 ], [ 76.99737, 8.568057 ], [ 76.998017, 8.567863 ], [ 76.99898, 8.568084 ], [ 77.001104, 8.56862 ], [ 77.001637, 8.568548 ], [ 77.001739, 8.568535 ], [ 77.001994, 8.568384 ], [ 77.002064, 8.568342 ], [ 77.002567, 8.567697 ], [ 77.002834, 8.566747 ], [ 77.002877, 8.566447 ], [ 77.003113, 8.565144 ], [ 77.003458, 8.564356 ], [ 77.003752, 8.56383 ], [ 77.004071, 8.563182 ], [ 77.004515, 8.562722 ], [ 77.004573, 8.562578 ], [ 77.004676, 8.562324 ], [ 77.004833, 8.561417 ], [ 77.004868, 8.561043 ], [ 77.004504, 8.560281 ], [ 77.00419, 8.560155 ], [ 77.003844, 8.5601 ], [ 77.003386, 8.560161 ], [ 77.003243, 8.560145 ], [ 77.003136, 8.560063 ], [ 77.003045, 8.559957 ], [ 77.002978, 8.55984 ], [ 77.002967, 8.559662 ], [ 77.002937, 8.559499 ], [ 77.002971, 8.559142 ], [ 77.003169, 8.558555 ], [ 77.003224, 8.558116 ], [ 77.003213, 8.55789 ], [ 77.003177, 8.557807 ], [ 77.003104, 8.557707 ], [ 77.002759, 8.557418 ], [ 77.002689, 8.55736 ], [ 77.002489, 8.557068 ], [ 77.002185, 8.556802 ], [ 77.001805, 8.556695 ], [ 77.001661, 8.556673 ], [ 77.001355, 8.55669 ], [ 77.001122, 8.556745 ], [ 77.000952, 8.556751 ], [ 77.000832, 8.55673 ], [ 77.00025, 8.556036 ], [ 76.999999, 8.55599 ], [ 76.99971, 8.556013 ], [ 76.999472, 8.55607 ], [ 76.999307, 8.556195 ], [ 76.999163, 8.556371 ], [ 76.999137, 8.556376 ], [ 76.998556, 8.556483 ], [ 76.998448, 8.556502 ], [ 76.997641, 8.556528 ], [ 76.997232, 8.556572 ], [ 76.996857, 8.556734 ], [ 76.996716, 8.556795 ], [ 76.995303, 8.55695 ], [ 76.995136, 8.556944 ], [ 76.995028, 8.55692 ], [ 76.994929, 8.556891 ], [ 76.994854, 8.556848 ], [ 76.994826, 8.556766 ], [ 76.994832, 8.556475 ], [ 76.994894, 8.555993 ], [ 76.994885, 8.555171 ], [ 76.994951, 8.554851 ], [ 76.994987, 8.554672 ], [ 76.994945, 8.554427 ], [ 76.994834, 8.554231 ], [ 76.994628, 8.553859 ], [ 76.994419, 8.553556 ], [ 76.994371, 8.553453 ], [ 76.994269, 8.553276 ], [ 76.994126, 8.553132 ], [ 76.993504, 8.552651 ], [ 76.993126, 8.552327 ], [ 76.992984, 8.552221 ], [ 76.992799, 8.552151 ], [ 76.992555, 8.552101 ], [ 76.992069, 8.552006 ], [ 76.991921, 8.552006 ], [ 76.991819, 8.552006 ], [ 76.991636, 8.552042 ], [ 76.991518, 8.552089 ], [ 76.991434, 8.552152 ], [ 76.991392, 8.552274 ], [ 76.991378, 8.552503 ], [ 76.99133, 8.552703 ], [ 76.991258, 8.552864 ], [ 76.991179, 8.552925 ], [ 76.991082, 8.552946 ], [ 76.99096, 8.552921 ], [ 76.99079, 8.552859 ], [ 76.990187, 8.552479 ], [ 76.989905, 8.552274 ], [ 76.989788, 8.552168 ], [ 76.989478, 8.551719 ], [ 76.989257, 8.551208 ], [ 76.988933, 8.550685 ], [ 76.988866, 8.550469 ], [ 76.988699, 8.549875 ], [ 76.988573, 8.549608 ], [ 76.988359, 8.549141 ], [ 76.988267, 8.548949 ], [ 76.988041, 8.548491 ], [ 76.987771, 8.548027 ], [ 76.987656, 8.547782 ], [ 76.987565, 8.547714 ], [ 76.987349, 8.547526 ], [ 76.987001, 8.547123 ], [ 76.986935, 8.54694 ], [ 76.98687, 8.546633 ], [ 76.986855, 8.546471 ], [ 76.986855, 8.546192 ], [ 76.986883, 8.545987 ], [ 76.986933, 8.545593 ], [ 76.986958, 8.545331 ], [ 76.987017, 8.545016 ], [ 76.987154, 8.544552 ], [ 76.987255, 8.544375 ], [ 76.987517, 8.543927 ], [ 76.987724, 8.543618 ], [ 76.987953, 8.543262 ], [ 76.988157, 8.543008 ], [ 76.988433, 8.542721 ], [ 76.988602, 8.54251 ], [ 76.988897, 8.542175 ], [ 76.989164, 8.541819 ], [ 76.989225, 8.541702 ], [ 76.989228, 8.54169 ], [ 76.989371, 8.54133 ], [ 76.989406, 8.541255 ], [ 76.989552, 8.540835 ], [ 76.989564, 8.540805 ], [ 76.989614, 8.54065 ], [ 76.989638, 8.540534 ], [ 76.989798, 8.540008 ], [ 76.989912, 8.539644 ], [ 76.990025, 8.539284 ], [ 76.990052, 8.539227 ], [ 76.990112, 8.539107 ], [ 76.990225, 8.538785 ], [ 76.990331, 8.538216 ], [ 76.990367, 8.537981 ], [ 76.990408, 8.537826 ], [ 76.990463, 8.537528 ], [ 76.990507, 8.537288 ], [ 76.990737, 8.536005 ], [ 76.990884, 8.535444 ], [ 76.991001, 8.535047 ], [ 76.991081, 8.534732 ], [ 76.99121, 8.534174 ], [ 76.991275, 8.533796 ], [ 76.991295, 8.533575 ], [ 76.991156, 8.532906 ], [ 76.991039, 8.532426 ], [ 76.990667, 8.530918 ], [ 76.990624, 8.530784 ], [ 76.990521, 8.530501 ], [ 76.990314, 8.530158 ], [ 76.99016, 8.529852 ], [ 76.989933, 8.528702 ], [ 76.989793, 8.52763 ], [ 76.98971, 8.526971 ], [ 76.989554, 8.526389 ], [ 76.98913, 8.5253 ], [ 76.988965, 8.524874 ], [ 76.988623, 8.52441 ], [ 76.98849, 8.52429 ], [ 76.988437, 8.524181 ], [ 76.988245, 8.52411 ], [ 76.987751, 8.524083 ], [ 76.987106, 8.523733 ], [ 76.986934, 8.523679 ], [ 76.986755, 8.523631 ], [ 76.986648, 8.523603 ], [ 76.986044, 8.523484 ], [ 76.985809, 8.523408 ], [ 76.985314, 8.523323 ], [ 76.985054, 8.523279 ], [ 76.984648, 8.523169 ], [ 76.9845, 8.523101 ], [ 76.984478, 8.52309 ], [ 76.984171, 8.522951 ], [ 76.983826, 8.522887 ], [ 76.983635, 8.522883 ], [ 76.983288, 8.522913 ], [ 76.983158, 8.522925 ], [ 76.982932, 8.522866 ], [ 76.982705, 8.522717 ], [ 76.982028, 8.522398 ], [ 76.981832, 8.522322 ], [ 76.981629, 8.522233 ], [ 76.981314, 8.522051 ], [ 76.981116, 8.521908 ], [ 76.980902, 8.521753 ], [ 76.980874, 8.521738 ], [ 76.980538, 8.52153 ], [ 76.979925, 8.521371 ], [ 76.979411, 8.521227 ], [ 76.979283, 8.521061 ], [ 76.979286, 8.520916 ], [ 76.97955, 8.520126 ], [ 76.979506, 8.519938 ], [ 76.979491, 8.519909 ], [ 76.979378, 8.519745 ], [ 76.979274, 8.519324 ], [ 76.979267, 8.519262 ], [ 76.979367, 8.518865 ], [ 76.97952, 8.518646 ], [ 76.979986, 8.517942 ], [ 76.980008, 8.517805 ], [ 76.979931, 8.517552 ], [ 76.979925, 8.517342 ], [ 76.980058, 8.517023 ], [ 76.980206, 8.516661 ], [ 76.980485, 8.515698 ], [ 76.980495, 8.51542 ], [ 76.980223, 8.514906 ], [ 76.980034, 8.514696 ], [ 76.9798, 8.514453 ], [ 76.979619, 8.514293 ], [ 76.97955, 8.514232 ], [ 76.979191, 8.513928 ], [ 76.979058, 8.513779 ], [ 76.978746, 8.51342 ], [ 76.978554, 8.513158 ], [ 76.978257, 8.513068 ], [ 76.978214, 8.51305 ], [ 76.977698, 8.512873 ], [ 76.977666, 8.512861 ], [ 76.977279, 8.512733 ], [ 76.97669, 8.51256 ], [ 76.976537, 8.51257 ], [ 76.976687, 8.512279 ], [ 76.976679, 8.512135 ], [ 76.976628, 8.511802 ], [ 76.976544, 8.511573 ], [ 76.976443, 8.511454 ], [ 76.976173, 8.511262 ], [ 76.975949, 8.511198 ], [ 76.975625, 8.511013 ], [ 76.975333, 8.510785 ], [ 76.975206, 8.510667 ], [ 76.974853, 8.510347 ], [ 76.97454, 8.51007 ], [ 76.974492, 8.510024 ], [ 76.974237, 8.509725 ], [ 76.97403, 8.509456 ], [ 76.973951, 8.50937 ], [ 76.973801, 8.509206 ], [ 76.973654, 8.509103 ], [ 76.973474, 8.509014 ], [ 76.973212, 8.508947 ], [ 76.972975, 8.508902 ], [ 76.972521, 8.508827 ], [ 76.972189, 8.508723 ], [ 76.971646, 8.508504 ], [ 76.971562, 8.508474 ], [ 76.971219, 8.508347 ], [ 76.970961, 8.508246 ], [ 76.970865, 8.50819 ], [ 76.970734, 8.508073 ], [ 76.970622, 8.507887 ], [ 76.97053, 8.507732 ], [ 76.970196, 8.507128 ], [ 76.970134, 8.506962 ], [ 76.970079, 8.506815 ], [ 76.969992, 8.506469 ], [ 76.969877, 8.506074 ], [ 76.969782, 8.505828 ], [ 76.969676, 8.50564 ], [ 76.969392, 8.505093 ], [ 76.969178, 8.504624 ], [ 76.969024, 8.504433 ], [ 76.968942, 8.504229 ], [ 76.968864, 8.503978 ], [ 76.96881, 8.503555 ], [ 76.968771, 8.50304 ], [ 76.96867, 8.502004 ], [ 76.968579, 8.5016 ], [ 76.968466, 8.501134 ], [ 76.968377, 8.500952 ], [ 76.968209, 8.500751 ], [ 76.967795, 8.500517 ], [ 76.967619, 8.500433 ], [ 76.967336, 8.500323 ], [ 76.967081, 8.500182 ], [ 76.966999, 8.500056 ], [ 76.966882, 8.499849 ], [ 76.966788, 8.49925 ], [ 76.966803, 8.499049 ], [ 76.966858, 8.49878 ], [ 76.966868, 8.498679 ], [ 76.966785, 8.498296 ], [ 76.966575, 8.497905 ], [ 76.966482, 8.497756 ], [ 76.966438, 8.497684 ], [ 76.966351, 8.497635 ], [ 76.966299, 8.497627 ], [ 76.966137, 8.497624 ], [ 76.965676, 8.49765 ], [ 76.96529, 8.497551 ], [ 76.965244, 8.49753 ], [ 76.96506, 8.497444 ], [ 76.964906, 8.497271 ], [ 76.964748, 8.496999 ], [ 76.964516, 8.49666 ], [ 76.964462, 8.496571 ], [ 76.964434, 8.49647 ], [ 76.964434, 8.496306 ], [ 76.964485, 8.496073 ], [ 76.964508, 8.495548 ], [ 76.96449, 8.49449 ], [ 76.964495, 8.494301 ], [ 76.964438, 8.494126 ], [ 76.964349, 8.493996 ], [ 76.964247, 8.493945 ], [ 76.964109, 8.493915 ], [ 76.963947, 8.493923 ], [ 76.96375, 8.493904 ], [ 76.963604, 8.493864 ], [ 76.963494, 8.493781 ], [ 76.963443, 8.49368 ], [ 76.963422, 8.493233 ], [ 76.963398, 8.492673 ], [ 76.96339, 8.492535 ], [ 76.9633, 8.492176 ], [ 76.963203, 8.491918 ], [ 76.963113, 8.491691 ], [ 76.963012, 8.491436 ], [ 76.962908, 8.49125 ], [ 76.962747, 8.491159 ], [ 76.962551, 8.491149 ], [ 76.962505, 8.491178 ], [ 76.962221, 8.491591 ], [ 76.962168, 8.49164 ], [ 76.962121, 8.491667 ], [ 76.962054, 8.491677 ], [ 76.961924, 8.49165 ], [ 76.961352, 8.491526 ], [ 76.961243, 8.49147 ], [ 76.96122, 8.491126 ], [ 76.961217, 8.489908 ], [ 76.961258, 8.489632 ], [ 76.961374, 8.489297 ], [ 76.961512, 8.488899 ], [ 76.961536, 8.488763 ], [ 76.961578, 8.488541 ], [ 76.961548, 8.48831 ], [ 76.961457, 8.488077 ], [ 76.961352, 8.487887 ], [ 76.961267, 8.487653 ], [ 76.961231, 8.487501 ], [ 76.961161, 8.487171 ], [ 76.961141, 8.486842 ], [ 76.961092, 8.486723 ], [ 76.96102, 8.486606 ], [ 76.96098, 8.486554 ], [ 76.96091, 8.48646 ], [ 76.960732, 8.486238 ], [ 76.960686, 8.486143 ], [ 76.960664, 8.485818 ], [ 76.960663, 8.485651 ], [ 76.960646, 8.485362 ], [ 76.960595, 8.484937 ], [ 76.960442, 8.484737 ], [ 76.96035, 8.48458 ], [ 76.960206, 8.484201 ], [ 76.960169, 8.484064 ], [ 76.960101, 8.48393 ], [ 76.960066, 8.483898 ], [ 76.959953, 8.483813 ], [ 76.959657, 8.483539 ], [ 76.95937, 8.483238 ], [ 76.959257, 8.483176 ], [ 76.959059, 8.483111 ], [ 76.958813, 8.483088 ], [ 76.958413, 8.483132 ], [ 76.95814, 8.483293 ], [ 76.95802, 8.483342 ], [ 76.957893, 8.483365 ], [ 76.957683, 8.483471 ], [ 76.957372, 8.483525 ], [ 76.957322, 8.48203 ], [ 76.957342, 8.4819 ], [ 76.957401, 8.4818 ], [ 76.957458, 8.481759 ], [ 76.957483, 8.481678 ], [ 76.957474, 8.481637 ], [ 76.957416, 8.481575 ], [ 76.957338, 8.481563 ], [ 76.95732, 8.481503 ], [ 76.956983, 8.481115 ], [ 76.95671, 8.480821 ], [ 76.956107, 8.480215 ], [ 76.955833, 8.479973 ], [ 76.955445, 8.479737 ], [ 76.955231, 8.479649 ], [ 76.95448, 8.479597 ], [ 76.954078, 8.479569 ], [ 76.953632, 8.479522 ], [ 76.952827, 8.479471 ], [ 76.952642, 8.47917 ], [ 76.952393, 8.478751 ], [ 76.952218, 8.478462 ], [ 76.952158, 8.478364 ], [ 76.952016, 8.478128 ], [ 76.951537, 8.477337 ], [ 76.951508, 8.47729 ], [ 76.951401, 8.477107 ], [ 76.951022, 8.476486 ], [ 76.950851, 8.476205 ], [ 76.95079, 8.476133 ], [ 76.951038, 8.475781 ], [ 76.950855, 8.475356 ], [ 76.950826, 8.4753 ], [ 76.950768, 8.475237 ], [ 76.950097, 8.474844 ], [ 76.949995, 8.474792 ], [ 76.949905, 8.474729 ], [ 76.949714, 8.474632 ], [ 76.949344, 8.474417 ], [ 76.949202, 8.474358 ], [ 76.949, 8.474265 ], [ 76.948727, 8.474173 ], [ 76.948384, 8.473964 ], [ 76.947906, 8.473647 ], [ 76.947564, 8.473461 ], [ 76.947685, 8.4732 ], [ 76.947892, 8.472687 ], [ 76.947908, 8.472647 ], [ 76.947951, 8.472523 ], [ 76.948022, 8.472172 ], [ 76.948085, 8.471999 ], [ 76.94817, 8.471695 ], [ 76.948251, 8.471372 ], [ 76.948263, 8.471236 ], [ 76.94827, 8.471158 ], [ 76.948208, 8.470513 ], [ 76.948154, 8.470077 ], [ 76.948151, 8.469874 ], [ 76.948137, 8.469595 ], [ 76.948083, 8.469041 ], [ 76.948063, 8.468864 ], [ 76.94807, 8.468619 ], [ 76.9481, 8.468407 ], [ 76.948212, 8.467617 ], [ 76.948245, 8.467419 ], [ 76.948304, 8.467105 ], [ 76.948349, 8.466872 ], [ 76.948379, 8.466709 ], [ 76.948497, 8.466303 ], [ 76.94862, 8.465945 ], [ 76.94866, 8.465831 ], [ 76.948845, 8.465324 ], [ 76.949064, 8.46475 ], [ 76.949083, 8.464701 ], [ 76.949341, 8.464055 ], [ 76.949588, 8.463588 ], [ 76.949775, 8.463139 ], [ 76.949842, 8.46295 ], [ 76.949895, 8.462773 ], [ 76.949968, 8.462597 ], [ 76.950035, 8.462445 ], [ 76.950167, 8.462044 ], [ 76.95021, 8.461862 ], [ 76.950296, 8.461424 ], [ 76.950318, 8.460967 ], [ 76.950355, 8.460786 ], [ 76.950393, 8.460597 ], [ 76.950498, 8.460087 ], [ 76.950518, 8.459996 ], [ 76.950583, 8.459645 ], [ 76.950606, 8.459439 ], [ 76.950587, 8.459249 ], [ 76.950582, 8.458815 ], [ 76.950629, 8.458571 ], [ 76.95067, 8.45847 ], [ 76.950703, 8.458329 ], [ 76.950707, 8.458227 ], [ 76.950649, 8.457965 ], [ 76.950539, 8.457641 ], [ 76.950459, 8.457443 ], [ 76.950348, 8.457174 ], [ 76.950129, 8.456605 ], [ 76.949918, 8.456039 ], [ 76.949896, 8.455974 ], [ 76.949898, 8.455789 ], [ 76.949978, 8.455433 ], [ 76.950102, 8.455022 ], [ 76.950151, 8.454854 ], [ 76.950157, 8.454834 ], [ 76.950258, 8.454493 ], [ 76.950329, 8.454252 ], [ 76.95038, 8.454102 ], [ 76.950553, 8.453528 ], [ 76.950748, 8.453126 ], [ 76.950763, 8.453095 ], [ 76.950843, 8.452986 ], [ 76.950985, 8.452718 ], [ 76.951391, 8.452418 ], [ 76.951817, 8.452038 ], [ 76.952027, 8.451754 ], [ 76.95211, 8.451641 ], [ 76.95228, 8.451289 ], [ 76.952285, 8.45128 ], [ 76.952305, 8.450964 ], [ 76.952296, 8.450808 ], [ 76.952226, 8.450308 ], [ 76.952194, 8.450104 ], [ 76.952155, 8.449855 ], [ 76.95189, 8.448543 ], [ 76.951862, 8.448398 ], [ 76.951783, 8.447176 ], [ 76.951794, 8.446846 ], [ 76.95179, 8.446001 ], [ 76.951806, 8.44586 ], [ 76.951807, 8.44566 ], [ 76.951856, 8.445352 ], [ 76.951901, 8.445179 ], [ 76.952309, 8.443919 ], [ 76.952501, 8.443275 ], [ 76.952497, 8.443192 ], [ 76.952477, 8.443051 ], [ 76.952743, 8.442778 ], [ 76.953739, 8.442015 ], [ 76.954141, 8.441681 ] ] } }
]
}
