{
"type": "FeatureCollection",
"name": "panachamoodu public market ",
"crs": { "type": "name", "properties": { "name": "urn:ogc:def:crs:OGC:1.3:CRS84" } },
"features": [
{ "type": "Feature", "properties": { "DIST_KM": 36.623, "DURATION_H": 0.561, "PROFILE": "driving-car", "PREF": "fastest", "OPTIONS": { }, "FROM_ID": null, "TO_ID": null }, "geometry": { "type": "LineString", "coordinates": [ [ 77.194184, 8.428891 ], [ 77.194354, 8.428901 ], [ 77.194575, 8.428833 ], [ 77.194961, 8.428713 ], [ 77.195022, 8.428695 ], [ 77.195493, 8.428726 ], [ 77.195485, 8.428826 ], [ 77.195498, 8.429193 ], [ 77.195526, 8.429745 ], [ 77.195558, 8.429994 ], [ 77.195567, 8.430062 ], [ 77.195615, 8.430156 ], [ 77.19571, 8.430339 ], [ 77.196044, 8.430601 ], [ 77.196558, 8.430959 ], [ 77.196734, 8.431081 ], [ 77.196984, 8.431181 ], [ 77.19743, 8.431252 ], [ 77.197588, 8.431482 ], [ 77.197626, 8.431567 ], [ 77.197811, 8.432001 ], [ 77.197827, 8.432038 ], [ 77.197849, 8.432263 ], [ 77.197842, 8.432545 ], [ 77.197812, 8.432725 ], [ 77.197753, 8.432884 ], [ 77.197692, 8.433036 ], [ 77.197585, 8.43332 ], [ 77.197514, 8.433507 ], [ 77.197383, 8.433955 ], [ 77.197339, 8.434029 ], [ 77.196728, 8.435027 ], [ 77.196406, 8.43558 ], [ 77.19632, 8.435755 ], [ 77.196115, 8.436169 ], [ 77.196061, 8.436511 ], [ 77.196072, 8.436574 ], [ 77.196216, 8.4373 ], [ 77.196224, 8.437447 ], [ 77.196233, 8.437615 ], [ 77.19624, 8.437747 ], [ 77.19624, 8.437831 ], [ 77.196133, 8.438122 ], [ 77.196065, 8.438301 ], [ 77.195956, 8.438576 ], [ 77.195808, 8.438848 ], [ 77.195766, 8.438921 ], [ 77.195496, 8.439296 ], [ 77.195318, 8.439447 ], [ 77.195146, 8.439712 ], [ 77.195101, 8.439818 ], [ 77.19506, 8.439872 ], [ 77.195018, 8.440158 ], [ 77.195141, 8.44052 ], [ 77.195191, 8.440747 ], [ 77.195228, 8.441001 ], [ 77.195298, 8.441789 ], [ 77.195306, 8.441878 ], [ 77.19559, 8.442317 ], [ 77.195627, 8.442439 ], [ 77.195611, 8.44288 ], [ 77.195644, 8.443138 ], [ 77.19567, 8.443341 ], [ 77.195657, 8.443399 ], [ 77.19562, 8.443569 ], [ 77.195452, 8.443947 ], [ 77.195399, 8.444067 ], [ 77.195226, 8.444456 ], [ 77.195074, 8.444727 ], [ 77.195012, 8.444771 ], [ 77.194695, 8.444998 ], [ 77.194634, 8.445109 ], [ 77.194624, 8.445268 ], [ 77.19477, 8.44556 ], [ 77.194942, 8.445774 ], [ 77.19499, 8.446017 ], [ 77.194973, 8.446604 ], [ 77.194979, 8.446848 ], [ 77.195093, 8.447184 ], [ 77.19518, 8.447437 ], [ 77.195349, 8.447907 ], [ 77.195342, 8.448306 ], [ 77.19513, 8.448597 ], [ 77.194763, 8.448709 ], [ 77.19413, 8.448779 ], [ 77.194089, 8.448798 ], [ 77.194055, 8.448841 ], [ 77.194001, 8.448872 ], [ 77.193955, 8.448925 ], [ 77.193955, 8.449125 ], [ 77.194003, 8.449225 ], [ 77.194167, 8.449574 ], [ 77.194915, 8.451055 ], [ 77.194964, 8.451228 ], [ 77.194897, 8.451566 ], [ 77.194883, 8.451828 ], [ 77.194771, 8.45277 ], [ 77.194806, 8.453018 ], [ 77.194937, 8.453572 ], [ 77.195006, 8.453729 ], [ 77.195063, 8.45385 ], [ 77.195121, 8.454463 ], [ 77.195198, 8.454762 ], [ 77.195408, 8.455192 ], [ 77.195445, 8.45535 ], [ 77.195427, 8.45551 ], [ 77.195313, 8.45588 ], [ 77.195272, 8.45626 ], [ 77.195292, 8.456621 ], [ 77.195278, 8.456882 ], [ 77.195263, 8.457172 ], [ 77.195096, 8.457585 ], [ 77.194994, 8.457738 ], [ 77.194718, 8.458055 ], [ 77.194014, 8.458694 ], [ 77.193652, 8.459003 ], [ 77.193201, 8.459318 ], [ 77.192705, 8.459625 ], [ 77.192584, 8.459768 ], [ 77.192501, 8.459986 ], [ 77.192409, 8.460171 ], [ 77.192271, 8.460308 ], [ 77.192028, 8.460461 ], [ 77.191597, 8.460691 ], [ 77.191469, 8.460789 ], [ 77.191143, 8.461355 ], [ 77.190933, 8.46156 ], [ 77.190575, 8.461634 ], [ 77.190328, 8.461658 ], [ 77.190153, 8.461713 ], [ 77.189943, 8.461827 ], [ 77.189868, 8.461949 ], [ 77.189819, 8.462087 ], [ 77.189742, 8.462175 ], [ 77.189354, 8.462402 ], [ 77.189183, 8.462539 ], [ 77.189065, 8.462666 ], [ 77.188891, 8.463094 ], [ 77.188846, 8.463857 ], [ 77.188763, 8.46402 ], [ 77.188745, 8.464174 ], [ 77.18866, 8.464462 ], [ 77.188849, 8.465256 ], [ 77.188771, 8.465669 ], [ 77.188743, 8.46582 ], [ 77.188768, 8.466144 ], [ 77.189341, 8.4676 ], [ 77.189345, 8.46761 ], [ 77.189387, 8.467721 ], [ 77.189412, 8.467788 ], [ 77.189668, 8.468439 ], [ 77.189681, 8.468549 ], [ 77.189642, 8.468645 ], [ 77.18947, 8.468738 ], [ 77.189282, 8.468809 ], [ 77.189125, 8.468968 ], [ 77.189107, 8.469236 ], [ 77.189121, 8.469411 ], [ 77.189261, 8.469851 ], [ 77.189504, 8.47026 ], [ 77.189663, 8.470561 ], [ 77.189655, 8.470731 ], [ 77.189504, 8.470943 ], [ 77.189415, 8.471136 ], [ 77.189446, 8.471291 ], [ 77.189538, 8.471403 ], [ 77.1897, 8.471524 ], [ 77.189771, 8.471695 ], [ 77.18981, 8.471932 ], [ 77.189674, 8.472309 ], [ 77.189623, 8.472404 ], [ 77.189203, 8.47315 ], [ 77.189032, 8.473419 ], [ 77.188914, 8.473542 ], [ 77.188759, 8.473604 ], [ 77.188638, 8.473629 ], [ 77.188523, 8.473709 ], [ 77.188428, 8.473848 ], [ 77.188311, 8.474095 ], [ 77.187793, 8.475351 ], [ 77.187507, 8.475944 ], [ 77.187346, 8.476436 ], [ 77.187275, 8.476684 ], [ 77.18723, 8.476784 ], [ 77.187134, 8.476932 ], [ 77.186938, 8.477233 ], [ 77.186752, 8.477433 ], [ 77.186625, 8.477545 ], [ 77.186175, 8.477968 ], [ 77.185891, 8.478101 ], [ 77.185752, 8.478228 ], [ 77.185591, 8.478336 ], [ 77.185529, 8.478485 ], [ 77.185484, 8.478649 ], [ 77.185393, 8.47878 ], [ 77.184941, 8.479109 ], [ 77.184645, 8.479268 ], [ 77.184404, 8.479305 ], [ 77.184193, 8.479425 ], [ 77.1838, 8.479851 ], [ 77.183134, 8.480717 ], [ 77.183107, 8.480782 ], [ 77.183137, 8.481071 ], [ 77.183111, 8.481146 ], [ 77.182846, 8.481352 ], [ 77.182763, 8.48145 ], [ 77.182606, 8.481876 ], [ 77.182538, 8.481957 ], [ 77.182135, 8.482225 ], [ 77.181767, 8.482565 ], [ 77.181526, 8.482698 ], [ 77.18139, 8.482749 ], [ 77.181127, 8.482806 ], [ 77.18023, 8.483098 ], [ 77.180065, 8.483203 ], [ 77.17994, 8.483294 ], [ 77.179621, 8.483588 ], [ 77.179478, 8.4837 ], [ 77.179207, 8.483817 ], [ 77.179002, 8.483966 ], [ 77.178787, 8.484166 ], [ 77.178571, 8.484432 ], [ 77.178426, 8.484556 ], [ 77.178168, 8.484661 ], [ 77.177926, 8.484788 ], [ 77.177423, 8.485211 ], [ 77.177276, 8.485427 ], [ 77.177262, 8.485569 ], [ 77.177285, 8.485766 ], [ 77.177273, 8.48596 ], [ 77.177242, 8.486106 ], [ 77.177132, 8.486263 ], [ 77.176976, 8.486306 ], [ 77.176572, 8.486486 ], [ 77.176081, 8.486763 ], [ 77.175936, 8.486789 ], [ 77.175825, 8.486794 ], [ 77.175574, 8.486639 ], [ 77.175426, 8.486574 ], [ 77.175274, 8.486546 ], [ 77.175136, 8.486565 ], [ 77.174868, 8.486667 ], [ 77.174334, 8.487081 ], [ 77.174179, 8.487268 ], [ 77.174111, 8.487468 ], [ 77.174053, 8.487782 ], [ 77.173891, 8.487987 ], [ 77.173328, 8.488415 ], [ 77.17299, 8.488817 ], [ 77.172726, 8.489489 ], [ 77.172101, 8.490324 ], [ 77.171886, 8.490662 ], [ 77.171623, 8.491222 ], [ 77.171404, 8.491725 ], [ 77.171271, 8.491971 ], [ 77.171062, 8.492146 ], [ 77.170713, 8.492505 ], [ 77.170512, 8.492789 ], [ 77.170416, 8.493022 ], [ 77.170054, 8.49343 ], [ 77.169982, 8.493556 ], [ 77.169965, 8.493714 ], [ 77.169978, 8.494003 ], [ 77.169966, 8.494098 ], [ 77.169755, 8.494555 ], [ 77.169714, 8.494605 ], [ 77.169656, 8.49463 ], [ 77.168932, 8.494727 ], [ 77.168678, 8.494939 ], [ 77.168502, 8.495121 ], [ 77.168405, 8.495308 ], [ 77.168303, 8.495564 ], [ 77.168343, 8.495714 ], [ 77.168334, 8.495769 ], [ 77.168286, 8.495827 ], [ 77.168199, 8.495878 ], [ 77.168088, 8.495916 ], [ 77.167838, 8.496114 ], [ 77.167693, 8.496189 ], [ 77.167601, 8.496202 ], [ 77.167558, 8.496251 ], [ 77.167542, 8.496318 ], [ 77.16761, 8.496524 ], [ 77.167579, 8.496631 ], [ 77.167526, 8.496717 ], [ 77.167232, 8.496911 ], [ 77.167106, 8.497022 ], [ 77.167036, 8.497115 ], [ 77.166748, 8.498004 ], [ 77.166647, 8.498112 ], [ 77.166473, 8.498148 ], [ 77.166348, 8.498127 ], [ 77.166232, 8.498149 ], [ 77.166155, 8.498214 ], [ 77.166066, 8.498334 ], [ 77.165956, 8.498564 ], [ 77.165794, 8.498821 ], [ 77.165502, 8.499147 ], [ 77.165143, 8.499436 ], [ 77.164924, 8.499775 ], [ 77.164804, 8.499881 ], [ 77.16426, 8.500179 ], [ 77.163594, 8.50039 ], [ 77.163112, 8.500446 ], [ 77.162996, 8.500482 ], [ 77.162911, 8.500535 ], [ 77.162696, 8.500752 ], [ 77.162539, 8.500927 ], [ 77.16243, 8.501092 ], [ 77.162316, 8.50151 ], [ 77.161971, 8.502213 ], [ 77.161879, 8.502339 ], [ 77.161833, 8.502402 ], [ 77.161734, 8.502474 ], [ 77.161299, 8.502536 ], [ 77.161173, 8.502593 ], [ 77.160922, 8.50277 ], [ 77.160627, 8.503124 ], [ 77.160247, 8.503932 ], [ 77.160204, 8.504085 ], [ 77.160165, 8.504308 ], [ 77.160134, 8.504628 ], [ 77.160075, 8.50481 ], [ 77.159986, 8.504932 ], [ 77.159747, 8.505135 ], [ 77.159512, 8.5053 ], [ 77.159367, 8.505479 ], [ 77.159246, 8.505682 ], [ 77.15913, 8.505792 ], [ 77.158659, 8.505981 ], [ 77.158514, 8.506094 ], [ 77.158077, 8.50629 ], [ 77.157656, 8.506404 ], [ 77.157602, 8.506421 ], [ 77.157219, 8.506648 ], [ 77.156954, 8.506716 ], [ 77.156735, 8.506731 ], [ 77.156476, 8.50672 ], [ 77.156293, 8.50667 ], [ 77.156126, 8.50656 ], [ 77.155944, 8.506465 ], [ 77.155697, 8.506406 ], [ 77.155597, 8.506405 ], [ 77.155106, 8.50665 ], [ 77.154738, 8.506693 ], [ 77.154322, 8.506813 ], [ 77.154198, 8.506822 ], [ 77.15412, 8.506766 ], [ 77.153707, 8.506645 ], [ 77.153638, 8.506624 ], [ 77.153406, 8.5066 ], [ 77.153229, 8.506624 ], [ 77.153031, 8.506691 ], [ 77.15295, 8.506792 ], [ 77.152818, 8.506992 ], [ 77.152656, 8.5071 ], [ 77.152333, 8.507208 ], [ 77.151402, 8.507473 ], [ 77.150962, 8.507645 ], [ 77.15074, 8.507696 ], [ 77.150428, 8.5077 ], [ 77.150024, 8.507882 ], [ 77.149896, 8.507916 ], [ 77.149447, 8.507955 ], [ 77.149265, 8.508087 ], [ 77.149206, 8.508203 ], [ 77.149063, 8.508334 ], [ 77.148987, 8.508594 ], [ 77.148986, 8.50869 ], [ 77.149033, 8.508836 ], [ 77.149189, 8.509189 ], [ 77.149226, 8.509335 ], [ 77.149225, 8.50952 ], [ 77.148863, 8.510954 ], [ 77.148786, 8.511035 ], [ 77.148668, 8.511126 ], [ 77.14861, 8.511215 ], [ 77.148583, 8.511363 ], [ 77.148572, 8.511776 ], [ 77.148511, 8.511953 ], [ 77.148358, 8.512295 ], [ 77.14833, 8.512395 ], [ 77.148312, 8.512572 ], [ 77.148339, 8.512926 ], [ 77.148305, 8.513142 ], [ 77.148233, 8.513231 ], [ 77.148121, 8.513304 ], [ 77.147802, 8.513376 ], [ 77.147716, 8.513454 ], [ 77.147621, 8.513572 ], [ 77.147389, 8.51437 ], [ 77.147344, 8.51446 ], [ 77.147291, 8.514497 ], [ 77.147232, 8.514538 ], [ 77.146734, 8.514746 ], [ 77.146656, 8.514798 ], [ 77.14661, 8.514875 ], [ 77.146441, 8.515322 ], [ 77.146332, 8.515422 ], [ 77.146062, 8.515566 ], [ 77.14595, 8.51574 ], [ 77.145859, 8.515925 ], [ 77.145823, 8.515998 ], [ 77.145757, 8.516132 ], [ 77.145696, 8.516213 ], [ 77.145607, 8.516274 ], [ 77.145206, 8.516284 ], [ 77.144862, 8.516186 ], [ 77.14478, 8.516178 ], [ 77.144732, 8.516198 ], [ 77.144691, 8.51624 ], [ 77.144592, 8.517158 ], [ 77.144553, 8.517385 ], [ 77.144412, 8.517744 ], [ 77.144332, 8.517833 ], [ 77.144225, 8.517922 ], [ 77.144095, 8.517941 ], [ 77.143951, 8.517909 ], [ 77.143814, 8.517897 ], [ 77.143698, 8.517929 ], [ 77.143603, 8.51799 ], [ 77.143539, 8.518098 ], [ 77.143546, 8.518617 ], [ 77.143529, 8.518719 ], [ 77.143495, 8.518813 ], [ 77.143433, 8.518888 ], [ 77.143201, 8.518945 ], [ 77.142949, 8.518902 ], [ 77.142854, 8.51894 ], [ 77.142661, 8.519275 ], [ 77.14242, 8.519498 ], [ 77.142156, 8.519696 ], [ 77.141943, 8.519782 ], [ 77.141592, 8.519793 ], [ 77.141275, 8.519804 ], [ 77.141148, 8.519846 ], [ 77.140814, 8.52008 ], [ 77.140652, 8.520353 ], [ 77.140572, 8.520642 ], [ 77.140455, 8.52084 ], [ 77.140348, 8.520911 ], [ 77.139768, 8.521052 ], [ 77.139645, 8.521072 ], [ 77.139493, 8.521062 ], [ 77.138767, 8.520905 ], [ 77.137462, 8.520781 ], [ 77.136934, 8.52067 ], [ 77.136365, 8.520516 ], [ 77.135996, 8.520467 ], [ 77.135814, 8.520428 ], [ 77.135688, 8.52037 ], [ 77.13557, 8.520337 ], [ 77.135086, 8.520277 ], [ 77.134951, 8.520205 ], [ 77.134784, 8.520058 ], [ 77.134693, 8.519997 ], [ 77.134078, 8.51987 ], [ 77.133736, 8.519818 ], [ 77.133093, 8.519764 ], [ 77.132931, 8.519761 ], [ 77.132582, 8.519725 ], [ 77.132063, 8.519699 ], [ 77.131922, 8.519727 ], [ 77.131555, 8.519867 ], [ 77.131352, 8.520052 ], [ 77.131308, 8.520187 ], [ 77.131345, 8.520313 ], [ 77.131543, 8.520625 ], [ 77.131572, 8.5207 ], [ 77.131515, 8.521237 ], [ 77.131458, 8.521427 ], [ 77.131163, 8.521791 ], [ 77.131117, 8.521874 ], [ 77.131108, 8.521997 ], [ 77.131119, 8.522356 ], [ 77.131081, 8.522574 ], [ 77.1308, 8.523174 ], [ 77.13074, 8.523243 ], [ 77.130665, 8.5233 ], [ 77.130345, 8.523483 ], [ 77.130125, 8.523658 ], [ 77.130008, 8.523774 ], [ 77.129917, 8.523929 ], [ 77.129871, 8.524044 ], [ 77.12983, 8.524371 ], [ 77.129801, 8.524491 ], [ 77.129742, 8.524603 ], [ 77.129704, 8.524658 ], [ 77.129619, 8.524748 ], [ 77.129194, 8.524956 ], [ 77.128956, 8.525117 ], [ 77.128539, 8.525431 ], [ 77.128417, 8.525536 ], [ 77.12825, 8.525716 ], [ 77.128206, 8.525852 ], [ 77.128132, 8.525944 ], [ 77.128193, 8.526091 ], [ 77.128209, 8.526292 ], [ 77.128293, 8.526632 ], [ 77.128311, 8.526784 ], [ 77.128374, 8.526936 ], [ 77.128524, 8.527133 ], [ 77.128797, 8.527445 ], [ 77.128968, 8.52764 ], [ 77.12907, 8.527914 ], [ 77.129108, 8.52803 ], [ 77.129157, 8.528361 ], [ 77.129083, 8.528746 ], [ 77.128975, 8.529013 ], [ 77.128741, 8.529313 ], [ 77.128503, 8.52948 ], [ 77.128326, 8.529528 ], [ 77.127882, 8.529646 ], [ 77.127205, 8.529809 ], [ 77.126993, 8.529931 ], [ 77.126464, 8.530333 ], [ 77.126142, 8.530504 ], [ 77.125408, 8.530552 ], [ 77.125058, 8.530505 ], [ 77.124852, 8.530464 ], [ 77.12448, 8.530454 ], [ 77.124321, 8.530413 ], [ 77.124128, 8.53052 ], [ 77.123613, 8.530765 ], [ 77.123059, 8.531014 ], [ 77.122966, 8.531056 ], [ 77.122722, 8.531116 ], [ 77.12257, 8.531199 ], [ 77.122418, 8.531348 ], [ 77.122316, 8.531474 ], [ 77.12221, 8.531682 ], [ 77.122146, 8.531893 ], [ 77.122126, 8.532162 ], [ 77.122094, 8.532254 ], [ 77.12183, 8.532683 ], [ 77.121776, 8.532902 ], [ 77.121656, 8.533626 ], [ 77.121634, 8.533897 ], [ 77.121606, 8.534045 ], [ 77.121543, 8.53418 ], [ 77.121475, 8.534285 ], [ 77.121298, 8.53443 ], [ 77.121113, 8.534834 ], [ 77.120717, 8.535335 ], [ 77.120642, 8.535401 ], [ 77.120364, 8.535644 ], [ 77.120225, 8.535804 ], [ 77.120143, 8.535958 ], [ 77.120037, 8.536205 ], [ 77.12, 8.536372 ], [ 77.119935, 8.537029 ], [ 77.119817, 8.537188 ], [ 77.119629, 8.537392 ], [ 77.119572, 8.537524 ], [ 77.119289, 8.537948 ], [ 77.118972, 8.538275 ], [ 77.118843, 8.538591 ], [ 77.118786, 8.538794 ], [ 77.118652, 8.539133 ], [ 77.118621, 8.539274 ], [ 77.118616, 8.539428 ], [ 77.118659, 8.539626 ], [ 77.118643, 8.539823 ], [ 77.11834, 8.540313 ], [ 77.118249, 8.54049 ], [ 77.118122, 8.540822 ], [ 77.118104, 8.541056 ], [ 77.118115, 8.541263 ], [ 77.118156, 8.541492 ], [ 77.118158, 8.541723 ], [ 77.118129, 8.541839 ], [ 77.117769, 8.542538 ], [ 77.117731, 8.542658 ], [ 77.117712, 8.543094 ], [ 77.117669, 8.543208 ], [ 77.117628, 8.543271 ], [ 77.117549, 8.54332 ], [ 77.117326, 8.543419 ], [ 77.117289, 8.543471 ], [ 77.117259, 8.543513 ], [ 77.117207, 8.543707 ], [ 77.117325, 8.544155 ], [ 77.117323, 8.544243 ], [ 77.117273, 8.544695 ], [ 77.117286, 8.544828 ], [ 77.117334, 8.545 ], [ 77.117359, 8.545224 ], [ 77.117329, 8.546445 ], [ 77.117336, 8.546702 ], [ 77.117284, 8.546946 ], [ 77.116935, 8.547747 ], [ 77.11691, 8.547944 ], [ 77.116913, 8.548172 ], [ 77.11697, 8.548346 ], [ 77.117057, 8.548476 ], [ 77.11715, 8.548568 ], [ 77.117272, 8.548739 ], [ 77.117307, 8.548853 ], [ 77.117209, 8.549548 ], [ 77.117171, 8.549664 ], [ 77.116977, 8.550022 ], [ 77.116584, 8.550958 ], [ 77.116465, 8.551326 ], [ 77.116124, 8.551833 ], [ 77.116075, 8.551959 ], [ 77.116069, 8.552048 ], [ 77.115892, 8.55258 ], [ 77.11586, 8.552776 ], [ 77.115816, 8.55287 ], [ 77.11538, 8.553207 ], [ 77.115127, 8.553429 ], [ 77.114945, 8.553617 ], [ 77.114691, 8.553898 ], [ 77.114387, 8.554478 ], [ 77.113916, 8.555457 ], [ 77.113791, 8.555812 ], [ 77.113638, 8.556069 ], [ 77.113544, 8.556187 ], [ 77.113323, 8.556467 ], [ 77.113036, 8.55677 ], [ 77.112202, 8.557545 ], [ 77.11197, 8.557702 ], [ 77.111916, 8.557725 ], [ 77.110247, 8.558482 ], [ 77.10951, 8.558831 ], [ 77.109363, 8.558922 ], [ 77.10894, 8.559369 ], [ 77.108386, 8.560019 ], [ 77.108021, 8.560345 ], [ 77.107793, 8.560675 ], [ 77.107723, 8.560757 ], [ 77.107635, 8.560816 ], [ 77.107556, 8.560824 ], [ 77.10721, 8.560763 ], [ 77.107104, 8.560768 ], [ 77.106957, 8.560811 ], [ 77.106601, 8.561005 ], [ 77.106146, 8.561381 ], [ 77.106022, 8.561432 ], [ 77.105834, 8.56146 ], [ 77.105708, 8.561508 ], [ 77.105393, 8.561718 ], [ 77.105006, 8.562034 ], [ 77.104926, 8.562189 ], [ 77.104844, 8.562289 ], [ 77.10462, 8.562434 ], [ 77.104352, 8.562557 ], [ 77.104235, 8.56261 ], [ 77.104107, 8.562696 ], [ 77.103984, 8.562802 ], [ 77.103862, 8.562927 ], [ 77.103729, 8.563119 ], [ 77.103458, 8.563333 ], [ 77.103335, 8.56352 ], [ 77.103208, 8.563939 ], [ 77.10314, 8.564036 ], [ 77.102853, 8.564263 ], [ 77.102807, 8.564338 ], [ 77.102766, 8.564457 ], [ 77.102734, 8.564643 ], [ 77.102731, 8.565197 ], [ 77.102755, 8.565625 ], [ 77.10273, 8.565777 ], [ 77.102642, 8.565916 ], [ 77.102279, 8.566389 ], [ 77.102033, 8.56668 ], [ 77.101629, 8.567162 ], [ 77.101531, 8.56724 ], [ 77.10144, 8.567266 ], [ 77.101142, 8.56735 ], [ 77.10086, 8.567458 ], [ 77.100685, 8.567581 ], [ 77.100644, 8.567655 ], [ 77.10063, 8.567749 ], [ 77.100628, 8.567879 ], [ 77.100648, 8.568064 ], [ 77.100712, 8.568279 ], [ 77.100963, 8.568889 ], [ 77.101058, 8.569288 ], [ 77.101099, 8.569529 ], [ 77.101177, 8.570277 ], [ 77.101194, 8.57045 ], [ 77.101197, 8.57071 ], [ 77.101193, 8.570821 ], [ 77.101156, 8.570997 ], [ 77.101081, 8.571149 ], [ 77.100972, 8.571322 ], [ 77.100731, 8.571611 ], [ 77.100678, 8.571718 ], [ 77.100576, 8.572025 ], [ 77.10049, 8.572417 ], [ 77.100493, 8.572486 ], [ 77.100517, 8.572706 ], [ 77.100648, 8.573042 ], [ 77.100918, 8.573443 ], [ 77.100997, 8.573587 ], [ 77.101011, 8.573826 ], [ 77.100975, 8.573952 ], [ 77.100973, 8.574178 ], [ 77.101047, 8.574471 ], [ 77.10116, 8.57476 ], [ 77.101274, 8.574971 ], [ 77.101317, 8.575087 ], [ 77.101344, 8.575231 ], [ 77.101322, 8.57534 ], [ 77.100613, 8.57612 ], [ 77.100479, 8.576191 ], [ 77.10037, 8.576219 ], [ 77.100165, 8.576223 ], [ 77.099613, 8.576043 ], [ 77.098733, 8.575906 ], [ 77.09861, 8.575894 ], [ 77.098448, 8.575903 ], [ 77.098345, 8.575944 ], [ 77.098115, 8.576147 ], [ 77.097967, 8.576245 ], [ 77.09748, 8.576425 ], [ 77.097268, 8.576451 ], [ 77.096836, 8.57647 ], [ 77.096388, 8.576463 ], [ 77.095702, 8.576394 ], [ 77.095084, 8.576245 ], [ 77.0949, 8.576168 ], [ 77.094786, 8.576067 ], [ 77.094652, 8.575644 ], [ 77.094529, 8.575562 ], [ 77.09437, 8.575575 ], [ 77.094225, 8.575624 ], [ 77.094004, 8.575621 ], [ 77.093847, 8.575602 ], [ 77.09361, 8.575522 ], [ 77.093434, 8.575415 ], [ 77.093033, 8.575323 ], [ 77.092892, 8.575256 ], [ 77.092696, 8.575105 ], [ 77.092497, 8.574953 ], [ 77.092383, 8.574933 ], [ 77.092194, 8.574961 ], [ 77.091684, 8.57521 ], [ 77.091528, 8.575196 ], [ 77.091345, 8.57512 ], [ 77.091172, 8.575009 ], [ 77.091066, 8.574974 ], [ 77.091028, 8.574962 ], [ 77.090916, 8.574968 ], [ 77.090579, 8.575069 ], [ 77.090403, 8.575091 ], [ 77.09023, 8.575079 ], [ 77.089982, 8.57507 ], [ 77.0899, 8.575072 ], [ 77.089815, 8.575088 ], [ 77.089545, 8.575155 ], [ 77.08949, 8.57519 ], [ 77.089391, 8.575358 ], [ 77.089343, 8.575551 ], [ 77.089231, 8.575636 ], [ 77.088619, 8.575886 ], [ 77.088427, 8.575879 ], [ 77.088205, 8.575817 ], [ 77.08793, 8.575714 ], [ 77.087787, 8.575711 ], [ 77.08757, 8.575795 ], [ 77.087143, 8.576073 ], [ 77.086684, 8.57644 ], [ 77.08612, 8.576826 ], [ 77.085994, 8.576891 ], [ 77.085986, 8.577182 ], [ 77.085953, 8.577285 ], [ 77.085813, 8.577492 ], [ 77.085655, 8.577647 ], [ 77.085476, 8.577878 ], [ 77.084771, 8.578347 ], [ 77.084575, 8.578527 ], [ 77.084467, 8.57865 ], [ 77.084387, 8.578839 ], [ 77.084346, 8.579047 ], [ 77.084246, 8.579616 ], [ 77.0842, 8.579852 ], [ 77.083792, 8.579905 ], [ 77.083484, 8.580006 ], [ 77.083028, 8.580233 ], [ 77.082305, 8.580547 ], [ 77.081908, 8.580703 ], [ 77.081581, 8.580906 ], [ 77.081328, 8.581099 ], [ 77.081222, 8.581235 ], [ 77.080905, 8.581774 ], [ 77.080878, 8.58188 ], [ 77.079993, 8.583015 ], [ 77.079816, 8.583205 ], [ 77.079417, 8.583557 ], [ 77.079176, 8.584003 ], [ 77.078899, 8.584263 ], [ 77.078544, 8.584455 ], [ 77.078363, 8.584491 ], [ 77.077814, 8.58456 ], [ 77.077425, 8.584634 ], [ 77.077221, 8.584639 ], [ 77.076845, 8.584571 ], [ 77.076641, 8.584596 ], [ 77.076417, 8.584658 ], [ 77.076159, 8.58471 ], [ 77.076061, 8.584772 ], [ 77.075665, 8.584892 ], [ 77.075349, 8.585019 ], [ 77.075076, 8.585191 ], [ 77.074879, 8.585388 ], [ 77.074739, 8.585489 ], [ 77.074308, 8.585697 ], [ 77.074181, 8.585786 ], [ 77.074031, 8.585961 ], [ 77.073735, 8.586404 ], [ 77.073359, 8.586855 ], [ 77.073035, 8.587135 ], [ 77.072722, 8.58747 ], [ 77.072503, 8.58778 ], [ 77.072171, 8.588287 ], [ 77.071893, 8.588858 ], [ 77.071656, 8.589454 ], [ 77.071494, 8.589763 ], [ 77.071322, 8.590031 ], [ 77.07115, 8.590136 ], [ 77.070985, 8.590194 ], [ 77.07087, 8.590204 ], [ 77.070787, 8.590171 ], [ 77.070665, 8.590094 ], [ 77.070446, 8.590038 ], [ 77.070243, 8.59005 ], [ 77.070057, 8.590085 ], [ 77.069862, 8.590101 ], [ 77.069555, 8.590059 ], [ 77.069374, 8.589982 ], [ 77.069096, 8.589805 ], [ 77.06891, 8.58978 ], [ 77.068663, 8.589812 ], [ 77.068321, 8.589912 ], [ 77.067504, 8.590099 ], [ 77.067325, 8.590159 ], [ 77.067134, 8.590266 ], [ 77.06671, 8.590802 ], [ 77.066595, 8.590883 ], [ 77.066133, 8.591075 ], [ 77.065496, 8.591097 ], [ 77.065337, 8.591058 ], [ 77.065187, 8.590993 ], [ 77.064968, 8.590818 ], [ 77.064584, 8.590378 ], [ 77.064273, 8.590113 ], [ 77.06411, 8.590024 ], [ 77.063703, 8.589789 ], [ 77.063583, 8.589693 ], [ 77.063453, 8.589535 ], [ 77.063267, 8.589344 ], [ 77.062857, 8.589058 ], [ 77.062693, 8.589007 ], [ 77.062556, 8.588985 ], [ 77.062327, 8.589009 ], [ 77.061098, 8.589254 ], [ 77.060663, 8.58932 ], [ 77.060382, 8.589388 ], [ 77.06021, 8.589488 ], [ 77.060037, 8.589619 ], [ 77.059957, 8.589708 ], [ 77.059873, 8.589785 ], [ 77.059685, 8.589854 ], [ 77.059151, 8.589969 ], [ 77.058595, 8.59003 ], [ 77.05843, 8.590065 ], [ 77.058014, 8.590337 ], [ 77.057815, 8.590516 ], [ 77.057623, 8.590754 ], [ 77.057521, 8.590863 ], [ 77.057187, 8.591075 ], [ 77.056852, 8.591187 ], [ 77.056096, 8.591334 ], [ 77.055899, 8.591404 ], [ 77.055463, 8.591662 ], [ 77.054114, 8.592564 ], [ 77.053831, 8.592715 ], [ 77.05372, 8.592752 ], [ 77.051845, 8.592892 ], [ 77.051598, 8.592948 ], [ 77.051398, 8.593029 ], [ 77.050928, 8.593444 ], [ 77.050708, 8.593555 ], [ 77.050272, 8.593602 ], [ 77.049982, 8.593602 ], [ 77.049759, 8.593566 ], [ 77.049571, 8.593499 ], [ 77.049336, 8.593253 ], [ 77.048948, 8.592776 ], [ 77.048754, 8.592587 ], [ 77.048552, 8.59239 ], [ 77.048337, 8.592244 ], [ 77.048133, 8.592103 ], [ 77.04773, 8.592004 ], [ 77.04753, 8.591971 ], [ 77.047293, 8.592008 ], [ 77.046604, 8.592191 ], [ 77.045974, 8.592357 ], [ 77.045799, 8.592362 ], [ 77.045568, 8.592324 ], [ 77.045269, 8.59221 ], [ 77.044975, 8.59213 ], [ 77.044659, 8.592083 ], [ 77.044426, 8.592087 ], [ 77.044169, 8.592146 ], [ 77.043959, 8.592228 ], [ 77.043734, 8.592404 ], [ 77.04333, 8.592936 ], [ 77.04314, 8.593061 ], [ 77.042736, 8.593269 ], [ 77.042404, 8.593467 ], [ 77.041556, 8.593916 ], [ 77.041245, 8.594043 ], [ 77.040784, 8.594282 ], [ 77.040352, 8.594461 ], [ 77.040199, 8.594606 ], [ 77.040039, 8.594846 ], [ 77.039923, 8.594978 ], [ 77.039673, 8.595109 ], [ 77.038676, 8.595339 ], [ 77.038116, 8.595429 ], [ 77.037603, 8.595534 ], [ 77.03724, 8.595569 ], [ 77.036992, 8.595633 ], [ 77.036752, 8.595761 ], [ 77.036507, 8.595947 ], [ 77.036213, 8.596101 ], [ 77.035989, 8.596166 ], [ 77.035063, 8.596315 ], [ 77.034788, 8.596327 ], [ 77.03452, 8.596317 ], [ 77.034402, 8.596313 ], [ 77.033502, 8.596252 ], [ 77.033321, 8.596194 ], [ 77.0332, 8.596078 ], [ 77.033045, 8.595966 ], [ 77.032852, 8.595882 ], [ 77.032649, 8.595833 ], [ 77.032063, 8.595803 ], [ 77.031809, 8.59577 ], [ 77.031387, 8.595677 ], [ 77.031236, 8.595691 ], [ 77.031093, 8.595775 ], [ 77.030779, 8.596038 ], [ 77.030675, 8.596144 ], [ 77.030301, 8.596526 ], [ 77.030155, 8.596655 ], [ 77.03004, 8.596718 ], [ 77.029545, 8.596825 ], [ 77.028617, 8.596939 ], [ 77.028014, 8.596932 ], [ 77.027685, 8.596976 ], [ 77.027239, 8.597093 ], [ 77.026895, 8.597289 ], [ 77.026504, 8.597369 ], [ 77.026382, 8.597373 ], [ 77.026179, 8.597386 ], [ 77.025101, 8.59743 ], [ 77.024686, 8.59744 ], [ 77.024572, 8.597512 ], [ 77.024245, 8.597613 ], [ 77.023904, 8.59763 ], [ 77.023519, 8.597743 ], [ 77.023433, 8.597928 ], [ 77.023475, 8.598207 ], [ 77.023391, 8.598391 ], [ 77.023262, 8.598542 ], [ 77.023011, 8.59861 ], [ 77.022958, 8.598601 ], [ 77.022861, 8.598583 ], [ 77.022673, 8.598472 ], [ 77.022453, 8.598377 ], [ 77.022139, 8.598318 ], [ 77.021697, 8.598255 ], [ 77.020874, 8.597993 ], [ 77.020539, 8.597991 ], [ 77.019618, 8.598253 ], [ 77.019224, 8.598451 ], [ 77.018977, 8.598499 ], [ 77.018704, 8.59852 ], [ 77.017947, 8.598365 ], [ 77.01739, 8.598223 ], [ 77.016076, 8.598297 ], [ 77.015958, 8.598354 ], [ 77.015527, 8.598671 ], [ 77.015201, 8.598795 ], [ 77.014874, 8.598961 ], [ 77.01454, 8.599165 ], [ 77.014428, 8.599263 ], [ 77.014288, 8.599443 ], [ 77.014227, 8.599635 ], [ 77.014232, 8.599819 ], [ 77.014117, 8.600133 ], [ 77.013909, 8.600375 ], [ 77.013713, 8.600547 ], [ 77.013478, 8.600656 ], [ 77.013279, 8.600683 ], [ 77.013172, 8.600656 ], [ 77.012758, 8.600455 ], [ 77.012614, 8.600406 ], [ 77.012562, 8.600387 ], [ 77.012404, 8.60038 ], [ 77.012276, 8.600437 ], [ 77.011813, 8.600784 ], [ 77.011567, 8.600824 ], [ 77.011496, 8.600809 ], [ 77.01056, 8.60059 ], [ 77.010382, 8.600509 ], [ 77.009982, 8.600211 ], [ 77.009875, 8.600107 ], [ 77.009754, 8.600037 ], [ 77.009662, 8.600004 ], [ 77.009576, 8.600008 ], [ 77.009485, 8.600059 ], [ 77.009364, 8.600192 ], [ 77.009217, 8.600386 ], [ 77.008835, 8.600829 ], [ 77.008704, 8.600979 ], [ 77.008547, 8.601054 ], [ 77.008388, 8.601088 ], [ 77.00814, 8.601096 ], [ 77.007853, 8.601213 ], [ 77.00754, 8.601441 ], [ 77.007302, 8.601682 ], [ 77.007212, 8.601773 ], [ 77.006539, 8.602574 ], [ 77.006133, 8.602904 ], [ 77.005862, 8.603099 ], [ 77.005742, 8.603186 ], [ 77.005355, 8.603402 ], [ 77.005006, 8.603462 ], [ 77.004909, 8.603462 ], [ 77.004636, 8.603461 ], [ 77.004002, 8.603395 ], [ 77.003878, 8.603331 ], [ 77.003544, 8.603081 ], [ 77.003436, 8.603059 ], [ 77.003276, 8.603081 ], [ 77.003025, 8.603241 ], [ 77.003058, 8.60373 ], [ 77.003095, 8.604037 ], [ 77.003024, 8.604698 ], [ 77.002954, 8.605189 ], [ 77.002899, 8.605273 ], [ 77.002882, 8.605352 ], [ 77.002858, 8.60554 ], [ 77.002858, 8.605666 ], [ 77.002857, 8.605739 ], [ 77.002982, 8.605765 ], [ 77.003265, 8.605781 ], [ 77.003483, 8.60572 ], [ 77.003651, 8.605655 ] ] } }
]
}
