{
"type": "FeatureCollection",
"name": "indian institure space science university ",
"crs": { "type": "name", "properties": { "name": "urn:ogc:def:crs:OGC:1.3:CRS84" } },
"features": [
{ "type": "Feature", "properties": { "DIST_KM": 5.578, "DURATION_H": 0.119, "PROFILE": "driving-car", "PREF": "fastest", "OPTIONS": { }, "FROM_ID": null, "TO_ID": null }, "geometry": { "type": "LineString", "coordinates": [ [ 77.003687, 8.605642 ], [ 77.003483, 8.60572 ], [ 77.003265, 8.605781 ], [ 77.002982, 8.605765 ], [ 77.002857, 8.605739 ], [ 77.002872, 8.606205 ], [ 77.002913, 8.606582 ], [ 77.002894, 8.606828 ], [ 77.002876, 8.607025 ], [ 77.002833, 8.607212 ], [ 77.002843, 8.607706 ], [ 77.003082, 8.608035 ], [ 77.003153, 8.608082 ], [ 77.00328, 8.60812 ], [ 77.003848, 8.60817 ], [ 77.004189, 8.608262 ], [ 77.004219, 8.608267 ], [ 77.004903, 8.608421 ], [ 77.004938, 8.608402 ], [ 77.00513, 8.608372 ], [ 77.005191, 8.608329 ], [ 77.005266, 8.608203 ], [ 77.00558, 8.607632 ], [ 77.005695, 8.60747 ], [ 77.005748, 8.607419 ], [ 77.005875, 8.607351 ], [ 77.006176, 8.607272 ], [ 77.006511, 8.607137 ], [ 77.006614, 8.607108 ], [ 77.006752, 8.607085 ], [ 77.007049, 8.607085 ], [ 77.007202, 8.60711 ], [ 77.007629, 8.60729 ], [ 77.007753, 8.607368 ], [ 77.007833, 8.607476 ], [ 77.007869, 8.607605 ], [ 77.007978, 8.607962 ], [ 77.008058, 8.608165 ], [ 77.008197, 8.6084 ], [ 77.00836, 8.608582 ], [ 77.008589, 8.608945 ], [ 77.008753, 8.609088 ], [ 77.009008, 8.609212 ], [ 77.009283, 8.609392 ], [ 77.009478, 8.60955 ], [ 77.009712, 8.609854 ], [ 77.00975, 8.6099 ], [ 77.009843, 8.609965 ], [ 77.009966, 8.610028 ], [ 77.010253, 8.610138 ], [ 77.010442, 8.610264 ], [ 77.01056, 8.610319 ], [ 77.010744, 8.610352 ], [ 77.011051, 8.610343 ], [ 77.011236, 8.610421 ], [ 77.011625, 8.61072 ], [ 77.012034, 8.611003 ], [ 77.012183, 8.611106 ], [ 77.012303, 8.611222 ], [ 77.01238, 8.611336 ], [ 77.012457, 8.611515 ], [ 77.012525, 8.611649 ], [ 77.012709, 8.612019 ], [ 77.012858, 8.612294 ], [ 77.012941, 8.612416 ], [ 77.013241, 8.612682 ], [ 77.013461, 8.612848 ], [ 77.013585, 8.612923 ], [ 77.013715, 8.612984 ], [ 77.013927, 8.613044 ], [ 77.014302, 8.613065 ], [ 77.014601, 8.613097 ], [ 77.015071, 8.613111 ], [ 77.015244, 8.61309 ], [ 77.015657, 8.613002 ], [ 77.016336, 8.613028 ], [ 77.016556, 8.612998 ], [ 77.017289, 8.612802 ], [ 77.017813, 8.612684 ], [ 77.018137, 8.612654 ], [ 77.018256, 8.612656 ], [ 77.018392, 8.612678 ], [ 77.018637, 8.612736 ], [ 77.018903, 8.612859 ], [ 77.019223, 8.613035 ], [ 77.019602, 8.613529 ], [ 77.01985, 8.613728 ], [ 77.019984, 8.613896 ], [ 77.020027, 8.613998 ], [ 77.020071, 8.614177 ], [ 77.020097, 8.614372 ], [ 77.0201, 8.614619 ], [ 77.020076, 8.614741 ], [ 77.019985, 8.615031 ], [ 77.019978, 8.615134 ], [ 77.02006, 8.615371 ], [ 77.020172, 8.615844 ], [ 77.02017, 8.615976 ], [ 77.020148, 8.616237 ], [ 77.020157, 8.616787 ], [ 77.02001, 8.617333 ], [ 77.019986, 8.618239 ], [ 77.020014, 8.618354 ], [ 77.020088, 8.618531 ], [ 77.020167, 8.61863 ], [ 77.02023, 8.618743 ], [ 77.020813, 8.619434 ], [ 77.021573, 8.620161 ], [ 77.021698, 8.620247 ], [ 77.021876, 8.620407 ], [ 77.022047, 8.620505 ], [ 77.022188, 8.620654 ], [ 77.022249, 8.62075 ], [ 77.022339, 8.621088 ], [ 77.022403, 8.621264 ], [ 77.022491, 8.621378 ], [ 77.022658, 8.621528 ], [ 77.022822, 8.621705 ], [ 77.023064, 8.621987 ], [ 77.023122, 8.622107 ], [ 77.023145, 8.622216 ], [ 77.023097, 8.622491 ], [ 77.023012, 8.622671 ], [ 77.022754, 8.622998 ], [ 77.022719, 8.623075 ], [ 77.022706, 8.62314 ], [ 77.022752, 8.62336 ], [ 77.022833, 8.623465 ], [ 77.022962, 8.623744 ], [ 77.02307, 8.623883 ], [ 77.023139, 8.623946 ], [ 77.023265, 8.624012 ], [ 77.023691, 8.624152 ], [ 77.023842, 8.624239 ], [ 77.02394, 8.624326 ], [ 77.024238, 8.624658 ], [ 77.024404, 8.624816 ], [ 77.024569, 8.625017 ], [ 77.024636, 8.625142 ], [ 77.024668, 8.625232 ], [ 77.024753, 8.625649 ], [ 77.024836, 8.625906 ], [ 77.024921, 8.626112 ], [ 77.024972, 8.626216 ], [ 77.025136, 8.626419 ], [ 77.025259, 8.626659 ], [ 77.025354, 8.626938 ], [ 77.02543, 8.627257 ], [ 77.025472, 8.627531 ], [ 77.025496, 8.627702 ], [ 77.025588, 8.627905 ], [ 77.025728, 8.628076 ], [ 77.025949, 8.628281 ], [ 77.026092, 8.628472 ], [ 77.026166, 8.628628 ], [ 77.026202, 8.628771 ], [ 77.0262, 8.628894 ], [ 77.026253, 8.629256 ], [ 77.026311, 8.629446 ], [ 77.026355, 8.629536 ], [ 77.026398, 8.629623 ], [ 77.026491, 8.629737 ], [ 77.02661, 8.629846 ], [ 77.026944, 8.630049 ], [ 77.026982, 8.630088 ], [ 77.027239, 8.629966 ], [ 77.027382, 8.629823 ], [ 77.027462, 8.629575 ], [ 77.02759, 8.629395 ], [ 77.02836, 8.628441 ], [ 77.02877, 8.627877 ], [ 77.029012, 8.627752 ], [ 77.029348, 8.62773 ], [ 77.030006, 8.627787 ], [ 77.030144, 8.627879 ], [ 77.030564, 8.627972 ], [ 77.030924, 8.628026 ], [ 77.03133, 8.628063 ], [ 77.031444, 8.628048 ], [ 77.032619, 8.627286 ], [ 77.032668, 8.627314 ], [ 77.032724, 8.627323 ], [ 77.032756, 8.627317 ] ] } }
]
}
