{
"type": "FeatureCollection",
"name": "neyyantinkara fish market ",
"crs": { "type": "name", "properties": { "name": "urn:ogc:def:crs:OGC:1.3:CRS84" } },
"features": [
{ "type": "Feature", "properties": { "DIST_KM": 30.628, "DURATION_H": 0.535, "PROFILE": "driving-car", "PREF": "fastest", "OPTIONS": { }, "FROM_ID": null, "TO_ID": null }, "geometry": { "type": "LineString", "coordinates": [ [ 77.081964, 8.405379 ], [ 77.08232, 8.405576 ], [ 77.082508, 8.405733 ], [ 77.082201, 8.406037 ], [ 77.082252, 8.406076 ], [ 77.082474, 8.406758 ], [ 77.082518, 8.406783 ], [ 77.082606, 8.406832 ], [ 77.08275, 8.406857 ], [ 77.082934, 8.40684 ], [ 77.083187, 8.406746 ], [ 77.083342, 8.406713 ], [ 77.083919, 8.406524 ], [ 77.084742, 8.406263 ], [ 77.08485, 8.406285 ], [ 77.084939, 8.406368 ], [ 77.08504, 8.406978 ], [ 77.085102, 8.407333 ], [ 77.085067, 8.408026 ], [ 77.085046, 8.408224 ], [ 77.085042, 8.408289 ], [ 77.084996, 8.408772 ], [ 77.084759, 8.409651 ], [ 77.084362, 8.410529 ], [ 77.084082, 8.411011 ], [ 77.083898, 8.41135 ], [ 77.083531, 8.411914 ], [ 77.083326, 8.41215 ], [ 77.082733, 8.412835 ], [ 77.082572, 8.41309 ], [ 77.082222, 8.413642 ], [ 77.082061, 8.413897 ], [ 77.081715, 8.414444 ], [ 77.081583, 8.414652 ], [ 77.081153, 8.415332 ], [ 77.081025, 8.41554 ], [ 77.080707, 8.416053 ], [ 77.080275, 8.41709 ], [ 77.080071, 8.417665 ], [ 77.079693, 8.418735 ], [ 77.079619, 8.418943 ], [ 77.079343, 8.419723 ], [ 77.079081, 8.420477 ], [ 77.078979, 8.420718 ], [ 77.078569, 8.421946 ], [ 77.078412, 8.422468 ], [ 77.078271, 8.422935 ], [ 77.078234, 8.423056 ], [ 77.078069, 8.42345 ], [ 77.077698, 8.424192 ], [ 77.077322, 8.424985 ], [ 77.077066, 8.425478 ], [ 77.076977, 8.425684 ], [ 77.076094, 8.428421 ], [ 77.076002, 8.428798 ], [ 77.075946, 8.429026 ], [ 77.07588, 8.429298 ], [ 77.075732, 8.43039 ], [ 77.07572, 8.430472 ], [ 77.075791, 8.431138 ], [ 77.075799, 8.43133 ], [ 77.075817, 8.431759 ], [ 77.07589, 8.432022 ], [ 77.075953, 8.432157 ], [ 77.076173, 8.432694 ], [ 77.076098, 8.433207 ], [ 77.07574, 8.435376 ], [ 77.075521, 8.436003 ], [ 77.075398, 8.436695 ], [ 77.075519, 8.437263 ], [ 77.075759, 8.437702 ], [ 77.075883, 8.438222 ], [ 77.075868, 8.438449 ], [ 77.075864, 8.438503 ], [ 77.075631, 8.438768 ], [ 77.074952, 8.439263 ], [ 77.074883, 8.439359 ], [ 77.074677, 8.439642 ], [ 77.073801, 8.440351 ], [ 77.073631, 8.440556 ], [ 77.073382, 8.441103 ], [ 77.073219, 8.441684 ], [ 77.073264, 8.442274 ], [ 77.073339, 8.442648 ], [ 77.073384, 8.442876 ], [ 77.073322, 8.443107 ], [ 77.073149, 8.443315 ], [ 77.072977, 8.443571 ], [ 77.072856, 8.443978 ], [ 77.072757, 8.444776 ], [ 77.072578, 8.445168 ], [ 77.072049, 8.446067 ], [ 77.071994, 8.446128 ], [ 77.07136, 8.446827 ], [ 77.071148, 8.447149 ], [ 77.070399, 8.448219 ], [ 77.07008, 8.448547 ], [ 77.069669, 8.449024 ], [ 77.068847, 8.450224 ], [ 77.068632, 8.450538 ], [ 77.068431, 8.450877 ], [ 77.068156, 8.451338 ], [ 77.067867, 8.451837 ], [ 77.067793, 8.451961 ], [ 77.067729, 8.452296 ], [ 77.067738, 8.45263 ], [ 77.067741, 8.452869 ], [ 77.067793, 8.45358 ], [ 77.067874, 8.454162 ], [ 77.06824, 8.455008 ], [ 77.068415, 8.455223 ], [ 77.069066, 8.456027 ], [ 77.069374, 8.456441 ], [ 77.069515, 8.456919 ], [ 77.069526, 8.457159 ], [ 77.069554, 8.457777 ], [ 77.069541, 8.457995 ], [ 77.069476, 8.459069 ], [ 77.069442, 8.459668 ], [ 77.069411, 8.459837 ], [ 77.069311, 8.460391 ], [ 77.069283, 8.461478 ], [ 77.069283, 8.461671 ], [ 77.06927, 8.462148 ], [ 77.069262, 8.462416 ], [ 77.069569, 8.463969 ], [ 77.069754, 8.464548 ], [ 77.070169, 8.465426 ], [ 77.070286, 8.465758 ], [ 77.070305, 8.466048 ], [ 77.070471, 8.466424 ], [ 77.070566, 8.467058 ], [ 77.070588, 8.467205 ], [ 77.070676, 8.467558 ], [ 77.070715, 8.467716 ], [ 77.070972, 8.468501 ], [ 77.071285, 8.469124 ], [ 77.071695, 8.469828 ], [ 77.071828, 8.470084 ], [ 77.071944, 8.470344 ], [ 77.072148, 8.471092 ], [ 77.072205, 8.471207 ], [ 77.072274, 8.471349 ], [ 77.072544, 8.47176 ], [ 77.072781, 8.472086 ], [ 77.072938, 8.472427 ], [ 77.073371, 8.473179 ], [ 77.073995, 8.474147 ], [ 77.074089, 8.474284 ], [ 77.074165, 8.474464 ], [ 77.074284, 8.474742 ], [ 77.074386, 8.475244 ], [ 77.07441, 8.476054 ], [ 77.074355, 8.476608 ], [ 77.07428, 8.477001 ], [ 77.074148, 8.477608 ], [ 77.074031, 8.478085 ], [ 77.07389, 8.478626 ], [ 77.073645, 8.479463 ], [ 77.073347, 8.480399 ], [ 77.073148, 8.480857 ], [ 77.072933, 8.48119 ], [ 77.072792, 8.481518 ], [ 77.072704, 8.482048 ], [ 77.07264, 8.482647 ], [ 77.072652, 8.482899 ], [ 77.072665, 8.483087 ], [ 77.072799, 8.48374 ], [ 77.07286, 8.48399 ], [ 77.072943, 8.48431 ], [ 77.073001, 8.484441 ], [ 77.073055, 8.484565 ], [ 77.07343, 8.485091 ], [ 77.073898, 8.485573 ], [ 77.073943, 8.485681 ], [ 77.073974, 8.485755 ], [ 77.074142, 8.48621 ], [ 77.074332, 8.486759 ], [ 77.07445, 8.487019 ], [ 77.074874, 8.487955 ], [ 77.075294, 8.488983 ], [ 77.075607, 8.489814 ], [ 77.076117, 8.49122 ], [ 77.076138, 8.491324 ], [ 77.076351, 8.492348 ], [ 77.076302, 8.492917 ], [ 77.076205, 8.493616 ], [ 77.076039, 8.494185 ], [ 77.076063, 8.494455 ], [ 77.076209, 8.494778 ], [ 77.076663, 8.494962 ], [ 77.076779, 8.49508 ], [ 77.076863, 8.495164 ], [ 77.076931, 8.495463 ], [ 77.076897, 8.495902 ], [ 77.07697, 8.49675 ], [ 77.076755, 8.497864 ], [ 77.076814, 8.49812 ], [ 77.076994, 8.498443 ], [ 77.077092, 8.498718 ], [ 77.077092, 8.498863 ], [ 77.076785, 8.49921 ], [ 77.076536, 8.499726 ], [ 77.076531, 8.500029 ], [ 77.076697, 8.500748 ], [ 77.076877, 8.501206 ], [ 77.077149, 8.501605 ], [ 77.077561, 8.501855 ], [ 77.078405, 8.502048 ], [ 77.078458, 8.502168 ], [ 77.078527, 8.50234 ], [ 77.078696, 8.502884 ], [ 77.078747, 8.503137 ], [ 77.078789, 8.503347 ], [ 77.078843, 8.503776 ], [ 77.078846, 8.504077 ], [ 77.078842, 8.504948 ], [ 77.078974, 8.505589 ], [ 77.079025, 8.505691 ], [ 77.079198, 8.506038 ], [ 77.079306, 8.506136 ], [ 77.079845, 8.506441 ], [ 77.080582, 8.50683 ], [ 77.081043, 8.507075 ], [ 77.081527, 8.507439 ], [ 77.081797, 8.507706 ], [ 77.081914, 8.507918 ], [ 77.081772, 8.508259 ], [ 77.081703, 8.508486 ], [ 77.081682, 8.508591 ], [ 77.081686, 8.508726 ], [ 77.081781, 8.508856 ], [ 77.081968, 8.509056 ], [ 77.082677, 8.509443 ], [ 77.082975, 8.509736 ], [ 77.0831, 8.509974 ], [ 77.083235, 8.510231 ], [ 77.083462, 8.511081 ], [ 77.083387, 8.511786 ], [ 77.083263, 8.512125 ], [ 77.083201, 8.512482 ], [ 77.083361, 8.512805 ], [ 77.083736, 8.513284 ], [ 77.083873, 8.513428 ], [ 77.083916, 8.513473 ], [ 77.084084, 8.513519 ], [ 77.084223, 8.513557 ], [ 77.084338, 8.513743 ], [ 77.0846, 8.514726 ], [ 77.084776, 8.515267 ], [ 77.084924, 8.515724 ], [ 77.085064, 8.516081 ], [ 77.085161, 8.516363 ], [ 77.085225, 8.516595 ], [ 77.085141, 8.516993 ], [ 77.085085, 8.517754 ], [ 77.085003, 8.518185 ], [ 77.085158, 8.518715 ], [ 77.08523, 8.519201 ], [ 77.085258, 8.519725 ], [ 77.08546, 8.520595 ], [ 77.085525, 8.520823 ], [ 77.085584, 8.520921 ], [ 77.085818, 8.521256 ], [ 77.085874, 8.521364 ], [ 77.085912, 8.521489 ], [ 77.08594, 8.521604 ], [ 77.085937, 8.521798 ], [ 77.08589, 8.522339 ], [ 77.085857, 8.52267 ], [ 77.08573, 8.523884 ], [ 77.085749, 8.524133 ], [ 77.085799, 8.524354 ], [ 77.085747, 8.52474 ], [ 77.085749, 8.525045 ], [ 77.085834, 8.525299 ], [ 77.086139, 8.525786 ], [ 77.086444, 8.526252 ], [ 77.086578, 8.526633 ], [ 77.086742, 8.527096 ], [ 77.086945, 8.527974 ], [ 77.087049, 8.528569 ], [ 77.087025, 8.529112 ], [ 77.086921, 8.52951 ], [ 77.086946, 8.529798 ], [ 77.087006, 8.530378 ], [ 77.086984, 8.531107 ], [ 77.087059, 8.532141 ], [ 77.086987, 8.532468 ], [ 77.086704, 8.533188 ], [ 77.086652, 8.533417 ], [ 77.086708, 8.534338 ], [ 77.086736, 8.535361 ], [ 77.08676, 8.536847 ], [ 77.08674, 8.53729 ], [ 77.086465, 8.537181 ], [ 77.086152, 8.537086 ], [ 77.085941, 8.537039 ], [ 77.085677, 8.537062 ], [ 77.085328, 8.537232 ], [ 77.084973, 8.537547 ], [ 77.084182, 8.537995 ], [ 77.083641, 8.538549 ], [ 77.083191, 8.539009 ], [ 77.082619, 8.539641 ], [ 77.082198, 8.539947 ], [ 77.081893, 8.540244 ], [ 77.081713, 8.540698 ], [ 77.081504, 8.541224 ], [ 77.081307, 8.541693 ], [ 77.081093, 8.542133 ], [ 77.081082, 8.54269 ], [ 77.080981, 8.543197 ], [ 77.080827, 8.543362 ], [ 77.080665, 8.543536 ], [ 77.08013, 8.543781 ], [ 77.079897, 8.543823 ], [ 77.079691, 8.543859 ], [ 77.079336, 8.543887 ], [ 77.07906, 8.543948 ], [ 77.078795, 8.543826 ], [ 77.078528, 8.543576 ], [ 77.078503, 8.543553 ], [ 77.078013, 8.543425 ], [ 77.077607, 8.543469 ], [ 77.077413, 8.543702 ], [ 77.076874, 8.54435 ], [ 77.07604, 8.54597 ], [ 77.075922, 8.546167 ], [ 77.075837, 8.546307 ], [ 77.075794, 8.546501 ], [ 77.075775, 8.546832 ], [ 77.075396, 8.547222 ], [ 77.075229, 8.547309 ], [ 77.074749, 8.547484 ], [ 77.074455, 8.547574 ], [ 77.074304, 8.547643 ], [ 77.074165, 8.547757 ], [ 77.073909, 8.548033 ], [ 77.07374, 8.548366 ], [ 77.073591, 8.548528 ], [ 77.073347, 8.548744 ], [ 77.073195, 8.548947 ], [ 77.073054, 8.549006 ], [ 77.072589, 8.549004 ], [ 77.072179, 8.549142 ], [ 77.071909, 8.549234 ], [ 77.07177, 8.549213 ], [ 77.071641, 8.549134 ], [ 77.071358, 8.548749 ], [ 77.071178, 8.548619 ], [ 77.071044, 8.548604 ], [ 77.070731, 8.548667 ], [ 77.070558, 8.548749 ], [ 77.07032, 8.549087 ], [ 77.070264, 8.549173 ], [ 77.070221, 8.549197 ], [ 77.070174, 8.549201 ], [ 77.070129, 8.549182 ], [ 77.069851, 8.548953 ], [ 77.069692, 8.548928 ], [ 77.069556, 8.548944 ], [ 77.069319, 8.549048 ], [ 77.069114, 8.54911 ], [ 77.068932, 8.549246 ], [ 77.068835, 8.54934 ], [ 77.06875, 8.549472 ], [ 77.068676, 8.549688 ], [ 77.068586, 8.549875 ], [ 77.068481, 8.549947 ], [ 77.067807, 8.550363 ], [ 77.067629, 8.550414 ], [ 77.067458, 8.550506 ], [ 77.067065, 8.550777 ], [ 77.066795, 8.550956 ], [ 77.066552, 8.551056 ], [ 77.066436, 8.551065 ], [ 77.066372, 8.5511 ], [ 77.066349, 8.551129 ], [ 77.066348, 8.551208 ], [ 77.066416, 8.551358 ], [ 77.066313, 8.551579 ], [ 77.066209, 8.551764 ], [ 77.065973, 8.552049 ], [ 77.065704, 8.552299 ], [ 77.065532, 8.552549 ], [ 77.065487, 8.552704 ], [ 77.065375, 8.552844 ], [ 77.06517, 8.553017 ], [ 77.06496, 8.55314 ], [ 77.06463, 8.553216 ], [ 77.064528, 8.553226 ], [ 77.06438, 8.553298 ], [ 77.064281, 8.553477 ], [ 77.064115, 8.553724 ], [ 77.063669, 8.554326 ], [ 77.063135, 8.554935 ], [ 77.063011, 8.555002 ], [ 77.062845, 8.555034 ], [ 77.062686, 8.555151 ], [ 77.062579, 8.555398 ], [ 77.062179, 8.55595 ], [ 77.061708, 8.556307 ], [ 77.061679, 8.556316 ], [ 77.061511, 8.556369 ], [ 77.061093, 8.556416 ], [ 77.060701, 8.556359 ], [ 77.060519, 8.556405 ], [ 77.060432, 8.556529 ], [ 77.060243, 8.557204 ], [ 77.060197, 8.557369 ], [ 77.06018, 8.557772 ], [ 77.060104, 8.557986 ], [ 77.059929, 8.558286 ], [ 77.059795, 8.558552 ], [ 77.059634, 8.558766 ], [ 77.059154, 8.559037 ], [ 77.058317, 8.559724 ], [ 77.057914, 8.559896 ], [ 77.057114, 8.560098 ], [ 77.056979, 8.560165 ], [ 77.056865, 8.560243 ], [ 77.056746, 8.560375 ], [ 77.056636, 8.560524 ], [ 77.056458, 8.560671 ], [ 77.056104, 8.560845 ], [ 77.055945, 8.560918 ], [ 77.05559, 8.561081 ], [ 77.055084, 8.561391 ], [ 77.055001, 8.561481 ], [ 77.054884, 8.561608 ], [ 77.054775, 8.56179 ], [ 77.05472, 8.561957 ], [ 77.054636, 8.562357 ], [ 77.054652, 8.562894 ], [ 77.05466, 8.56302 ], [ 77.054702, 8.563333 ], [ 77.054634, 8.563533 ], [ 77.054381, 8.56407 ], [ 77.054156, 8.564347 ], [ 77.053827, 8.564712 ], [ 77.053522, 8.564965 ], [ 77.053456, 8.56502 ], [ 77.052975, 8.565291 ], [ 77.052639, 8.565437 ], [ 77.051478, 8.565805 ], [ 77.051333, 8.565917 ], [ 77.051028, 8.566154 ], [ 77.050612, 8.566328 ], [ 77.049669, 8.566457 ], [ 77.049088, 8.566764 ], [ 77.048463, 8.567556 ], [ 77.048389, 8.56765 ], [ 77.047579, 8.568887 ], [ 77.04735, 8.569013 ], [ 77.046982, 8.569538 ], [ 77.046127, 8.570141 ], [ 77.04531, 8.570554 ], [ 77.045078, 8.570731 ], [ 77.044801, 8.570943 ], [ 77.044448, 8.57113 ], [ 77.044285, 8.571241 ], [ 77.04404, 8.571489 ], [ 77.04389, 8.571591 ], [ 77.043789, 8.571609 ], [ 77.043715, 8.571599 ], [ 77.043639, 8.571559 ], [ 77.043588, 8.571491 ], [ 77.043536, 8.571155 ], [ 77.043455, 8.57098 ], [ 77.043029, 8.570515 ], [ 77.042892, 8.570435 ], [ 77.042335, 8.570435 ], [ 77.041933, 8.570601 ], [ 77.041581, 8.571043 ], [ 77.041067, 8.571623 ], [ 77.040921, 8.57193 ], [ 77.040657, 8.572681 ], [ 77.040513, 8.572899 ], [ 77.040277, 8.573187 ], [ 77.039999, 8.573594 ], [ 77.039882, 8.573637 ], [ 77.039502, 8.57366 ], [ 77.038815, 8.573864 ], [ 77.038461, 8.574034 ], [ 77.038065, 8.574265 ], [ 77.037807, 8.574441 ], [ 77.03771, 8.574576 ], [ 77.037656, 8.574741 ], [ 77.0376, 8.575163 ], [ 77.037512, 8.57526 ], [ 77.037446, 8.575323 ], [ 77.037324, 8.575401 ], [ 77.037126, 8.575506 ], [ 77.036801, 8.575649 ], [ 77.036375, 8.575839 ], [ 77.036231, 8.575901 ], [ 77.035752, 8.576105 ], [ 77.035454, 8.576231 ], [ 77.035183, 8.576376 ], [ 77.035078, 8.576462 ], [ 77.035011, 8.576543 ], [ 77.034836, 8.576824 ], [ 77.034817, 8.576963 ], [ 77.034816, 8.577513 ], [ 77.034719, 8.577923 ], [ 77.034498, 8.578269 ], [ 77.03431, 8.578509 ], [ 77.034172, 8.578566 ], [ 77.033976, 8.578604 ], [ 77.033782, 8.578668 ], [ 77.033569, 8.578867 ], [ 77.033393, 8.578926 ], [ 77.032807, 8.578854 ], [ 77.032682, 8.578881 ], [ 77.032588, 8.578955 ], [ 77.032433, 8.579644 ], [ 77.032175, 8.580399 ], [ 77.032052, 8.581098 ], [ 77.031981, 8.581307 ], [ 77.031151, 8.583069 ], [ 77.030169, 8.58423 ], [ 77.029326, 8.585402 ], [ 77.029232, 8.585417 ], [ 77.029113, 8.585404 ], [ 77.028971, 8.585338 ], [ 77.028572, 8.585231 ], [ 77.028429, 8.585233 ], [ 77.028027, 8.585415 ], [ 77.02758, 8.585899 ], [ 77.027409, 8.586357 ], [ 77.0271, 8.586968 ], [ 77.026455, 8.587517 ], [ 77.026435, 8.587655 ], [ 77.026539, 8.588006 ], [ 77.026665, 8.588261 ], [ 77.026657, 8.588749 ], [ 77.026691, 8.588979 ], [ 77.026704, 8.589508 ], [ 77.02666, 8.589637 ], [ 77.026569, 8.589721 ], [ 77.026336, 8.589722 ], [ 77.026216, 8.589692 ], [ 77.025795, 8.589635 ], [ 77.02546, 8.589658 ], [ 77.02498, 8.589887 ], [ 77.024399, 8.590243 ], [ 77.024049, 8.590457 ], [ 77.023967, 8.590507 ], [ 77.023795, 8.590745 ], [ 77.023547, 8.59116 ], [ 77.023108, 8.591576 ], [ 77.022626, 8.591854 ], [ 77.02216, 8.592305 ], [ 77.021779, 8.592712 ], [ 77.021548, 8.592861 ], [ 77.020509, 8.59311 ], [ 77.020294, 8.593206 ], [ 77.019892, 8.593385 ], [ 77.019503, 8.593707 ], [ 77.019209, 8.594134 ], [ 77.019174, 8.59444 ], [ 77.019224, 8.59466 ], [ 77.019531, 8.595075 ], [ 77.019762, 8.595315 ], [ 77.019796, 8.595607 ], [ 77.019581, 8.595751 ], [ 77.018355, 8.595862 ], [ 77.018161, 8.595944 ], [ 77.017765, 8.596345 ], [ 77.017423, 8.596691 ], [ 77.017353, 8.597101 ], [ 77.017455, 8.59751 ], [ 77.017521, 8.597778 ], [ 77.01749, 8.598025 ], [ 77.01739, 8.598223 ], [ 77.016076, 8.598297 ], [ 77.015958, 8.598354 ], [ 77.015527, 8.598671 ], [ 77.015201, 8.598795 ], [ 77.014874, 8.598961 ], [ 77.01454, 8.599165 ], [ 77.014428, 8.599263 ], [ 77.014288, 8.599443 ], [ 77.014227, 8.599635 ], [ 77.014232, 8.599819 ], [ 77.014117, 8.600133 ], [ 77.013909, 8.600375 ], [ 77.013713, 8.600547 ], [ 77.013478, 8.600656 ], [ 77.013279, 8.600683 ], [ 77.013172, 8.600656 ], [ 77.012758, 8.600455 ], [ 77.012614, 8.600406 ], [ 77.012562, 8.600387 ], [ 77.012404, 8.60038 ], [ 77.012276, 8.600437 ], [ 77.011813, 8.600784 ], [ 77.011567, 8.600824 ], [ 77.011496, 8.600809 ], [ 77.01056, 8.60059 ], [ 77.010382, 8.600509 ], [ 77.009982, 8.600211 ], [ 77.009875, 8.600107 ], [ 77.009754, 8.600037 ], [ 77.009662, 8.600004 ], [ 77.009576, 8.600008 ], [ 77.009485, 8.600059 ], [ 77.009364, 8.600192 ], [ 77.009217, 8.600386 ], [ 77.008835, 8.600829 ], [ 77.008704, 8.600979 ], [ 77.008547, 8.601054 ], [ 77.008388, 8.601088 ], [ 77.00814, 8.601096 ], [ 77.007853, 8.601213 ], [ 77.00754, 8.601441 ], [ 77.007302, 8.601682 ], [ 77.007212, 8.601773 ], [ 77.006539, 8.602574 ], [ 77.006133, 8.602904 ], [ 77.005862, 8.603099 ], [ 77.005742, 8.603186 ], [ 77.005355, 8.603402 ], [ 77.005006, 8.603462 ], [ 77.004909, 8.603462 ], [ 77.004636, 8.603461 ], [ 77.004002, 8.603395 ], [ 77.003878, 8.603331 ], [ 77.003544, 8.603081 ], [ 77.003436, 8.603059 ], [ 77.003276, 8.603081 ], [ 77.003025, 8.603241 ], [ 77.003058, 8.60373 ], [ 77.003095, 8.604037 ], [ 77.003024, 8.604698 ], [ 77.002954, 8.605189 ], [ 77.003364, 8.605167 ], [ 77.003991, 8.604924 ], [ 77.004052, 8.605093 ], [ 77.004067, 8.605218 ], [ 77.004058, 8.605379 ], [ 77.004042, 8.605406 ], [ 77.003621, 8.605584 ] ] } }
]
}
