{"type":"FeatureCollection","features":[{"type":"Feature","properties":{"name":"Andhra Pradesh"},"geometry":{"type":"MultiPolygon","coordinates":[[[[80.265,13.52],[80.266,13.5],[80.265,13.52],[80.265,13.52]]],[[[80.149,13.618],[80.163,13.602],[80.162,13.582],[80.157,13.562],[80.145,13.546],[80.14,13.566],[80.127,13.581],[80.147,13.591],[80.128,13.6],[80.145,13.611],[80.149,13.618]]],[[[81.542,16.355],[81.519,16.349],[81.54,16.355],[81.542,16.355]]],[[[82.332,16.725],[82.343,16.708],[82.362,16.715],[82.351,16.698],[82.338,16.683],[82.326,16.667],[82.319,16.648],[82.316,16.628],[82.315,16.608],[82.296,16.615],[82.288,16.634],[82.27,16.644],[82.256,16.658],[82.265,16.677],[82.276,16.693],[82.296,16.698],[82.315,16.704],[82.327,16.722],[82.332,16.725]]],[[[82.3,16.714],[82.298,16.74],[82.281,16.723],[82.245,16.719],[82.22,16.718],[82.22,16.745],[82.197,16.736],[82.175,16.725],[82.194,16.708],[82.215,16.71],[82.247,16.691],[82.26,16.676],[82.254,16.657],[82.267,16.642],[82.283,16.629],[82.29,16.61],[82.274,16.598],[82.294,16.603],[82.297,16.583],[82.279,16.572],[82.298,16.567],[82.28,16.556],[82.26,16.551],[82.241,16.544],[82.222,16.537],[82.204,16.528],[82.186,16.52],[82.168,16.51],[82.15,16.501],[82.132,16.492],[82.113,16.488],[82.097,16.475],[82.079,16.466],[82.061,16.456],[82.043,16.447],[82.026,16.437],[82.008,16.427],[81.99,16.418],[81.972,16.409],[81.954,16.4],[81.935,16.394],[81.914,16.391],[81.895,16.387],[81.875,16.381],[81.856,16.375],[81.837,16.367],[81.819,16.359],[81.802,16.349],[81.784,16.339],[81.766,16.331],[81.747,16.323],[81.728,16.314],[81.71,16.321],[81.692,16.33],[81.669,16.333],[81.648,16.334],[81.628,16.337],[81.608,16.34],[81.587,16.343],[81.567,16.345],[81.548,16.353],[81.528,16.354],[81.508,16.352],[81.485,16.353],[81.462,16.353],[81.442,16.35],[81.422,16.347],[81.402,16.352],[81.383,16.359],[81.363,16.358],[81.355,16.34],[81.368,16.354],[81.388,16.35],[81.374,16.336],[81.355,16.329],[81.336,16.321],[81.318,16.313],[81.301,16.302],[81.283,16.291],[81.267,16.279],[81.255,16.263],[81.241,16.248],[81.23,16.231],[81.22,16.214],[81.213,16.195],[81.205,16.176],[81.203,16.156],[81.187,16.144],[81.198,16.127],[81.191,16.107],[81.182,16.089],[81.172,16.071],[81.162,16.053],[81.152,16.036],[81.142,16.019],[81.14,15.998],[81.145,15.978],[81.13,15.966],[81.115,15.952],[81.1,15.939],[81.085,15.925],[81.071,15.912],[81.058,15.896],[81.044,15.881],[81.03,15.867],[81.017,15.852],[81.008,15.834],[80.993,15.818],[80.997,15.799],[81.006,15.78],[81.005,15.76],[80.991,15.746],[80.974,15.736],[80.956,15.727],[80.938,15.718],[80.918,15.721],[80.896,15.717],[80.876,15.713],[80.856,15.711],[80.835,15.71],[80.817,15.719],[80.805,15.735],[80.795,15.753],[80.785,15.772],[80.782,15.791],[80.789,15.773],[80.797,15.754],[80.812,15.74],[80.812,15.76],[80.804,15.779],[80.798,15.798],[80.806,15.817],[80.81,15.837],[80.796,15.852],[80.778,15.862],[80.759,15.867],[80.739,15.874],[80.72,15.878],[80.699,15.881],[80.678,15.881],[80.657,15.879],[80.636,15.875],[80.616,15.872],[80.596,15.868],[80.577,15.863],[80.557,15.857],[80.537,15.855],[80.52,15.844],[80.501,15.837],[80.482,15.829],[80.464,15.821],[80.446,15.812],[80.428,15.803],[80.41,15.793],[80.393,15.783],[80.376,15.772],[80.359,15.762],[80.343,15.749],[80.328,15.736],[80.313,15.722],[80.3,15.707],[80.287,15.692],[80.274,15.677],[80.264,15.659],[80.256,15.641],[80.246,15.623],[80.239,15.602],[80.233,15.583],[80.228,15.563],[80.228,15.542],[80.22,15.523],[80.213,15.504],[80.208,15.484],[80.2,15.465],[80.188,15.449],[80.175,15.434],[80.162,15.419],[80.149,15.404],[80.136,15.388],[80.125,15.371],[80.114,15.354],[80.106,15.335],[80.099,15.316],[80.093,15.297],[80.087,15.278],[80.083,15.254],[80.087,15.232],[80.087,15.212],[80.082,15.192],[80.063,15.2],[80.075,15.183],[80.07,15.164],[80.063,15.145],[80.057,15.125],[80.051,15.105],[80.048,15.077],[80.049,15.052],[80.051,15.028],[80.054,15.007],[80.057,14.987],[80.061,14.967],[80.065,14.947],[80.069,14.927],[80.077,14.908],[80.083,14.889],[80.086,14.867],[80.087,14.845],[80.088,14.824],[80.068,14.819],[80.086,14.808],[80.096,14.791],[80.101,14.771],[80.108,14.751],[80.115,14.732],[80.132,14.721],[80.137,14.701],[80.148,14.685],[80.153,14.665],[80.158,14.645],[80.165,14.626],[80.174,14.608],[80.192,14.601],[80.198,14.581],[80.192,14.561],[80.185,14.541],[80.181,14.52],[80.179,14.498],[80.177,14.478],[80.176,14.456],[80.174,14.434],[80.173,14.413],[80.172,14.39],[80.171,14.37],[80.168,14.35],[80.16,14.331],[80.152,14.313],[80.145,14.293],[80.139,14.273],[80.137,14.253],[80.132,14.233],[80.129,14.213],[80.127,14.193],[80.126,14.171],[80.128,14.15],[80.129,14.13],[80.132,14.107],[80.136,14.086],[80.141,14.067],[80.145,14.047],[80.148,14.027],[80.157,14.008],[80.161,13.988],[80.17,13.967],[80.167,13.988],[80.16,14.007],[80.169,13.989],[80.178,13.97],[80.186,13.952],[80.193,13.933],[80.2,13.914],[80.21,13.897],[80.219,13.878],[80.225,13.858],[80.233,13.84],[80.242,13.822],[80.248,13.803],[80.252,13.783],[80.249,13.763],[80.243,13.743],[80.238,13.723],[80.235,13.701],[80.233,13.681],[80.234,13.66],[80.236,13.64],[80.241,13.62],[80.25,13.601],[80.259,13.581],[80.268,13.563],[80.276,13.545],[80.283,13.526],[80.29,13.507],[80.296,13.488],[80.305,13.47],[80.312,13.451],[80.293,13.448],[80.285,13.467],[80.282,13.487],[80.279,13.507],[80.266,13.522],[80.267,13.543],[80.263,13.562],[80.251,13.579],[80.241,13.597],[80.225,13.61],[80.215,13.627],[80.197,13.637],[80.188,13.655],[80.183,13.674],[80.17,13.69],[80.155,13.703],[80.138,13.714],[80.142,13.694],[80.143,13.671],[80.146,13.652],[80.145,13.63],[80.137,13.612],[80.119,13.621],[80.111,13.639],[80.116,13.659],[80.125,13.677],[80.108,13.688],[80.109,13.708],[80.105,13.688],[80.102,13.667],[80.084,13.658],[80.075,13.64],[80.071,13.62],[80.065,13.601],[80.053,13.585],[80.067,13.571],[80.078,13.554],[80.094,13.542],[80.105,13.525],[80.116,13.507],[80.135,13.513],[80.148,13.497],[80.167,13.491],[80.188,13.492],[80.208,13.488],[80.228,13.485],[80.247,13.478],[80.265,13.469],[80.272,13.45],[80.274,13.43],[80.294,13.431],[80.312,13.418],[80.315,13.392],[80.315,13.371],[80.297,13.381],[80.277,13.388],[80.272,13.413],[80.265,13.436],[80.256,13.454],[80.241,13.47],[80.222,13.48],[80.194,13.476],[80.166,13.478],[80.145,13.485],[80.129,13.498],[80.107,13.504],[80.089,13.526],[80.069,13.538],[80.045,13.522],[80.018,13.525],[79.994,13.53],[80.008,13.508],[80.033,13.502],[80.019,13.486],[79.995,13.459],[79.968,13.456],[79.961,13.428],[79.951,13.408],[79.936,13.391],[79.954,13.374],[79.94,13.358],[79.926,13.336],[79.904,13.333],[79.886,13.321],[79.865,13.311],[79.839,13.303],[79.808,13.305],[79.792,13.292],[79.768,13.29],[79.751,13.299],[79.741,13.277],[79.721,13.272],[79.739,13.254],[79.775,13.234],[79.767,13.213],[79.744,13.195],[79.733,13.215],[79.711,13.21],[79.689,13.207],[79.696,13.234],[79.673,13.229],[79.684,13.257],[79.669,13.282],[79.649,13.273],[79.63,13.261],[79.605,13.267],[79.586,13.253],[79.565,13.249],[79.549,13.267],[79.539,13.29],[79.536,13.311],[79.51,13.315],[79.487,13.317],[79.455,13.324],[79.429,13.324],[79.401,13.316],[79.375,13.303],[79.399,13.289],[79.422,13.287],[79.419,13.266],[79.409,13.247],[79.409,13.22],[79.436,13.23],[79.422,13.209],[79.424,13.187],[79.398,13.186],[79.369,13.176],[79.361,13.156],[79.347,13.14],[79.331,13.121],[79.31,13.107],[79.288,13.118],[79.271,13.138],[79.251,13.146],[79.237,13.127],[79.218,13.136],[79.218,13.11],[79.207,13.091],[79.187,13.077],[79.169,13.053],[79.177,13.033],[79.161,13.012],[79.131,13.017],[79.104,13.024],[79.083,13.012],[79.061,13.021],[79.044,13.044],[79.023,13.056],[79,13.058],[78.982,13.076],[78.959,13.065],[78.937,13.07],[78.914,13.068],[78.901,13.052],[78.898,13.032],[78.92,13.029],[78.89,13.02],[78.881,13.044],[78.88,13.07],[78.87,13.087],[78.844,13.071],[78.813,13.075],[78.787,13.062],[78.754,13.047],[78.732,13.05],[78.702,13.056],[78.696,13.013],[78.669,13.011],[78.649,13.016],[78.637,12.997],[78.62,12.983],[78.638,12.954],[78.647,12.919],[78.626,12.919],[78.616,12.893],[78.606,12.874],[78.599,12.849],[78.596,12.815],[78.59,12.792],[78.582,12.771],[78.566,12.759],[78.547,12.746],[78.554,12.726],[78.546,12.707],[78.548,12.686],[78.528,12.679],[78.526,12.701],[78.511,12.722],[78.489,12.732],[78.494,12.711],[78.51,12.699],[78.488,12.693],[78.493,12.67],[78.474,12.659],[78.459,12.639],[78.46,12.617],[78.439,12.617],[78.418,12.621],[78.4,12.613],[78.374,12.613],[78.348,12.624],[78.329,12.638],[78.309,12.65],[78.289,12.657],[78.267,12.687],[78.239,12.692],[78.228,12.674],[78.2,12.676],[78.195,12.695],[78.214,12.702],[78.229,12.72],[78.219,12.747],[78.235,12.788],[78.242,12.812],[78.241,12.847],[78.263,12.857],[78.303,12.847],[78.322,12.863],[78.312,12.883],[78.338,12.906],[78.345,12.928],[78.361,12.912],[78.378,12.895],[78.4,12.896],[78.425,12.893],[78.446,12.875],[78.454,12.853],[78.458,12.88],[78.443,12.904],[78.426,12.917],[78.425,12.938],[78.422,12.963],[78.458,12.963],[78.455,12.99],[78.45,13.015],[78.461,13.032],[78.481,13.044],[78.505,13.053],[78.5,13.076],[78.515,13.091],[78.509,13.113],[78.521,13.129],[78.534,13.146],[78.558,13.152],[78.566,13.172],[78.547,13.179],[78.56,13.198],[78.559,13.227],[78.572,13.249],[78.567,13.272],[78.56,13.293],[78.547,13.273],[78.526,13.269],[78.504,13.272],[78.484,13.288],[78.472,13.308],[78.448,13.303],[78.429,13.317],[78.407,13.31],[78.383,13.314],[78.368,13.328],[78.388,13.318],[78.385,13.338],[78.364,13.348],[78.364,13.37],[78.371,13.391],[78.367,13.415],[78.365,13.437],[78.364,13.459],[78.367,13.482],[78.374,13.506],[78.385,13.532],[78.398,13.566],[78.38,13.581],[78.344,13.578],[78.323,13.583],[78.292,13.579],[78.265,13.578],[78.237,13.584],[78.215,13.58],[78.196,13.561],[78.179,13.579],[78.194,13.595],[78.194,13.616],[78.166,13.621],[78.159,13.645],[78.129,13.648],[78.107,13.647],[78.091,13.633],[78.08,13.65],[78.058,13.667],[78.064,13.688],[78.085,13.681],[78.105,13.684],[78.11,13.704],[78.097,13.723],[78.089,13.743],[78.106,13.757],[78.118,13.777],[78.109,13.798],[78.117,13.822],[78.106,13.854],[78.075,13.855],[78.068,13.875],[78.048,13.885],[78.043,13.864],[78.016,13.854],[77.991,13.862],[77.97,13.827],[77.945,13.82],[77.942,13.871],[77.972,13.889],[77.975,13.912],[77.978,13.938],[77.961,13.95],[77.951,13.928],[77.93,13.909],[77.912,13.897],[77.89,13.911],[77.887,13.931],[77.862,13.927],[77.83,13.927],[77.808,13.923],[77.811,13.895],[77.825,13.88],[77.811,13.852],[77.786,13.84],[77.78,13.82],[77.755,13.808],[77.734,13.803],[77.713,13.791],[77.714,13.761],[77.711,13.738],[77.696,13.761],[77.669,13.752],[77.67,13.777],[77.649,13.776],[77.614,13.76],[77.634,13.741],[77.616,13.728],[77.596,13.744],[77.574,13.727],[77.556,13.716],[77.542,13.735],[77.52,13.744],[77.528,13.719],[77.526,13.697],[77.503,13.704],[77.48,13.703],[77.483,13.68],[77.45,13.676],[77.445,13.696],[77.457,13.713],[77.46,13.734],[77.454,13.778],[77.456,13.8],[77.435,13.799],[77.417,13.791],[77.413,13.812],[77.426,13.83],[77.404,13.831],[77.381,13.831],[77.359,13.846],[77.34,13.835],[77.32,13.826],[77.311,13.851],[77.29,13.85],[77.256,13.839],[77.244,13.86],[77.239,13.882],[77.217,13.869],[77.197,13.86],[77.175,13.861],[77.179,13.883],[77.182,13.911],[77.16,13.908],[77.162,13.882],[77.162,13.857],[77.139,13.859],[77.125,13.843],[77.146,13.835],[77.162,13.821],[77.154,13.801],[77.164,13.78],[77.167,13.755],[77.138,13.756],[77.111,13.755],[77.086,13.758],[77.081,13.737],[77.06,13.739],[77.047,13.756],[77.026,13.771],[77.014,13.747],[76.994,13.742],[76.986,13.767],[76.985,13.789],[76.969,13.81],[76.984,13.828],[77.006,13.85],[77.012,13.871],[77.017,13.893],[77.041,13.897],[77.036,13.926],[77.014,13.939],[76.995,13.953],[76.991,13.976],[76.977,13.994],[76.949,14.007],[76.931,14.023],[76.938,14.048],[76.972,14.052],[76.972,14.076],[76.951,14.085],[76.943,14.112],[76.927,14.127],[76.898,14.127],[76.889,14.151],[76.917,14.158],[76.937,14.166],[76.939,14.187],[76.958,14.176],[76.986,14.173],[77.014,14.173],[77.016,14.153],[77.015,14.132],[77.017,14.112],[77.01,14.092],[77.025,14.077],[77.024,14.053],[77.051,14.05],[77.07,14.039],[77.091,14.038],[77.121,14.042],[77.128,14.019],[77.134,13.998],[77.154,13.991],[77.171,14.009],[77.195,14.003],[77.219,14.008],[77.243,14.006],[77.265,14.027],[77.273,14.008],[77.292,14.014],[77.313,14.025],[77.324,14.005],[77.346,13.986],[77.347,13.961],[77.362,13.945],[77.343,13.912],[77.359,13.896],[77.39,13.898],[77.409,13.889],[77.426,13.902],[77.408,13.922],[77.423,13.939],[77.431,13.962],[77.41,13.977],[77.387,13.974],[77.38,13.993],[77.362,14.016],[77.326,14.023],[77.335,14.048],[77.359,14.059],[77.38,14.09],[77.395,14.103],[77.38,14.117],[77.359,14.109],[77.377,14.13],[77.39,14.154],[77.41,14.17],[77.454,14.163],[77.489,14.153],[77.507,14.164],[77.501,14.193],[77.493,14.214],[77.496,14.24],[77.499,14.261],[77.484,14.275],[77.455,14.272],[77.442,14.291],[77.428,14.305],[77.409,14.327],[77.386,14.325],[77.374,14.305],[77.381,14.283],[77.39,14.261],[77.406,14.237],[77.415,14.217],[77.391,14.191],[77.382,14.21],[77.364,14.223],[77.359,14.244],[77.359,14.269],[77.321,14.273],[77.295,14.276],[77.283,14.302],[77.281,14.331],[77.258,14.326],[77.232,14.311],[77.21,14.313],[77.18,14.326],[77.16,14.336],[77.136,14.334],[77.131,14.314],[77.117,14.291],[77.107,14.262],[77.113,14.24],[77.105,14.213],[77.085,14.208],[77.06,14.224],[77.041,14.241],[77.013,14.235],[76.989,14.236],[76.962,14.236],[76.938,14.24],[76.926,14.264],[76.944,14.282],[76.943,14.305],[76.923,14.31],[76.899,14.319],[76.885,14.34],[76.883,14.39],[76.913,14.414],[76.937,14.401],[76.944,14.425],[76.959,14.445],[76.974,14.47],[76.956,14.48],[76.907,14.484],[76.885,14.476],[76.864,14.475],[76.854,14.499],[76.832,14.515],[76.811,14.524],[76.795,14.541],[76.784,14.562],[76.776,14.59],[76.763,14.612],[76.77,14.656],[76.781,14.69],[76.798,14.735],[76.786,14.762],[76.811,14.781],[76.831,14.784],[76.837,14.804],[76.843,14.824],[76.854,14.861],[76.843,14.881],[76.863,14.902],[76.865,14.938],[76.864,14.964],[76.841,14.961],[76.82,14.959],[76.797,14.963],[76.772,14.969],[76.757,14.983],[76.77,15.001],[76.785,15.017],[76.775,15.044],[76.773,15.065],[76.788,15.08],[76.812,15.08],[76.837,15.072],[76.861,15.057],[76.877,15.029],[76.905,15.029],[76.932,15.026],[76.967,15.013],[76.996,15.024],[77.023,15.028],[77.047,15.029],[77.041,15.005],[77.061,15.002],[77.08,15.008],[77.091,15.028],[77.112,15.038],[77.126,15.068],[77.128,15.094],[77.148,15.107],[77.153,15.132],[77.132,15.143],[77.153,15.149],[77.164,15.168],[77.158,15.194],[77.141,15.218],[77.121,15.221],[77.14,15.252],[77.165,15.251],[77.15,15.267],[77.139,15.285],[77.115,15.29],[77.113,15.319],[77.069,15.319],[77.058,15.343],[77.038,15.359],[77.044,15.384],[77.029,15.401],[77.03,15.426],[77.015,15.441],[77.001,15.462],[76.976,15.482],[76.972,15.506],[76.996,15.5],[77.027,15.5],[77.029,15.525],[77.024,15.576],[77.029,15.598],[77.027,15.629],[77.069,15.641],[77.089,15.648],[77.104,15.634],[77.125,15.659],[77.101,15.679],[77.076,15.691],[77.076,15.721],[77.047,15.725],[77.047,15.751],[77.057,15.772],[77.067,15.796],[77.064,15.823],[77.042,15.822],[77.022,15.832],[77.033,15.853],[77.052,15.876],[77.066,15.899],[77.09,15.918],[77.121,15.929],[77.143,15.941],[77.171,15.946],[77.203,15.95],[77.227,15.952],[77.249,15.958],[77.282,15.947],[77.315,15.945],[77.335,15.943],[77.36,15.942],[77.386,15.934],[77.408,15.936],[77.436,15.939],[77.467,15.928],[77.497,15.926],[77.515,15.943],[77.509,15.967],[77.508,15.996],[77.499,16.014],[77.496,16.048],[77.503,16.073],[77.498,16.097],[77.49,16.116],[77.488,16.147],[77.488,16.179],[77.494,16.206],[77.511,16.217],[77.489,16.224],[77.488,16.25],[77.501,16.268],[77.524,16.27],[77.54,16.283],[77.565,16.298],[77.59,16.287],[77.591,16.312],[77.592,16.338],[77.555,16.342],[77.535,16.353],[77.519,16.37],[77.494,16.376],[77.461,16.375],[77.438,16.374],[77.412,16.363],[77.388,16.372],[77.353,16.377],[77.333,16.388],[77.307,16.394],[77.285,16.403],[77.269,16.423],[77.258,16.447],[77.235,16.468],[77.285,16.472],[77.297,16.491],[77.324,16.481],[77.348,16.486],[77.367,16.494],[77.379,16.511],[77.401,16.516],[77.416,16.544],[77.397,16.553],[77.417,16.564],[77.437,16.581],[77.46,16.583],[77.464,16.605],[77.461,16.625],[77.471,16.644],[77.449,16.639],[77.428,16.65],[77.446,16.674],[77.468,16.697],[77.448,16.714],[77.425,16.712],[77.431,16.736],[77.437,16.763],[77.438,16.783],[77.467,16.777],[77.472,16.796],[77.459,16.818],[77.46,16.844],[77.458,16.879],[77.456,16.905],[77.468,16.924],[77.465,16.946],[77.479,16.968],[77.478,16.99],[77.494,17.006],[77.493,17.033],[77.483,17.053],[77.477,17.076],[77.46,17.093],[77.448,17.111],[77.424,17.114],[77.404,17.123],[77.376,17.138],[77.36,17.162],[77.368,17.183],[77.391,17.192],[77.399,17.212],[77.38,17.22],[77.396,17.233],[77.418,17.233],[77.423,17.253],[77.442,17.269],[77.453,17.287],[77.448,17.313],[77.455,17.338],[77.45,17.363],[77.479,17.37],[77.499,17.354],[77.521,17.362],[77.521,17.386],[77.536,17.404],[77.511,17.413],[77.523,17.437],[77.549,17.435],[77.573,17.43],[77.573,17.454],[77.596,17.443],[77.61,17.465],[77.634,17.472],[77.644,17.495],[77.665,17.476],[77.685,17.485],[77.686,17.506],[77.666,17.51],[77.645,17.519],[77.621,17.522],[77.599,17.534],[77.592,17.555],[77.561,17.554],[77.537,17.571],[77.514,17.557],[77.502,17.541],[77.49,17.566],[77.469,17.568],[77.44,17.581],[77.441,17.604],[77.449,17.623],[77.448,17.647],[77.451,17.681],[77.472,17.704],[77.492,17.713],[77.523,17.724],[77.544,17.733],[77.562,17.747],[77.537,17.77],[77.509,17.78],[77.511,17.801],[77.526,17.827],[77.545,17.817],[77.559,17.839],[77.567,17.866],[77.593,17.87],[77.585,17.893],[77.604,17.905],[77.619,17.922],[77.62,17.944],[77.63,17.963],[77.644,17.946],[77.653,17.969],[77.646,17.993],[77.621,17.998],[77.607,18.018],[77.585,18.025],[77.558,18.035],[77.546,18.054],[77.56,18.071],[77.59,18.08],[77.601,18.099],[77.597,18.121],[77.598,18.152],[77.579,18.162],[77.57,18.189],[77.585,18.217],[77.573,18.241],[77.592,18.262],[77.598,18.281],[77.574,18.287],[77.55,18.291],[77.57,18.308],[77.553,18.331],[77.527,18.339],[77.521,18.365],[77.542,18.385],[77.555,18.418],[77.535,18.421],[77.528,18.44],[77.56,18.435],[77.583,18.443],[77.559,18.458],[77.577,18.484],[77.601,18.474],[77.594,18.494],[77.596,18.515],[77.598,18.535],[77.616,18.549],[77.64,18.554],[77.658,18.527],[77.676,18.541],[77.712,18.554],[77.737,18.555],[77.747,18.589],[77.743,18.621],[77.73,18.643],[77.728,18.664],[77.745,18.684],[77.758,18.707],[77.769,18.691],[77.802,18.716],[77.81,18.74],[77.823,18.769],[77.837,18.807],[77.859,18.814],[77.908,18.83],[77.929,18.822],[77.944,18.842],[77.925,18.854],[77.906,18.867],[77.888,18.885],[77.882,18.909],[77.857,18.906],[77.841,18.921],[77.854,18.952],[77.83,18.95],[77.813,18.96],[77.817,18.982],[77.787,18.984],[77.768,18.999],[77.764,19.02],[77.761,19.051],[77.783,19.055],[77.794,19.073],[77.8,19.095],[77.822,19.096],[77.842,19.087],[77.845,19.114],[77.834,19.133],[77.849,19.155],[77.853,19.177],[77.847,19.197],[77.858,19.218],[77.865,19.238],[77.885,19.26],[77.906,19.267],[77.875,19.28],[77.863,19.295],[77.888,19.312],[77.912,19.318],[77.937,19.336],[77.963,19.332],[77.985,19.309],[78.012,19.301],[78.027,19.279],[78.046,19.271],[78.048,19.248],[78.075,19.247],[78.095,19.25],[78.127,19.246],[78.15,19.23],[78.17,19.236],[78.186,19.249],[78.183,19.279],[78.193,19.303],[78.195,19.325],[78.182,19.345],[78.184,19.368],[78.188,19.396],[78.205,19.414],[78.224,19.434],[78.246,19.429],[78.267,19.448],[78.291,19.449],[78.312,19.466],[78.31,19.486],[78.299,19.504],[78.295,19.531],[78.285,19.55],[78.3,19.567],[78.31,19.587],[78.309,19.611],[78.296,19.632],[78.288,19.654],[78.273,19.67],[78.286,19.69],[78.316,19.691],[78.333,19.709],[78.345,19.734],[78.361,19.754],[78.368,19.781],[78.36,19.806],[78.339,19.814],[78.339,19.839],[78.303,19.846],[78.298,19.873],[78.308,19.908],[78.328,19.916],[78.323,19.895],[78.347,19.881],[78.374,19.879],[78.386,19.856],[78.398,19.836],[78.429,19.823],[78.465,19.816],[78.484,19.807],[78.504,19.792],[78.512,19.814],[78.558,19.816],[78.585,19.812],[78.614,19.813],[78.635,19.804],[78.686,19.79],[78.709,19.773],[78.732,19.773],[78.752,19.777],[78.773,19.779],[78.797,19.769],[78.817,19.76],[78.838,19.762],[78.854,19.738],[78.862,19.706],[78.863,19.679],[78.859,19.656],[78.891,19.655],[78.916,19.668],[78.944,19.665],[78.969,19.649],[78.965,19.63],[78.966,19.605],[78.981,19.585],[78.965,19.57],[78.955,19.552],[78.978,19.551],[79,19.559],[79.018,19.54],[79.039,19.545],[79.06,19.539],[79.097,19.53],[79.113,19.51],[79.14,19.501],[79.157,19.486],[79.169,19.468],[79.189,19.459],[79.219,19.465],[79.209,19.485],[79.216,19.511],[79.237,19.527],[79.238,19.551],[79.25,19.578],[79.238,19.6],[79.255,19.611],[79.293,19.597],[79.31,19.582],[79.33,19.574],[79.369,19.571],[79.389,19.549],[79.414,19.533],[79.441,19.534],[79.458,19.519],[79.47,19.497],[79.493,19.505],[79.513,19.518],[79.515,19.541],[79.535,19.548],[79.548,19.526],[79.566,19.511],[79.591,19.502],[79.603,19.521],[79.611,19.549],[79.64,19.575],[79.665,19.577],[79.696,19.581],[79.73,19.597],[79.754,19.602],[79.778,19.598],[79.793,19.58],[79.817,19.569],[79.823,19.544],[79.856,19.517],[79.878,19.501],[79.902,19.496],[79.924,19.478],[79.94,19.465],[79.946,19.441],[79.959,19.426],[79.973,19.401],[79.967,19.375],[79.965,19.351],[79.957,19.324],[79.962,19.297],[79.945,19.284],[79.932,19.259],[79.92,19.226],[79.923,19.203],[79.935,19.184],[79.941,19.164],[79.906,19.142],[79.871,19.123],[79.858,19.104],[79.861,19.06],[79.86,19.035],[79.881,19.041],[79.903,19.048],[79.926,19.042],[79.934,19.022],[79.933,18.996],[79.931,18.975],[79.941,18.938],[79.941,18.916],[79.941,18.877],[79.933,18.845],[79.904,18.835],[79.909,18.807],[79.932,18.784],[79.982,18.774],[80.009,18.769],[80.019,18.751],[80.046,18.721],[80.065,18.713],[80.084,18.701],[80.101,18.685],[80.121,18.681],[80.142,18.686],[80.162,18.694],[80.176,18.676],[80.194,18.689],[80.214,18.701],[80.236,18.7],[80.26,18.714],[80.289,18.695],[80.308,18.652],[80.319,18.622],[80.331,18.597],[80.353,18.591],[80.371,18.603],[80.393,18.603],[80.416,18.609],[80.45,18.626],[80.472,18.624],[80.498,18.618],[80.515,18.607],[80.529,18.59],[80.558,18.573],[80.581,18.557],[80.601,18.545],[80.614,18.526],[80.633,18.519],[80.635,18.499],[80.648,18.479],[80.666,18.463],[80.682,18.45],[80.699,18.436],[80.713,18.406],[80.716,18.386],[80.723,18.364],[80.735,18.339],[80.744,18.317],[80.751,18.297],[80.766,18.278],[80.777,18.26],[80.769,18.236],[80.733,18.219],[80.733,18.194],[80.735,18.172],[80.754,18.164],[80.787,18.164],[80.811,18.178],[80.818,18.213],[80.824,18.234],[80.859,18.226],[80.867,18.207],[80.849,18.199],[80.853,18.179],[80.856,18.152],[80.862,18.133],[80.893,18.134],[80.932,18.149],[80.95,18.164],[80.974,18.168],[80.973,18.144],[80.949,18.123],[80.95,18.098],[80.952,18.072],[80.964,18.05],[80.963,18.028],[80.97,18.003],[80.974,17.977],[80.978,17.95],[80.985,17.923],[80.997,17.895],[81.002,17.865],[81.004,17.838],[81.013,17.817],[81.032,17.79],[81.056,17.783],[81.076,17.791],[81.089,17.811],[81.109,17.823],[81.16,17.853],[81.184,17.849],[81.213,17.833],[81.254,17.812],[81.298,17.81],[81.326,17.812],[81.357,17.81],[81.384,17.803],[81.409,17.805],[81.426,17.821],[81.459,17.825],[81.475,17.81],[81.496,17.806],[81.526,17.811],[81.554,17.816],[81.575,17.827],[81.594,17.819],[81.616,17.822],[81.637,17.836],[81.646,17.856],[81.663,17.877],[81.683,17.879],[81.703,17.861],[81.726,17.874],[81.758,17.893],[81.776,17.905],[81.789,17.921],[81.82,17.945],[81.84,17.95],[81.874,17.96],[81.899,17.969],[81.925,17.981],[81.952,17.992],[81.973,18.006],[81.989,18.02],[82.005,18.034],[82.017,18.055],[82.045,18.046],[82.066,18.049],[82.089,18.057],[82.111,18.058],[82.129,18.049],[82.16,18.044],[82.173,18.026],[82.185,18.007],[82.208,18.001],[82.231,17.994],[82.253,17.98],[82.271,17.998],[82.269,18.02],[82.265,18.043],[82.283,18.056],[82.301,18.044],[82.322,18.05],[82.343,18.068],[82.335,18.09],[82.33,18.119],[82.333,18.142],[82.358,18.125],[82.359,18.149],[82.342,18.163],[82.319,18.171],[82.309,18.189],[82.333,18.216],[82.332,18.24],[82.337,18.266],[82.367,18.271],[82.382,18.284],[82.393,18.306],[82.375,18.318],[82.355,18.309],[82.334,18.317],[82.357,18.334],[82.369,18.35],[82.381,18.367],[82.375,18.393],[82.361,18.41],[82.378,18.422],[82.397,18.452],[82.42,18.47],[82.437,18.497],[82.453,18.517],[82.474,18.537],[82.481,18.515],[82.499,18.503],[82.523,18.504],[82.52,18.483],[82.522,18.462],[82.529,18.443],[82.55,18.439],[82.545,18.417],[82.533,18.397],[82.549,18.384],[82.571,18.384],[82.594,18.37],[82.606,18.353],[82.598,18.334],[82.586,18.316],[82.591,18.292],[82.581,18.27],[82.598,18.254],[82.613,18.239],[82.632,18.229],[82.648,18.245],[82.652,18.272],[82.665,18.291],[82.69,18.297],[82.707,18.311],[82.734,18.313],[82.751,18.328],[82.771,18.34],[82.778,18.371],[82.787,18.39],[82.778,18.409],[82.792,18.433],[82.818,18.439],[82.836,18.424],[82.856,18.411],[82.877,18.412],[82.891,18.392],[82.892,18.367],[82.912,18.357],[82.933,18.351],[82.956,18.356],[82.976,18.355],[82.992,18.375],[83.017,18.385],[83.037,18.37],[83.056,18.377],[83.059,18.399],[83.061,18.419],[83.037,18.419],[83.025,18.437],[83.027,18.457],[83.044,18.472],[83.06,18.494],[83.073,18.515],[83.089,18.533],[83.057,18.535],[83.032,18.548],[83.027,18.568],[83.045,18.578],[83.016,18.585],[83.02,18.605],[83.015,18.626],[83.036,18.648],[83.051,18.663],[83.071,18.689],[83.086,18.71],[83.099,18.727],[83.117,18.748],[83.133,18.772],[83.151,18.759],[83.174,18.757],[83.192,18.742],[83.206,18.727],[83.22,18.742],[83.217,18.764],[83.24,18.759],[83.266,18.757],[83.275,18.785],[83.3,18.798],[83.323,18.798],[83.344,18.803],[83.353,18.827],[83.373,18.821],[83.396,18.831],[83.398,18.853],[83.388,18.871],[83.374,18.886],[83.361,18.901],[83.348,18.921],[83.371,18.917],[83.364,18.938],[83.349,18.956],[83.343,18.935],[83.335,18.916],[83.319,18.928],[83.332,18.943],[83.321,18.961],[83.309,18.98],[83.329,18.988],[83.341,19.009],[83.362,18.995],[83.385,18.997],[83.405,18.993],[83.433,18.961],[83.447,18.946],[83.462,18.959],[83.46,18.981],[83.449,19],[83.472,18.999],[83.478,19.021],[83.463,19.044],[83.458,19.067],[83.477,19.075],[83.492,19.055],[83.51,19.04],[83.494,19.027],[83.505,19.01],[83.531,19.005],[83.535,19.029],[83.548,19.045],[83.545,19.069],[83.558,19.051],[83.579,19.05],[83.582,19.076],[83.604,19.088],[83.594,19.111],[83.605,19.131],[83.623,19.145],[83.633,19.124],[83.646,19.109],[83.657,19.088],[83.663,19.066],[83.684,19.044],[83.694,19.021],[83.717,19.014],[83.704,18.995],[83.726,18.976],[83.736,18.939],[83.746,18.918],[83.763,18.907],[83.77,18.933],[83.75,18.944],[83.742,18.967],[83.749,18.991],[83.769,18.999],[83.787,19.008],[83.803,18.982],[83.815,18.953],[83.815,18.93],[83.817,18.909],[83.838,18.909],[83.842,18.888],[83.836,18.869],[83.848,18.848],[83.867,18.823],[83.885,18.81],[83.908,18.816],[83.926,18.807],[83.944,18.796],[83.964,18.804],[83.992,18.805],[84.012,18.801],[84.034,18.79],[84.05,18.777],[84.066,18.752],[84.086,18.745],[84.108,18.755],[84.129,18.753],[84.148,18.772],[84.18,18.769],[84.204,18.783],[84.224,18.784],[84.246,18.773],[84.268,18.78],[84.3,18.782],[84.327,18.79],[84.344,18.812],[84.344,18.833],[84.334,18.852],[84.355,18.853],[84.372,18.867],[84.352,18.878],[84.374,18.876],[84.365,18.896],[84.387,18.89],[84.41,18.891],[84.429,18.914],[84.417,18.933],[84.435,18.963],[84.428,18.983],[84.418,19.005],[84.437,18.997],[84.463,18.983],[84.478,19.008],[84.498,19.025],[84.527,19.039],[84.548,19.046],[84.566,19.065],[84.575,19.038],[84.588,19.013],[84.6,19.033],[84.612,19.05],[84.634,19.056],[84.655,19.052],[84.654,19.081],[84.634,19.075],[84.617,19.085],[84.596,19.115],[84.626,19.118],[84.647,19.12],[84.666,19.135],[84.665,19.157],[84.692,19.152],[84.697,19.125],[84.712,19.1],[84.73,19.09],[84.761,19.071],[84.75,19.055],[84.738,19.038],[84.725,19.023],[84.713,19.007],[84.701,18.99],[84.689,18.974],[84.669,18.97],[84.667,18.95],[84.652,18.937],[84.637,18.923],[84.623,18.909],[84.608,18.895],[84.595,18.88],[84.583,18.864],[84.576,18.843],[84.564,18.827],[84.555,18.808],[84.549,18.789],[84.535,18.775],[84.518,18.763],[84.502,18.751],[84.488,18.737],[84.475,18.722],[84.462,18.706],[84.45,18.69],[84.44,18.672],[84.432,18.654],[84.417,18.641],[84.401,18.628],[84.387,18.614],[84.373,18.6],[84.361,18.583],[84.355,18.564],[84.339,18.552],[84.356,18.563],[84.343,18.547],[84.328,18.535],[84.312,18.522],[84.297,18.51],[84.281,18.497],[84.266,18.484],[84.25,18.471],[84.236,18.457],[84.221,18.443],[84.207,18.43],[84.192,18.416],[84.178,18.402],[84.164,18.387],[84.15,18.372],[84.14,18.355],[84.127,18.339],[84.128,18.319],[84.115,18.304],[84.097,18.294],[84.081,18.282],[84.063,18.273],[84.045,18.264],[84.027,18.256],[84.008,18.247],[83.991,18.238],[83.973,18.229],[83.955,18.22],[83.936,18.214],[83.917,18.206],[83.898,18.2],[83.88,18.191],[83.865,18.178],[83.846,18.17],[83.827,18.163],[83.808,18.156],[83.788,18.148],[83.77,18.139],[83.752,18.13],[83.733,18.121],[83.715,18.111],[83.698,18.101],[83.681,18.091],[83.665,18.079],[83.648,18.067],[83.632,18.055],[83.615,18.045],[83.599,18.033],[83.583,18.021],[83.565,18.011],[83.559,17.992],[83.55,17.974],[83.537,17.958],[83.521,17.946],[83.504,17.934],[83.487,17.924],[83.47,17.914],[83.453,17.902],[83.448,17.882],[83.434,17.868],[83.418,17.856],[83.411,17.837],[83.412,17.817],[83.399,17.802],[83.386,17.786],[83.374,17.77],[83.357,17.76],[83.346,17.743],[83.342,17.723],[83.324,17.714],[83.308,17.703],[83.293,17.689],[83.277,17.701],[83.292,17.688],[83.288,17.668],[83.272,17.656],[83.257,17.642],[83.239,17.632],[83.235,17.613],[83.219,17.601],[83.203,17.588],[83.185,17.58],[83.169,17.567],[83.151,17.558],[83.131,17.552],[83.112,17.547],[83.092,17.539],[83.072,17.529],[83.053,17.521],[83.034,17.514],[83.016,17.505],[83.005,17.488],[82.992,17.473],[82.973,17.466],[82.953,17.46],[82.936,17.449],[82.918,17.441],[82.899,17.433],[82.882,17.424],[82.863,17.414],[82.843,17.407],[82.825,17.4],[82.806,17.391],[82.787,17.383],[82.769,17.375],[82.751,17.366],[82.732,17.358],[82.715,17.348],[82.696,17.34],[82.678,17.33],[82.661,17.32],[82.643,17.311],[82.626,17.3],[82.609,17.29],[82.591,17.28],[82.574,17.27],[82.557,17.259],[82.54,17.248],[82.523,17.237],[82.507,17.225],[82.49,17.214],[82.475,17.201],[82.459,17.188],[82.443,17.176],[82.428,17.163],[82.413,17.149],[82.398,17.135],[82.384,17.121],[82.37,17.107],[82.352,17.098],[82.341,17.081],[82.327,17.067],[82.313,17.052],[82.3,17.037],[82.291,17.018],[82.283,17],[82.276,16.981],[82.271,16.961],[82.272,16.941],[82.252,16.936],[82.25,16.915],[82.257,16.896],[82.269,16.88],[82.283,16.865],[82.303,16.863],[82.314,16.847],[82.332,16.856],[82.352,16.852],[82.357,16.872],[82.362,16.893],[82.363,16.914],[82.36,16.936],[82.355,16.956],[82.339,16.968],[82.327,16.984],[82.347,16.981],[82.358,16.964],[82.361,16.943],[82.364,16.923],[82.366,16.902],[82.362,16.881],[82.358,16.86],[82.356,16.838],[82.352,16.818],[82.352,16.798],[82.346,16.778],[82.343,16.758],[82.343,16.738],[82.323,16.735],[82.308,16.721],[82.3,16.714]]]]}},{"type":"Feature","properties":{"name":"Karnataka"},"geometry":{"type":"MultiPolygon","coordinates":[[[[77.337,18.435],[77.354,18.449],[77.364,18.43],[77.37,18.401],[77.393,18.397],[77.408,18.378],[77.392,18.366],[77.396,18.345],[77.378,18.329],[77.355,18.319],[77.381,18.306],[77.408,18.3],[77.428,18.309],[77.437,18.282],[77.451,18.266],[77.475,18.262],[77.498,18.273],[77.508,18.302],[77.54,18.294],[77.561,18.283],[77.584,18.283],[77.592,18.262],[77.573,18.241],[77.585,18.217],[77.564,18.201],[77.572,18.179],[77.589,18.153],[77.594,18.128],[77.601,18.099],[77.59,18.08],[77.567,18.076],[77.547,18.064],[77.553,18.035],[77.574,18.031],[77.587,18.013],[77.61,18.01],[77.629,17.993],[77.65,17.986],[77.652,17.964],[77.636,17.951],[77.617,17.938],[77.619,17.913],[77.6,17.904],[77.592,17.879],[77.573,17.873],[77.566,17.85],[77.554,17.83],[77.526,17.827],[77.518,17.808],[77.504,17.783],[77.528,17.777],[77.554,17.761],[77.555,17.741],[77.539,17.725],[77.509,17.72],[77.489,17.707],[77.458,17.699],[77.449,17.666],[77.451,17.632],[77.446,17.612],[77.44,17.581],[77.461,17.577],[77.49,17.566],[77.496,17.547],[77.514,17.557],[77.527,17.573],[77.544,17.555],[77.585,17.558],[77.592,17.533],[77.617,17.529],[77.645,17.519],[77.666,17.51],[77.686,17.506],[77.685,17.485],[77.665,17.476],[77.649,17.492],[77.634,17.472],[77.611,17.47],[77.611,17.444],[77.59,17.448],[77.572,17.439],[77.549,17.435],[77.523,17.437],[77.511,17.413],[77.534,17.406],[77.521,17.386],[77.521,17.362],[77.499,17.354],[77.474,17.359],[77.452,17.37],[77.45,17.35],[77.453,17.328],[77.44,17.298],[77.455,17.276],[77.437,17.261],[77.42,17.249],[77.415,17.23],[77.392,17.229],[77.399,17.209],[77.382,17.194],[77.368,17.176],[77.367,17.151],[77.399,17.132],[77.424,17.114],[77.448,17.111],[77.46,17.093],[77.477,17.076],[77.483,17.053],[77.493,17.033],[77.499,17.007],[77.482,16.997],[77.48,16.975],[77.469,16.954],[77.464,16.929],[77.453,16.909],[77.454,16.886],[77.46,16.855],[77.457,16.824],[77.463,16.805],[77.472,16.785],[77.445,16.78],[77.435,16.75],[77.428,16.729],[77.433,16.709],[77.456,16.711],[77.465,16.678],[77.437,16.667],[77.417,16.663],[77.43,16.645],[77.455,16.645],[77.461,16.625],[77.464,16.605],[77.464,16.584],[77.443,16.582],[77.421,16.565],[77.398,16.563],[77.416,16.544],[77.415,16.518],[77.394,16.515],[77.373,16.506],[77.366,16.484],[77.344,16.485],[77.314,16.488],[77.292,16.474],[77.252,16.468],[77.258,16.447],[77.269,16.423],[77.285,16.403],[77.307,16.394],[77.333,16.388],[77.353,16.377],[77.373,16.38],[77.401,16.366],[77.422,16.363],[77.449,16.376],[77.481,16.378],[77.51,16.37],[77.529,16.358],[77.549,16.345],[77.572,16.336],[77.587,16.32],[77.588,16.296],[77.565,16.298],[77.543,16.287],[77.534,16.263],[77.513,16.271],[77.488,16.25],[77.489,16.224],[77.511,16.223],[77.494,16.206],[77.488,16.179],[77.484,16.159],[77.489,16.126],[77.503,16.109],[77.493,16.084],[77.5,16.054],[77.491,16.031],[77.5,16.011],[77.505,15.979],[77.516,15.957],[77.509,15.921],[77.483,15.928],[77.453,15.932],[77.426,15.942],[77.4,15.935],[77.376,15.933],[77.354,15.944],[77.315,15.945],[77.292,15.95],[77.263,15.951],[77.236,15.953],[77.203,15.95],[77.181,15.95],[77.157,15.944],[77.137,15.936],[77.105,15.925],[77.077,15.91],[77.058,15.887],[77.041,15.864],[77.029,15.845],[77.034,15.824],[77.064,15.823],[77.062,15.798],[77.057,15.772],[77.052,15.75],[77.047,15.725],[77.076,15.721],[77.082,15.695],[77.101,15.679],[77.119,15.662],[77.121,15.637],[77.101,15.639],[77.081,15.653],[77.036,15.632],[77.028,15.607],[77.024,15.584],[77.029,15.525],[77.027,15.5],[77.005,15.503],[76.982,15.505],[76.976,15.482],[76.996,15.467],[77.006,15.448],[77.024,15.439],[77.031,15.418],[77.033,15.396],[77.042,15.375],[77.043,15.352],[77.063,15.338],[77.099,15.327],[77.115,15.29],[77.139,15.285],[77.145,15.266],[77.164,15.259],[77.14,15.252],[77.123,15.233],[77.141,15.218],[77.156,15.194],[77.164,15.168],[77.158,15.149],[77.137,15.149],[77.153,15.132],[77.148,15.107],[77.128,15.094],[77.126,15.068],[77.116,15.04],[77.091,15.028],[77.08,15.008],[77.061,15.002],[77.041,15.005],[77.047,15.029],[77.023,15.028],[77.001,15.03],[76.982,15.01],[76.951,15.024],[76.919,15.029],[76.896,15.032],[76.87,15.044],[76.843,15.066],[76.821,15.075],[76.797,15.091],[76.779,15.072],[76.775,15.044],[76.782,15.023],[76.77,15.001],[76.757,14.983],[76.772,14.969],[76.797,14.963],[76.82,14.959],[76.841,14.961],[76.864,14.964],[76.865,14.938],[76.863,14.916],[76.86,14.891],[76.851,14.873],[76.849,14.839],[76.844,14.816],[76.834,14.785],[76.811,14.781],[76.78,14.779],[76.788,14.752],[76.786,14.707],[76.771,14.674],[76.763,14.612],[76.773,14.587],[76.784,14.562],[76.795,14.541],[76.811,14.524],[76.832,14.515],[76.854,14.499],[76.864,14.475],[76.885,14.476],[76.907,14.484],[76.945,14.482],[76.969,14.479],[76.964,14.452],[76.944,14.445],[76.945,14.409],[76.919,14.411],[76.901,14.398],[76.879,14.351],[76.899,14.319],[76.923,14.31],[76.943,14.305],[76.944,14.282],[76.925,14.272],[76.934,14.254],[76.951,14.234],[76.976,14.237],[77.004,14.232],[77.025,14.237],[77.05,14.24],[77.068,14.218],[77.095,14.209],[77.11,14.232],[77.116,14.257],[77.112,14.288],[77.131,14.314],[77.136,14.334],[77.16,14.336],[77.18,14.326],[77.196,14.314],[77.223,14.315],[77.245,14.315],[77.267,14.327],[77.283,14.302],[77.28,14.276],[77.307,14.274],[77.343,14.271],[77.359,14.244],[77.364,14.223],[77.382,14.21],[77.391,14.191],[77.415,14.203],[77.409,14.224],[77.405,14.249],[77.384,14.266],[77.375,14.295],[77.379,14.317],[77.395,14.329],[77.421,14.322],[77.442,14.31],[77.444,14.278],[77.468,14.279],[77.492,14.271],[77.499,14.25],[77.49,14.228],[77.5,14.204],[77.504,14.181],[77.503,14.157],[77.463,14.164],[77.423,14.165],[77.397,14.166],[77.383,14.148],[77.365,14.127],[77.347,14.118],[77.345,14.096],[77.373,14.113],[77.394,14.115],[77.386,14.093],[77.372,14.072],[77.35,14.053],[77.331,14.04],[77.344,14.019],[77.375,14.012],[77.373,13.982],[77.41,13.977],[77.431,13.969],[77.429,13.943],[77.408,13.936],[77.41,13.915],[77.419,13.895],[77.397,13.881],[77.359,13.896],[77.343,13.912],[77.363,13.942],[77.344,13.951],[77.353,13.976],[77.333,13.988],[77.32,14.009],[77.304,14.027],[77.285,14.012],[77.272,14.028],[77.243,14.006],[77.219,14.008],[77.195,14.003],[77.171,14.009],[77.158,13.994],[77.134,13.998],[77.128,14.019],[77.121,14.042],[77.097,14.041],[77.076,14.038],[77.051,14.05],[77.028,14.052],[77.025,14.077],[77.01,14.092],[77.017,14.112],[77.015,14.132],[77.016,14.153],[77.02,14.173],[76.994,14.174],[76.973,14.174],[76.954,14.181],[76.937,14.166],[76.917,14.158],[76.897,14.162],[76.887,14.136],[76.913,14.122],[76.937,14.115],[76.948,14.097],[76.968,14.08],[76.974,14.058],[76.95,14.048],[76.931,14.023],[76.949,14.007],[76.975,13.997],[76.994,13.981],[76.989,13.957],[77.008,13.947],[77.036,13.926],[77.041,13.897],[77.017,13.893],[77.012,13.871],[77.006,13.85],[76.986,13.839],[76.977,13.821],[76.986,13.793],[76.986,13.767],[76.992,13.745],[77.011,13.733],[77.018,13.762],[77.047,13.756],[77.06,13.739],[77.081,13.737],[77.086,13.758],[77.111,13.755],[77.134,13.753],[77.158,13.755],[77.171,13.772],[77.156,13.793],[77.162,13.815],[77.146,13.835],[77.125,13.843],[77.139,13.859],[77.162,13.857],[77.162,13.882],[77.16,13.908],[77.182,13.911],[77.179,13.883],[77.175,13.861],[77.197,13.86],[77.205,13.881],[77.208,13.86],[77.221,13.882],[77.24,13.894],[77.239,13.874],[77.253,13.856],[77.275,13.843],[77.296,13.854],[77.316,13.84],[77.335,13.829],[77.352,13.844],[77.373,13.838],[77.399,13.832],[77.425,13.835],[77.415,13.815],[77.42,13.796],[77.441,13.802],[77.452,13.78],[77.459,13.75],[77.458,13.723],[77.446,13.701],[77.45,13.676],[77.476,13.678],[77.482,13.699],[77.503,13.704],[77.512,13.686],[77.528,13.707],[77.523,13.731],[77.54,13.744],[77.548,13.72],[77.567,13.729],[77.587,13.737],[77.616,13.728],[77.637,13.735],[77.613,13.747],[77.649,13.776],[77.67,13.777],[77.664,13.752],[77.685,13.759],[77.702,13.731],[77.713,13.751],[77.713,13.775],[77.728,13.802],[77.748,13.806],[77.769,13.809],[77.774,13.832],[77.795,13.841],[77.828,13.861],[77.821,13.889],[77.806,13.909],[77.814,13.931],[77.846,13.928],[77.887,13.931],[77.89,13.911],[77.906,13.899],[77.93,13.909],[77.946,13.928],[77.961,13.95],[77.978,13.938],[77.975,13.912],[77.972,13.889],[77.95,13.884],[77.946,13.84],[77.966,13.82],[77.981,13.849],[78.005,13.862],[78.038,13.853],[78.043,13.873],[78.068,13.875],[78.075,13.855],[78.097,13.853],[78.114,13.841],[78.108,13.804],[78.118,13.777],[78.106,13.757],[78.089,13.743],[78.097,13.723],[78.11,13.704],[78.105,13.684],[78.085,13.681],[78.064,13.688],[78.058,13.667],[78.08,13.65],[78.091,13.633],[78.107,13.647],[78.129,13.648],[78.156,13.649],[78.161,13.623],[78.186,13.621],[78.195,13.602],[78.179,13.579],[78.183,13.556],[78.202,13.568],[78.223,13.577],[78.25,13.574],[78.281,13.578],[78.312,13.584],[78.344,13.578],[78.367,13.58],[78.391,13.578],[78.386,13.544],[78.373,13.512],[78.368,13.49],[78.367,13.467],[78.364,13.446],[78.365,13.424],[78.371,13.397],[78.364,13.37],[78.356,13.347],[78.384,13.342],[78.395,13.323],[78.375,13.326],[78.391,13.304],[78.415,13.317],[78.436,13.298],[78.461,13.308],[78.473,13.291],[78.495,13.279],[78.512,13.26],[78.529,13.276],[78.551,13.276],[78.554,13.298],[78.567,13.272],[78.572,13.249],[78.559,13.23],[78.564,13.208],[78.553,13.189],[78.566,13.172],[78.558,13.152],[78.534,13.146],[78.521,13.129],[78.509,13.113],[78.528,13.097],[78.507,13.084],[78.505,13.059],[78.481,13.044],[78.461,13.032],[78.45,13.015],[78.455,12.99],[78.458,12.963],[78.434,12.969],[78.421,12.948],[78.421,12.924],[78.434,12.908],[78.456,12.893],[78.457,12.866],[78.438,12.88],[78.436,12.901],[78.417,12.889],[78.388,12.906],[78.369,12.902],[78.345,12.928],[78.338,12.906],[78.327,12.889],[78.31,12.876],[78.306,12.856],[78.276,12.849],[78.254,12.85],[78.242,12.812],[78.235,12.788],[78.23,12.762],[78.202,12.755],[78.179,12.76],[78.158,12.76],[78.136,12.769],[78.118,12.78],[78.102,12.793],[78.082,12.809],[78.066,12.827],[78.047,12.842],[78.022,12.841],[78.008,12.823],[78.001,12.795],[77.981,12.796],[77.975,12.814],[77.955,12.825],[77.949,12.848],[77.94,12.829],[77.925,12.814],[77.912,12.832],[77.928,12.85],[77.918,12.869],[77.894,12.868],[77.867,12.859],[77.844,12.856],[77.822,12.855],[77.805,12.843],[77.785,12.834],[77.801,12.821],[77.791,12.796],[77.783,12.776],[77.772,12.755],[77.778,12.734],[77.758,12.729],[77.762,12.708],[77.75,12.687],[77.727,12.683],[77.723,12.663],[77.704,12.674],[77.695,12.651],[77.673,12.65],[77.67,12.671],[77.639,12.67],[77.609,12.663],[77.589,12.648],[77.595,12.627],[77.582,12.605],[77.581,12.584],[77.571,12.564],[77.572,12.54],[77.58,12.511],[77.605,12.503],[77.582,12.476],[77.611,12.478],[77.622,12.454],[77.617,12.425],[77.613,12.398],[77.61,12.374],[77.604,12.354],[77.586,12.336],[77.569,12.324],[77.556,12.297],[77.54,12.282],[77.518,12.27],[77.498,12.268],[77.475,12.266],[77.464,12.244],[77.474,12.225],[77.466,12.202],[77.482,12.19],[77.511,12.184],[77.531,12.19],[77.556,12.187],[77.584,12.189],[77.604,12.195],[77.626,12.19],[77.655,12.188],[77.701,12.173],[77.726,12.167],[77.739,12.148],[77.744,12.127],[77.767,12.109],[77.756,12.092],[77.746,12.069],[77.72,12.053],[77.707,12.033],[77.694,12.015],[77.681,11.991],[77.667,11.959],[77.66,11.938],[77.639,11.943],[77.615,11.934],[77.591,11.926],[77.548,11.931],[77.524,11.921],[77.501,11.927],[77.482,11.912],[77.476,11.89],[77.454,11.891],[77.455,11.867],[77.451,11.844],[77.452,11.823],[77.441,11.791],[77.431,11.772],[77.419,11.751],[77.401,11.764],[77.382,11.776],[77.359,11.779],[77.346,11.764],[77.326,11.759],[77.306,11.779],[77.29,11.794],[77.248,11.801],[77.227,11.784],[77.204,11.784],[77.178,11.78],[77.155,11.774],[77.135,11.766],[77.114,11.762],[77.105,11.732],[77.076,11.724],[77.05,11.758],[77.057,11.777],[77.028,11.762],[77.032,11.784],[77.013,11.799],[76.99,11.799],[76.965,11.776],[76.944,11.781],[76.913,11.78],[76.893,11.777],[76.889,11.75],[76.882,11.73],[76.865,11.711],[76.849,11.687],[76.838,11.665],[76.828,11.644],[76.839,11.623],[76.851,11.602],[76.837,11.574],[76.824,11.591],[76.791,11.6],[76.751,11.607],[76.72,11.605],[76.693,11.604],[76.664,11.605],[76.634,11.604],[76.608,11.6],[76.586,11.608],[76.56,11.61],[76.547,11.636],[76.543,11.656],[76.535,11.677],[76.513,11.694],[76.488,11.685],[76.467,11.672],[76.451,11.655],[76.431,11.657],[76.41,11.665],[76.402,11.683],[76.403,11.707],[76.419,11.722],[76.407,11.741],[76.384,11.745],[76.356,11.74],[76.335,11.731],[76.311,11.744],[76.303,11.77],[76.284,11.785],[76.272,11.804],[76.244,11.795],[76.219,11.8],[76.206,11.82],[76.203,11.849],[76.184,11.864],[76.163,11.86],[76.139,11.857],[76.12,11.844],[76.109,11.871],[76.109,11.928],[76.108,11.971],[76.081,11.961],[76.048,11.944],[76.03,11.933],[76.004,11.932],[75.983,11.925],[75.959,11.929],[75.937,11.933],[75.915,11.934],[75.894,11.937],[75.866,11.946],[75.847,11.965],[75.827,11.978],[75.828,12.003],[75.812,12.016],[75.798,12.033],[75.802,12.068],[75.768,12.078],[75.748,12.073],[75.728,12.064],[75.707,12.083],[75.692,12.103],[75.673,12.091],[75.653,12.101],[75.643,12.12],[75.637,12.14],[75.617,12.149],[75.595,12.145],[75.57,12.165],[75.552,12.176],[75.54,12.192],[75.525,12.22],[75.517,12.244],[75.504,12.26],[75.487,12.281],[75.467,12.295],[75.441,12.29],[75.419,12.286],[75.423,12.308],[75.414,12.334],[75.421,12.362],[75.403,12.373],[75.386,12.386],[75.37,12.402],[75.371,12.429],[75.366,12.449],[75.386,12.451],[75.409,12.45],[75.424,12.466],[75.414,12.497],[75.392,12.493],[75.372,12.486],[75.363,12.465],[75.341,12.456],[75.339,12.48],[75.321,12.491],[75.305,12.517],[75.281,12.518],[75.272,12.54],[75.277,12.564],[75.295,12.575],[75.316,12.569],[75.328,12.585],[75.306,12.595],[75.281,12.608],[75.262,12.593],[75.249,12.575],[75.231,12.561],[75.214,12.573],[75.21,12.597],[75.203,12.623],[75.183,12.627],[75.163,12.618],[75.143,12.633],[75.155,12.654],[75.151,12.676],[75.127,12.673],[75.109,12.685],[75.086,12.698],[75.087,12.676],[75.07,12.658],[75.048,12.66],[75.045,12.687],[75.053,12.71],[75.031,12.717],[75.007,12.709],[74.993,12.733],[75.004,12.754],[75.005,12.785],[74.982,12.775],[74.96,12.779],[74.937,12.772],[74.909,12.763],[74.889,12.752],[74.867,12.754],[74.859,12.773],[74.85,12.791],[74.841,12.81],[74.835,12.828],[74.827,12.847],[74.819,12.867],[74.815,12.887],[74.81,12.907],[74.818,12.926],[74.803,12.94],[74.8,12.961],[74.795,12.981],[74.791,13],[74.786,13.022],[74.782,13.042],[74.778,13.062],[74.779,13.082],[74.769,13.099],[74.765,13.12],[74.76,13.139],[74.755,13.16],[74.75,13.18],[74.743,13.2],[74.738,13.22],[74.733,13.24],[74.729,13.26],[74.723,13.279],[74.719,13.3],[74.714,13.319],[74.706,13.337],[74.717,13.32],[74.72,13.298],[74.725,13.279],[74.723,13.299],[74.72,13.319],[74.712,13.338],[74.698,13.353],[74.697,13.374],[74.697,13.395],[74.696,13.417],[74.694,13.438],[74.692,13.459],[74.689,13.479],[74.687,13.499],[74.685,13.519],[74.682,13.539],[74.68,13.56],[74.677,13.58],[74.673,13.6],[74.67,13.62],[74.667,13.641],[74.658,13.659],[74.648,13.676],[74.643,13.697],[74.64,13.717],[74.637,13.738],[74.633,13.758],[74.629,13.78],[74.623,13.8],[74.619,13.821],[74.614,13.84],[74.609,13.86],[74.627,13.848],[74.612,13.862],[74.6,13.878],[74.593,13.898],[74.587,13.917],[74.576,13.934],[74.56,13.947],[74.542,13.957],[74.529,13.972],[74.515,13.986],[74.509,14.007],[74.502,14.026],[74.5,14.047],[74.495,14.067],[74.489,14.086],[74.488,14.11],[74.482,14.131],[74.479,14.151],[74.473,14.171],[74.468,14.191],[74.453,14.204],[74.444,14.222],[74.438,14.242],[74.432,14.262],[74.427,14.281],[74.421,14.301],[74.413,14.322],[74.409,14.342],[74.405,14.362],[74.403,14.382],[74.398,14.402],[74.386,14.418],[74.382,14.438],[74.377,14.457],[74.37,14.477],[74.362,14.495],[74.358,14.515],[74.377,14.523],[74.384,14.543],[74.366,14.553],[74.376,14.571],[74.358,14.563],[74.354,14.543],[74.346,14.561],[74.351,14.542],[74.356,14.522],[74.333,14.518],[74.312,14.521],[74.314,14.542],[74.307,14.561],[74.299,14.58],[74.295,14.601],[74.279,14.614],[74.284,14.634],[74.282,14.654],[74.282,14.678],[74.272,14.696],[74.266,14.715],[74.255,14.732],[74.24,14.745],[74.223,14.735],[74.208,14.722],[74.193,14.735],[74.18,14.75],[74.167,14.765],[74.159,14.746],[74.153,14.766],[74.14,14.78],[74.12,14.775],[74.109,14.791],[74.093,14.803],[74.113,14.807],[74.126,14.825],[74.131,14.844],[74.112,14.852],[74.107,14.871],[74.1,14.891],[74.113,14.911],[74.133,14.916],[74.154,14.917],[74.175,14.909],[74.166,14.937],[74.18,14.953],[74.204,14.938],[74.225,14.941],[74.244,14.957],[74.264,14.963],[74.262,14.991],[74.276,15.01],[74.289,15.027],[74.301,15.044],[74.289,15.066],[74.284,15.094],[74.291,15.117],[74.29,15.143],[74.311,15.162],[74.322,15.184],[74.316,15.203],[74.307,15.223],[74.279,15.237],[74.259,15.25],[74.273,15.268],[74.296,15.283],[74.318,15.282],[74.342,15.293],[74.328,15.313],[74.328,15.343],[74.329,15.365],[74.306,15.381],[74.283,15.389],[74.281,15.409],[74.283,15.433],[74.273,15.465],[74.256,15.49],[74.268,15.506],[74.284,15.519],[74.283,15.542],[74.27,15.561],[74.256,15.583],[74.265,15.602],[74.262,15.623],[74.256,15.647],[74.245,15.666],[74.224,15.659],[74.196,15.665],[74.175,15.67],[74.166,15.652],[74.143,15.647],[74.121,15.654],[74.098,15.666],[74.118,15.671],[74.139,15.686],[74.139,15.706],[74.143,15.727],[74.162,15.742],[74.197,15.75],[74.215,15.766],[74.227,15.786],[74.235,15.76],[74.25,15.741],[74.271,15.752],[74.292,15.739],[74.313,15.748],[74.328,15.768],[74.351,15.763],[74.368,15.782],[74.376,15.801],[74.373,15.826],[74.389,15.844],[74.354,15.848],[74.364,15.87],[74.371,15.89],[74.386,15.873],[74.393,15.852],[74.399,15.874],[74.399,15.896],[74.412,15.925],[74.435,15.951],[74.444,15.974],[74.45,15.999],[74.464,16.023],[74.468,16.047],[74.448,16.052],[74.423,16.053],[74.396,16.04],[74.382,16.054],[74.38,16.077],[74.397,16.087],[74.416,16.096],[74.435,16.111],[74.455,16.103],[74.478,16.092],[74.496,16.102],[74.491,16.142],[74.495,16.169],[74.509,16.188],[74.503,16.212],[74.495,16.236],[74.473,16.239],[74.443,16.25],[74.423,16.257],[74.421,16.281],[74.401,16.276],[74.38,16.294],[74.359,16.289],[74.344,16.272],[74.345,16.303],[74.337,16.323],[74.323,16.34],[74.328,16.368],[74.335,16.389],[74.351,16.377],[74.369,16.391],[74.349,16.404],[74.337,16.42],[74.342,16.442],[74.322,16.45],[74.305,16.461],[74.298,16.482],[74.3,16.503],[74.281,16.489],[74.26,16.491],[74.279,16.501],[74.276,16.525],[74.294,16.532],[74.312,16.507],[74.323,16.532],[74.329,16.553],[74.355,16.553],[74.371,16.538],[74.39,16.528],[74.395,16.56],[74.403,16.579],[74.429,16.583],[74.447,16.6],[74.472,16.605],[74.464,16.634],[74.47,16.655],[74.486,16.639],[74.51,16.631],[74.551,16.633],[74.55,16.609],[74.566,16.59],[74.559,16.567],[74.574,16.552],[74.593,16.564],[74.617,16.568],[74.636,16.576],[74.64,16.6],[74.664,16.601],[74.69,16.604],[74.674,16.628],[74.669,16.656],[74.696,16.675],[74.696,16.711],[74.722,16.713],[74.748,16.722],[74.764,16.737],[74.791,16.748],[74.85,16.76],[74.868,16.771],[74.893,16.769],[74.924,16.77],[74.916,16.81],[74.913,16.831],[74.912,16.856],[74.932,16.87],[74.949,16.88],[74.967,16.905],[74.944,16.913],[74.927,16.926],[74.948,16.936],[74.969,16.936],[74.994,16.935],[75.03,16.942],[75.051,16.94],[75.083,16.947],[75.095,16.921],[75.119,16.91],[75.138,16.893],[75.151,16.869],[75.172,16.865],[75.193,16.87],[75.183,16.842],[75.216,16.84],[75.236,16.854],[75.258,16.862],[75.283,16.874],[75.292,16.901],[75.284,16.943],[75.306,16.955],[75.338,16.954],[75.36,16.957],[75.395,16.976],[75.417,16.97],[75.439,16.971],[75.468,16.985],[75.49,16.965],[75.493,16.945],[75.517,16.952],[75.533,16.967],[75.558,16.964],[75.569,16.999],[75.599,17.005],[75.611,16.97],[75.631,16.967],[75.645,16.951],[75.671,16.959],[75.669,16.983],[75.673,17.026],[75.648,17.033],[75.654,17.055],[75.678,17.063],[75.677,17.088],[75.674,17.114],[75.654,17.113],[75.65,17.133],[75.631,17.16],[75.629,17.181],[75.644,17.194],[75.662,17.208],[75.661,17.24],[75.66,17.261],[75.632,17.272],[75.625,17.294],[75.606,17.303],[75.616,17.329],[75.598,17.345],[75.579,17.383],[75.603,17.39],[75.615,17.41],[75.619,17.439],[75.625,17.458],[75.636,17.478],[75.656,17.468],[75.678,17.458],[75.681,17.436],[75.691,17.413],[75.715,17.409],[75.734,17.422],[75.759,17.408],[75.777,17.388],[75.791,17.373],[75.811,17.37],[75.816,17.398],[75.822,17.42],[75.848,17.415],[75.859,17.389],[75.879,17.4],[75.897,17.377],[75.894,17.354],[75.916,17.339],[75.931,17.324],[75.96,17.334],[75.981,17.336],[76.004,17.343],[76.037,17.349],[76.06,17.354],[76.073,17.332],[76.093,17.344],[76.102,17.362],[76.138,17.353],[76.163,17.341],[76.164,17.319],[76.172,17.298],[76.176,17.321],[76.172,17.349],[76.193,17.359],[76.229,17.363],[76.25,17.367],[76.27,17.357],[76.276,17.331],[76.296,17.329],[76.317,17.329],[76.335,17.35],[76.351,17.328],[76.382,17.312],[76.393,17.336],[76.411,17.348],[76.408,17.369],[76.362,17.375],[76.37,17.408],[76.373,17.434],[76.342,17.434],[76.331,17.462],[76.35,17.472],[76.372,17.486],[76.346,17.492],[76.356,17.513],[76.361,17.536],[76.34,17.543],[76.334,17.563],[76.332,17.595],[76.359,17.596],[76.382,17.601],[76.416,17.604],[76.426,17.628],[76.443,17.642],[76.489,17.661],[76.484,17.684],[76.486,17.714],[76.511,17.716],[76.525,17.735],[76.524,17.759],[76.56,17.763],[76.568,17.74],[76.569,17.704],[76.593,17.718],[76.604,17.756],[76.627,17.756],[76.631,17.729],[76.651,17.721],[76.66,17.699],[76.678,17.687],[76.692,17.705],[76.702,17.724],[76.728,17.737],[76.719,17.761],[76.716,17.782],[76.739,17.779],[76.763,17.787],[76.78,17.806],[76.788,17.826],[76.766,17.851],[76.746,17.858],[76.74,17.884],[76.766,17.898],[76.773,17.879],[76.797,17.869],[76.811,17.884],[76.833,17.883],[76.854,17.898],[76.875,17.893],[76.894,17.907],[76.913,17.914],[76.919,17.937],[76.917,17.96],[76.92,17.985],[76.918,18.012],[76.918,18.033],[76.939,18.037],[76.951,18.058],[76.95,18.082],[76.967,18.093],[76.953,18.11],[76.932,18.111],[76.93,18.132],[76.933,18.158],[76.951,18.172],[76.971,18.187],[76.991,18.187],[76.998,18.167],[77.024,18.163],[77.032,18.183],[77.05,18.161],[77.069,18.149],[77.089,18.156],[77.116,18.168],[77.103,18.186],[77.117,18.202],[77.139,18.207],[77.148,18.238],[77.166,18.256],[77.171,18.281],[77.192,18.274],[77.204,18.29],[77.195,18.313],[77.217,18.325],[77.227,18.345],[77.231,18.366],[77.233,18.386],[77.24,18.409],[77.265,18.418],[77.295,18.433],[77.317,18.454],[77.337,18.435]]]]}},{"type":"Feature","properties":{"name":"Kerala"},"geometry":{"type":"MultiPolygon","coordinates":[[[[76.404,9.542],[76.383,9.527],[76.399,9.54],[76.404,9.542]]],[[[76.435,9.552],[76.434,9.528],[76.406,9.528],[76.416,9.545],[76.435,9.552]]],[[[76.437,9.552],[76.456,9.545],[76.442,9.529],[76.436,9.552],[76.437,9.552]]],[[[76.414,9.563],[76.408,9.544],[76.39,9.537],[76.403,9.553],[76.414,9.563]]],[[[76.35,9.875],[76.361,9.858],[76.37,9.84],[76.35,9.838],[76.352,9.858],[76.35,9.875]]],[[[76.308,9.922],[76.317,9.903],[76.305,9.92],[76.308,9.922]]],[[[76.261,9.971],[76.278,9.96],[76.287,9.942],[76.267,9.945],[76.262,9.965],[76.261,9.971]]],[[[76.242,10.014],[76.255,9.999],[76.257,9.979],[76.244,9.996],[76.242,10.014]]],[[[75.285,11.987],[75.296,11.97],[75.285,11.987],[75.285,11.987]]],[[[75.158,12.109],[75.166,12.091],[75.175,12.073],[75.181,12.054],[75.172,12.072],[75.164,12.09],[75.157,12.109],[75.158,12.109]]],[[[75.163,12.115],[75.17,12.096],[75.16,12.114],[75.163,12.115]]],[[[75.154,12.143],[75.159,12.123],[75.15,12.141],[75.154,12.143]]],[[[75.135,12.186],[75.145,12.168],[75.151,12.148],[75.144,12.167],[75.135,12.185],[75.135,12.186]]],[[[75.127,12.205],[75.131,12.186],[75.14,12.167],[75.146,12.148],[75.15,12.128],[75.142,12.147],[75.135,12.166],[75.127,12.185],[75.125,12.205],[75.127,12.205]]],[[[74.996,12.788],[75.005,12.769],[74.995,12.745],[75.012,12.723],[75.031,12.717],[75.053,12.71],[75.057,12.687],[75.043,12.671],[75.066,12.658],[75.085,12.67],[75.082,12.693],[75.104,12.692],[75.121,12.674],[75.145,12.673],[75.155,12.654],[75.141,12.638],[75.155,12.62],[75.177,12.622],[75.201,12.625],[75.202,12.603],[75.203,12.581],[75.223,12.563],[75.24,12.574],[75.259,12.591],[75.27,12.609],[75.291,12.597],[75.319,12.585],[75.295,12.575],[75.277,12.564],[75.272,12.54],[75.281,12.518],[75.305,12.517],[75.305,12.497],[75.328,12.492],[75.338,12.473],[75.356,12.458],[75.373,12.477],[75.387,12.492],[75.409,12.494],[75.421,12.472],[75.409,12.45],[75.386,12.451],[75.366,12.449],[75.371,12.429],[75.366,12.407],[75.379,12.387],[75.397,12.375],[75.419,12.37],[75.418,12.348],[75.416,12.321],[75.43,12.302],[75.458,12.289],[75.483,12.286],[75.493,12.267],[75.511,12.253],[75.52,12.233],[75.538,12.211],[75.549,12.188],[75.56,12.169],[75.577,12.151],[75.598,12.147],[75.627,12.145],[75.643,12.131],[75.648,12.106],[75.662,12.091],[75.684,12.102],[75.7,12.088],[75.718,12.077],[75.739,12.072],[75.763,12.079],[75.784,12.076],[75.796,12.049],[75.81,12.024],[75.827,12.006],[75.824,11.984],[75.844,11.97],[75.866,11.946],[75.89,11.938],[75.915,11.934],[75.937,11.933],[75.959,11.929],[75.98,11.925],[76.004,11.932],[76.03,11.933],[76.048,11.944],[76.067,11.958],[76.091,11.962],[76.109,11.928],[76.107,11.876],[76.108,11.851],[76.139,11.857],[76.163,11.86],[76.184,11.864],[76.203,11.849],[76.206,11.82],[76.219,11.8],[76.244,11.795],[76.265,11.8],[76.284,11.785],[76.303,11.77],[76.311,11.744],[76.335,11.731],[76.356,11.74],[76.384,11.745],[76.404,11.75],[76.417,11.726],[76.409,11.704],[76.402,11.683],[76.41,11.665],[76.428,11.648],[76.425,11.623],[76.396,11.625],[76.377,11.615],[76.371,11.593],[76.35,11.583],[76.329,11.589],[76.311,11.578],[76.294,11.565],[76.278,11.584],[76.226,11.564],[76.238,11.533],[76.242,11.505],[76.241,11.475],[76.266,11.469],[76.288,11.466],[76.306,11.453],[76.334,11.459],[76.353,11.451],[76.371,11.441],[76.391,11.428],[76.41,11.434],[76.418,11.405],[76.439,11.391],[76.473,11.375],[76.51,11.361],[76.53,11.348],[76.541,11.327],[76.53,11.31],[76.534,11.288],[76.516,11.272],[76.488,11.252],[76.446,11.23],[76.443,11.2],[76.453,11.18],[76.466,11.199],[76.488,11.203],[76.51,11.195],[76.536,11.189],[76.578,11.197],[76.602,11.195],[76.623,11.186],[76.642,11.197],[76.668,11.211],[76.697,11.231],[76.721,11.212],[76.721,11.185],[76.701,11.175],[76.686,11.158],[76.697,11.133],[76.722,11.123],[76.741,11.11],[76.739,11.084],[76.734,11.064],[76.746,11.047],[76.762,11.034],[76.79,11.05],[76.782,11.029],[76.757,11.025],[76.732,11.029],[76.712,11.032],[76.69,11.018],[76.68,10.999],[76.66,10.96],[76.657,10.939],[76.675,10.906],[76.7,10.901],[76.718,10.89],[76.739,10.884],[76.762,10.88],[76.781,10.874],[76.818,10.862],[76.834,10.843],[76.843,10.822],[76.86,10.8],[76.882,10.801],[76.898,10.771],[76.893,10.75],[76.88,10.726],[76.881,10.706],[76.865,10.693],[76.856,10.675],[76.87,10.661],[76.875,10.639],[76.86,10.625],[76.838,10.627],[76.815,10.626],[76.81,10.604],[76.825,10.59],[76.826,10.568],[76.826,10.543],[76.825,10.503],[76.821,10.48],[76.817,10.438],[76.807,10.415],[76.823,10.399],[76.825,10.375],[76.839,10.36],[76.828,10.338],[76.824,10.312],[76.83,10.291],[76.851,10.283],[76.871,10.264],[76.892,10.243],[76.905,10.225],[76.925,10.23],[76.946,10.223],[76.967,10.213],[76.987,10.22],[77.007,10.236],[77.03,10.243],[77.043,10.262],[77.053,10.28],[77.073,10.296],[77.092,10.304],[77.114,10.311],[77.134,10.324],[77.163,10.346],[77.189,10.346],[77.214,10.341],[77.214,10.306],[77.232,10.277],[77.247,10.258],[77.246,10.232],[77.266,10.225],[77.28,10.207],[77.269,10.187],[77.259,10.155],[77.258,10.132],[77.253,10.111],[77.231,10.12],[77.212,10.109],[77.188,10.096],[77.195,10.074],[77.213,10.058],[77.231,10.04],[77.246,10.024],[77.241,10.003],[77.247,9.981],[77.261,9.964],[77.25,9.943],[77.222,9.923],[77.204,9.894],[77.201,9.87],[77.213,9.852],[77.215,9.831],[77.219,9.809],[77.234,9.789],[77.21,9.78],[77.219,9.76],[77.206,9.737],[77.2,9.717],[77.189,9.697],[77.185,9.671],[77.173,9.652],[77.161,9.63],[77.155,9.608],[77.175,9.597],[77.196,9.604],[77.209,9.584],[77.23,9.576],[77.251,9.565],[77.275,9.577],[77.304,9.593],[77.311,9.57],[77.341,9.595],[77.345,9.567],[77.349,9.546],[77.355,9.524],[77.371,9.509],[77.395,9.504],[77.386,9.486],[77.382,9.461],[77.368,9.444],[77.345,9.445],[77.335,9.424],[77.322,9.406],[77.325,9.384],[77.32,9.363],[77.31,9.335],[77.291,9.328],[77.284,9.305],[77.267,9.291],[77.274,9.263],[77.266,9.244],[77.259,9.224],[77.258,9.2],[77.24,9.19],[77.252,9.165],[77.252,9.143],[77.233,9.118],[77.212,9.106],[77.196,9.088],[77.193,9.065],[77.183,9.047],[77.154,9.037],[77.141,9.015],[77.144,8.992],[77.163,8.962],[77.18,8.947],[77.179,8.921],[77.205,8.917],[77.206,8.893],[77.223,8.878],[77.242,8.865],[77.246,8.845],[77.236,8.818],[77.224,8.798],[77.215,8.776],[77.198,8.758],[77.181,8.741],[77.157,8.741],[77.163,8.721],[77.179,8.7],[77.19,8.677],[77.19,8.655],[77.205,8.635],[77.219,8.618],[77.228,8.598],[77.243,8.581],[77.26,8.549],[77.258,8.528],[77.248,8.501],[77.228,8.491],[77.206,8.504],[77.186,8.493],[77.195,8.469],[77.209,8.451],[77.189,8.435],[77.18,8.409],[77.164,8.388],[77.141,8.383],[77.143,8.362],[77.157,8.345],[77.16,8.317],[77.137,8.32],[77.112,8.316],[77.098,8.302],[77.079,8.309],[77.062,8.319],[77.047,8.333],[77.032,8.345],[77.014,8.356],[77.001,8.372],[76.983,8.38],[76.973,8.397],[76.964,8.415],[76.952,8.432],[76.939,8.447],[76.926,8.462],[76.913,8.478],[76.9,8.493],[76.887,8.508],[76.874,8.524],[76.861,8.54],[76.849,8.556],[76.836,8.572],[76.823,8.587],[76.81,8.603],[76.798,8.618],[76.785,8.634],[76.773,8.65],[76.76,8.666],[76.748,8.681],[76.735,8.697],[76.722,8.713],[76.708,8.727],[76.697,8.744],[76.686,8.761],[76.676,8.778],[76.663,8.793],[76.65,8.809],[76.64,8.826],[76.627,8.842],[76.613,8.856],[76.598,8.87],[76.581,8.88],[76.562,8.886],[76.548,8.901],[76.541,8.921],[76.536,8.941],[76.53,8.961],[76.525,8.982],[76.522,9.002],[76.517,9.022],[76.507,9.039],[76.499,9.058],[76.491,9.076],[76.483,9.095],[76.473,9.113],[76.465,9.131],[76.484,9.137],[76.48,9.157],[76.46,9.165],[76.451,9.182],[76.443,9.2],[76.44,9.224],[76.427,9.24],[76.432,9.22],[76.439,9.201],[76.447,9.182],[76.457,9.165],[76.466,9.147],[76.452,9.161],[76.443,9.18],[76.435,9.198],[76.427,9.217],[76.418,9.235],[76.409,9.254],[76.4,9.272],[76.392,9.29],[76.383,9.308],[76.376,9.328],[76.368,9.346],[76.359,9.365],[76.35,9.383],[76.343,9.403],[76.337,9.422],[76.332,9.442],[76.326,9.461],[76.32,9.481],[76.316,9.502],[76.311,9.522],[76.308,9.541],[76.304,9.561],[76.302,9.583],[76.298,9.604],[76.297,9.624],[76.294,9.645],[76.292,9.667],[76.29,9.688],[76.288,9.709],[76.286,9.729],[76.287,9.75],[76.28,9.77],[76.277,9.79],[76.273,9.81],[76.27,9.832],[76.266,9.852],[76.261,9.873],[76.257,9.894],[76.252,9.914],[76.246,9.933],[76.239,9.953],[76.248,9.97],[76.262,9.955],[76.265,9.935],[76.282,9.924],[76.296,9.909],[76.278,9.901],[76.26,9.911],[76.261,9.891],[76.267,9.872],[76.277,9.889],[76.292,9.875],[76.297,9.855],[76.283,9.84],[76.302,9.846],[76.297,9.866],[76.295,9.886],[76.313,9.878],[76.317,9.858],[76.32,9.838],[76.322,9.818],[76.326,9.798],[76.334,9.78],[76.34,9.758],[76.341,9.737],[76.345,9.717],[76.346,9.739],[76.342,9.76],[76.337,9.779],[76.331,9.798],[76.334,9.818],[76.323,9.835],[76.32,9.855],[76.33,9.873],[76.34,9.853],[76.344,9.834],[76.36,9.821],[76.36,9.801],[76.365,9.781],[76.367,9.761],[76.371,9.742],[76.366,9.721],[76.361,9.7],[76.373,9.685],[76.392,9.679],[76.391,9.659],[76.38,9.642],[76.376,9.622],[76.366,9.603],[76.368,9.583],[76.359,9.565],[76.355,9.543],[76.363,9.524],[76.382,9.516],[76.404,9.527],[76.434,9.527],[76.459,9.528],[76.479,9.528],[76.5,9.529],[76.485,9.542],[76.466,9.55],[76.445,9.549],[76.425,9.556],[76.418,9.575],[76.423,9.594],[76.429,9.613],[76.419,9.631],[76.406,9.646],[76.409,9.666],[76.413,9.686],[76.398,9.7],[76.388,9.717],[76.39,9.738],[76.387,9.757],[76.373,9.772],[76.369,9.792],[76.383,9.806],[76.383,9.826],[76.378,9.845],[76.377,9.865],[76.367,9.883],[76.36,9.902],[76.344,9.914],[76.324,9.915],[76.341,9.903],[76.335,9.884],[76.318,9.893],[76.314,9.913],[76.305,9.931],[76.292,9.946],[76.282,9.963],[76.274,9.982],[76.276,10.003],[76.268,10.022],[76.264,10.002],[76.254,10.02],[76.258,10.039],[76.248,10.057],[76.265,10.068],[76.259,10.088],[76.245,10.102],[76.23,10.115],[76.236,10.096],[76.242,10.077],[76.23,10.094],[76.218,10.11],[76.218,10.13],[76.207,10.147],[76.207,10.127],[76.213,10.108],[76.216,10.087],[76.226,10.069],[76.226,10.049],[76.237,10.032],[76.237,10.011],[76.24,9.991],[76.23,9.973],[76.221,9.991],[76.216,10.011],[76.21,10.03],[76.204,10.05],[76.198,10.069],[76.192,10.091],[76.187,10.111],[76.182,10.131],[76.176,10.15],[76.168,10.169],[76.188,10.164],[76.199,10.146],[76.191,10.165],[76.178,10.18],[76.16,10.19],[76.153,10.209],[76.147,10.229],[76.14,10.248],[76.134,10.268],[76.13,10.287],[76.124,10.308],[76.118,10.328],[76.111,10.347],[76.104,10.366],[76.097,10.385],[76.09,10.404],[76.082,10.422],[76.073,10.441],[76.064,10.459],[76.055,10.477],[76.046,10.495],[76.041,10.518],[76.053,10.533],[76.048,10.553],[76.044,10.573],[76.044,10.552],[76.033,10.533],[76.038,10.514],[76.026,10.53],[76.018,10.549],[76.01,10.568],[76.002,10.586],[75.994,10.605],[75.986,10.623],[75.977,10.641],[75.969,10.66],[75.96,10.678],[75.952,10.697],[75.944,10.715],[75.935,10.734],[75.927,10.753],[75.92,10.771],[75.912,10.79],[75.906,10.81],[75.902,10.829],[75.898,10.849],[75.893,10.87],[75.889,10.891],[75.884,10.911],[75.88,10.932],[75.875,10.952],[75.87,10.971],[75.865,10.991],[75.859,11.011],[75.853,11.032],[75.848,11.052],[75.843,11.073],[75.838,11.093],[75.832,11.112],[75.838,11.131],[75.858,11.137],[75.838,11.136],[75.818,11.139],[75.806,11.155],[75.826,11.158],[75.822,11.178],[75.807,11.165],[75.796,11.183],[75.788,11.202],[75.781,11.221],[75.774,11.24],[75.768,11.259],[75.763,11.278],[75.755,11.297],[75.748,11.317],[75.735,11.333],[75.736,11.353],[75.725,11.37],[75.717,11.389],[75.707,11.406],[75.698,11.424],[75.687,11.441],[75.672,11.454],[75.655,11.466],[75.634,11.462],[75.62,11.475],[75.616,11.496],[75.608,11.515],[75.601,11.534],[75.594,11.553],[75.592,11.573],[75.581,11.59],[75.574,11.609],[75.567,11.628],[75.558,11.647],[75.55,11.665],[75.542,11.683],[75.531,11.7],[75.517,11.715],[75.507,11.733],[75.491,11.744],[75.477,11.759],[75.497,11.758],[75.477,11.765],[75.487,11.782],[75.5,11.798],[75.48,11.8],[75.48,11.78],[75.468,11.764],[75.463,11.784],[75.461,11.804],[75.461,11.784],[75.443,11.794],[75.429,11.808],[75.417,11.824],[75.403,11.838],[75.388,11.852],[75.368,11.852],[75.354,11.866],[75.343,11.883],[75.33,11.898],[75.319,11.915],[75.307,11.932],[75.327,11.938],[75.346,11.932],[75.366,11.933],[75.384,11.926],[75.373,11.944],[75.357,11.932],[75.339,11.94],[75.319,11.946],[75.311,11.964],[75.295,11.976],[75.283,11.992],[75.268,12.005],[75.279,12.022],[75.292,12.005],[75.312,12.003],[75.332,12.011],[75.31,12.015],[75.312,12.035],[75.332,12.038],[75.313,12.045],[75.296,12.059],[75.309,12.078],[75.309,12.103],[75.33,12.103],[75.352,12.109],[75.369,12.121],[75.392,12.126],[75.389,12.146],[75.368,12.14],[75.348,12.135],[75.325,12.145],[75.311,12.125],[75.284,12.115],[75.266,12.104],[75.243,12.105],[75.223,12.105],[75.222,12.078],[75.224,12.054],[75.225,12.032],[75.22,12.012],[75.2,12.007],[75.193,12.027],[75.184,12.044],[75.183,12.065],[75.184,12.085],[75.198,12.07],[75.218,12.068],[75.198,12.072],[75.19,12.09],[75.192,12.112],[75.192,12.132],[75.19,12.112],[75.173,12.101],[75.163,12.118],[75.162,12.139],[75.154,12.158],[75.144,12.175],[75.134,12.193],[75.128,12.212],[75.111,12.223],[75.105,12.242],[75.097,12.261],[75.089,12.28],[75.081,12.299],[75.073,12.317],[75.065,12.336],[75.059,12.356],[75.048,12.373],[75.038,12.39],[75.025,12.405],[75.013,12.422],[75.005,12.441],[74.995,12.458],[74.986,12.477],[74.977,12.494],[74.97,12.513],[74.962,12.532],[74.958,12.551],[74.947,12.568],[74.939,12.587],[74.934,12.608],[74.923,12.625],[74.916,12.644],[74.908,12.662],[74.9,12.681],[74.891,12.699],[74.881,12.717],[74.874,12.736],[74.889,12.752],[74.908,12.763],[74.929,12.771],[74.954,12.779],[74.982,12.775],[74.996,12.788]]]]}},{"type":"Feature","properties":{"name":"Tamil Nadu"},"geometry":{"type":"MultiPolygon","coordinates":[[[[78.12,8.638],[78.119,8.618],[78.119,8.638],[78.12,8.638]]],[[[78.941,9.185],[78.919,9.183],[78.899,9.178],[78.919,9.183],[78.939,9.185],[78.941,9.185]]],[[[79.07,9.208],[79.087,9.197],[79.065,9.2],[79.07,9.208]]],[[[79.184,9.249],[79.198,9.235],[79.18,9.243],[79.184,9.249]]],[[[79.312,9.328],[79.33,9.319],[79.328,9.299],[79.316,9.283],[79.324,9.265],[79.337,9.25],[79.353,9.238],[79.368,9.225],[79.384,9.212],[79.4,9.2],[79.415,9.186],[79.43,9.173],[79.411,9.18],[79.394,9.191],[79.377,9.202],[79.36,9.213],[79.342,9.224],[79.325,9.234],[79.307,9.243],[79.288,9.251],[79.268,9.256],[79.249,9.26],[79.227,9.26],[79.212,9.273],[79.22,9.292],[79.242,9.292],[79.262,9.292],[79.276,9.307],[79.291,9.32],[79.31,9.328],[79.312,9.328]]],[[[79.696,10.321],[79.717,10.315],[79.697,10.313],[79.696,10.321]]],[[[80.076,13.527],[80.094,13.514],[80.121,13.502],[80.138,13.491],[80.154,13.479],[80.176,13.479],[80.204,13.478],[80.23,13.477],[80.247,13.464],[80.26,13.447],[80.265,13.421],[80.28,13.402],[80.293,13.383],[80.312,13.369],[80.315,13.392],[80.312,13.418],[80.325,13.403],[80.33,13.38],[80.328,13.402],[80.322,13.421],[80.325,13.442],[80.328,13.422],[80.33,13.401],[80.334,13.381],[80.34,13.361],[80.344,13.34],[80.346,13.32],[80.347,13.3],[80.343,13.28],[80.337,13.261],[80.334,13.242],[80.314,13.246],[80.318,13.226],[80.324,13.207],[80.318,13.186],[80.311,13.167],[80.303,13.148],[80.298,13.128],[80.305,13.108],[80.302,13.088],[80.291,13.071],[80.282,13.053],[80.28,13.03],[80.268,13.014],[80.272,12.994],[80.267,12.974],[80.262,12.954],[80.258,12.934],[80.256,12.914],[80.254,12.893],[80.251,12.871],[80.249,12.847],[80.248,12.827],[80.248,12.805],[80.238,12.823],[80.234,12.843],[80.237,12.823],[80.235,12.803],[80.252,12.791],[80.251,12.771],[80.245,12.752],[80.238,12.732],[80.231,12.713],[80.225,12.694],[80.218,12.675],[80.211,12.656],[80.203,12.638],[80.199,12.618],[80.192,12.599],[80.186,12.58],[80.172,12.594],[80.182,12.576],[80.178,12.556],[80.17,12.537],[80.164,12.518],[80.16,12.497],[80.158,12.476],[80.151,12.457],[80.14,12.44],[80.128,12.423],[80.117,12.407],[80.104,12.391],[80.09,12.376],[80.078,12.36],[80.065,12.345],[80.053,12.329],[80.061,12.347],[80.058,12.367],[80.042,12.355],[80.025,12.345],[80.013,12.329],[80.032,12.335],[80.05,12.343],[80.047,12.324],[80.037,12.306],[80.026,12.289],[80.017,12.27],[80.001,12.257],[79.984,12.247],[79.968,12.235],[79.95,12.225],[79.97,12.228],[79.985,12.241],[80.002,12.253],[79.995,12.234],[79.984,12.218],[79.974,12.2],[79.963,12.183],[79.951,12.167],[79.94,12.15],[79.929,12.133],[79.918,12.116],[79.907,12.099],[79.897,12.082],[79.885,12.065],[79.877,12.047],[79.868,12.029],[79.859,12.011],[79.852,11.991],[79.845,11.972],[79.84,11.953],[79.818,11.94],[79.806,11.959],[79.79,11.943],[79.769,11.941],[79.748,11.929],[79.741,11.909],[79.734,11.937],[79.714,11.955],[79.735,11.964],[79.752,11.976],[79.735,11.994],[79.72,11.976],[79.702,11.986],[79.692,12.011],[79.672,12.012],[79.652,11.998],[79.642,11.976],[79.665,11.968],[79.684,11.975],[79.702,11.956],[79.683,11.947],[79.69,11.926],[79.725,11.892],[79.708,11.874],[79.692,11.898],[79.68,11.879],[79.659,11.872],[79.68,11.871],[79.693,11.854],[79.718,11.848],[79.738,11.835],[79.744,11.86],[79.754,11.842],[79.758,11.822],[79.767,11.84],[79.788,11.835],[79.794,11.816],[79.797,11.793],[79.795,11.773],[79.79,11.753],[79.785,11.733],[79.779,11.714],[79.775,11.693],[79.771,11.672],[79.766,11.65],[79.761,11.63],[79.759,11.61],[79.758,11.588],[79.757,11.567],[79.76,11.547],[79.764,11.527],[79.773,11.508],[79.783,11.49],[79.791,11.472],[79.802,11.455],[79.809,11.435],[79.815,11.415],[79.819,11.394],[79.824,11.374],[79.83,11.355],[79.838,11.335],[79.837,11.315],[79.838,11.293],[79.841,11.271],[79.846,11.25],[79.831,11.235],[79.81,11.234],[79.831,11.234],[79.85,11.226],[79.853,11.204],[79.855,11.182],[79.857,11.16],[79.858,11.14],[79.859,11.117],[79.858,11.094],[79.859,11.073],[79.857,11.048],[79.857,11.027],[79.856,11.004],[79.855,10.978],[79.834,10.977],[79.814,10.987],[79.792,10.981],[79.774,10.971],[79.753,10.98],[79.732,10.987],[79.74,10.966],[79.746,10.943],[79.727,10.952],[79.704,10.952],[79.715,10.934],[79.708,10.915],[79.726,10.904],[79.745,10.897],[79.757,10.88],[79.78,10.871],[79.803,10.871],[79.808,10.849],[79.806,10.828],[79.82,10.811],[79.843,10.812],[79.851,10.784],[79.852,10.763],[79.852,10.74],[79.853,10.713],[79.853,10.692],[79.854,10.668],[79.854,10.648],[79.855,10.625],[79.856,10.604],[79.857,10.583],[79.858,10.563],[79.86,10.543],[79.861,10.522],[79.863,10.502],[79.863,10.481],[79.864,10.459],[79.865,10.434],[79.867,10.412],[79.869,10.392],[79.871,10.37],[79.876,10.349],[79.88,10.33],[79.884,10.306],[79.872,10.29],[79.853,10.28],[79.824,10.275],[79.803,10.274],[79.773,10.273],[79.751,10.274],[79.767,10.287],[79.787,10.283],[79.772,10.297],[79.758,10.311],[79.776,10.302],[79.759,10.313],[79.739,10.311],[79.72,10.319],[79.7,10.324],[79.679,10.323],[79.659,10.32],[79.638,10.318],[79.631,10.338],[79.628,10.358],[79.614,10.343],[79.616,10.323],[79.6,10.31],[79.577,10.309],[79.555,10.312],[79.574,10.305],[79.594,10.301],[79.616,10.299],[79.636,10.295],[79.656,10.292],[79.674,10.301],[79.69,10.288],[79.714,10.287],[79.733,10.28],[79.712,10.276],[79.691,10.279],[79.67,10.282],[79.65,10.286],[79.629,10.289],[79.608,10.293],[79.587,10.296],[79.567,10.299],[79.546,10.302],[79.526,10.306],[79.544,10.315],[79.557,10.331],[79.578,10.329],[79.564,10.344],[79.543,10.348],[79.542,10.327],[79.523,10.318],[79.513,10.336],[79.501,10.32],[79.486,10.334],[79.466,10.34],[79.483,10.33],[79.463,10.325],[79.484,10.318],[79.505,10.316],[79.481,10.311],[79.46,10.313],[79.44,10.315],[79.418,10.316],[79.397,10.317],[79.379,10.31],[79.36,10.301],[79.347,10.287],[79.327,10.282],[79.311,10.269],[79.294,10.259],[79.28,10.245],[79.268,10.228],[79.278,10.211],[79.264,10.197],[79.247,10.186],[79.238,10.168],[79.23,10.15],[79.232,10.13],[79.228,10.11],[79.229,10.09],[79.24,10.073],[79.253,10.057],[79.264,10.04],[79.247,10.028],[79.233,10.015],[79.22,9.999],[79.206,9.985],[79.194,9.968],[79.179,9.955],[79.165,9.94],[79.153,9.924],[79.142,9.907],[79.128,9.893],[79.119,9.875],[79.122,9.855],[79.108,9.84],[79.092,9.828],[79.081,9.811],[79.071,9.794],[79.06,9.777],[79.043,9.766],[79.029,9.752],[79.018,9.734],[79.005,9.718],[78.992,9.704],[78.98,9.687],[78.972,9.669],[78.968,9.649],[78.96,9.63],[78.944,9.618],[78.933,9.601],[78.928,9.582],[78.923,9.561],[78.919,9.541],[78.919,9.519],[78.915,9.499],[78.898,9.48],[78.905,9.461],[78.914,9.443],[78.925,9.426],[78.937,9.41],[78.95,9.395],[78.964,9.38],[78.977,9.365],[78.992,9.352],[79.008,9.339],[79.023,9.326],[79.04,9.315],[79.057,9.304],[79.077,9.298],[79.096,9.292],[79.117,9.289],[79.137,9.291],[79.157,9.286],[79.177,9.285],[79.157,9.278],[79.137,9.272],[79.117,9.268],[79.097,9.261],[79.075,9.261],[79.054,9.262],[79.034,9.267],[79.013,9.27],[78.992,9.273],[78.972,9.274],[78.951,9.272],[78.931,9.267],[78.915,9.255],[78.895,9.253],[78.873,9.257],[78.854,9.249],[78.834,9.245],[78.835,9.267],[78.832,9.247],[78.815,9.237],[78.796,9.231],[78.777,9.225],[78.758,9.217],[78.738,9.212],[78.72,9.203],[78.704,9.191],[78.684,9.196],[78.663,9.195],[78.647,9.183],[78.649,9.162],[78.63,9.154],[78.61,9.15],[78.592,9.142],[78.574,9.132],[78.553,9.137],[78.532,9.137],[78.51,9.135],[78.491,9.129],[78.49,9.15],[78.482,9.132],[78.462,9.127],[78.442,9.122],[78.423,9.116],[78.405,9.107],[78.389,9.095],[78.372,9.083],[78.358,9.069],[78.342,9.056],[78.326,9.044],[78.31,9.032],[78.293,9.02],[78.277,9.009],[78.26,8.998],[78.243,8.988],[78.226,8.976],[78.212,8.962],[78.2,8.946],[78.189,8.929],[78.182,8.91],[78.176,8.891],[78.167,8.872],[78.167,8.85],[78.166,8.83],[78.165,8.809],[78.162,8.789],[78.169,8.77],[78.188,8.766],[78.194,8.785],[78.199,8.766],[78.218,8.757],[78.198,8.763],[78.212,8.748],[78.192,8.75],[78.172,8.746],[78.159,8.731],[78.154,8.712],[78.14,8.697],[78.133,8.678],[78.129,8.658],[78.108,8.656],[78.102,8.637],[78.103,8.616],[78.095,8.597],[78.104,8.579],[78.122,8.588],[78.103,8.592],[78.109,8.611],[78.122,8.626],[78.13,8.607],[78.138,8.589],[78.134,8.568],[78.129,8.549],[78.123,8.528],[78.126,8.508],[78.123,8.488],[78.109,8.473],[78.095,8.459],[78.083,8.443],[78.07,8.428],[78.062,8.409],[78.057,8.39],[78.068,8.373],[78.048,8.367],[78.028,8.361],[78.011,8.351],[77.992,8.345],[77.974,8.335],[77.957,8.324],[77.943,8.309],[77.926,8.297],[77.907,8.289],[77.892,8.276],[77.873,8.267],[77.855,8.259],[77.836,8.253],[77.817,8.247],[77.8,8.236],[77.785,8.223],[77.783,8.203],[77.765,8.193],[77.75,8.18],[77.731,8.172],[77.712,8.166],[77.689,8.162],[77.669,8.159],[77.649,8.16],[77.63,8.154],[77.61,8.149],[77.59,8.142],[77.573,8.132],[77.56,8.117],[77.559,8.097],[77.552,8.077],[77.531,8.077],[77.511,8.083],[77.489,8.087],[77.469,8.091],[77.448,8.094],[77.428,8.099],[77.408,8.105],[77.389,8.111],[77.369,8.117],[77.349,8.123],[77.328,8.126],[77.308,8.127],[77.3,8.146],[77.284,8.157],[77.266,8.167],[77.247,8.173],[77.231,8.185],[77.218,8.2],[77.2,8.211],[77.183,8.221],[77.17,8.237],[77.155,8.25],[77.139,8.262],[77.122,8.273],[77.107,8.286],[77.101,8.312],[77.122,8.323],[77.145,8.32],[77.157,8.345],[77.136,8.346],[77.141,8.369],[77.164,8.388],[77.18,8.409],[77.189,8.435],[77.21,8.438],[77.199,8.46],[77.191,8.488],[77.206,8.504],[77.223,8.488],[77.241,8.498],[77.252,8.517],[77.265,8.537],[77.252,8.571],[77.238,8.588],[77.228,8.613],[77.212,8.629],[77.195,8.649],[77.19,8.671],[77.183,8.69],[77.167,8.708],[77.157,8.731],[77.181,8.741],[77.183,8.761],[77.205,8.77],[77.217,8.797],[77.232,8.813],[77.247,8.832],[77.24,8.851],[77.227,8.872],[77.215,8.892],[77.207,8.914],[77.187,8.916],[77.18,8.937],[77.163,8.962],[77.147,8.987],[77.135,9.005],[77.145,9.027],[77.167,9.039],[77.184,9.051],[77.191,9.07],[77.202,9.091],[77.217,9.108],[77.238,9.13],[77.25,9.156],[77.246,9.176],[77.258,9.2],[77.259,9.224],[77.266,9.244],[77.274,9.263],[77.267,9.291],[77.284,9.305],[77.284,9.327],[77.307,9.328],[77.321,9.351],[77.32,9.376],[77.321,9.402],[77.332,9.421],[77.343,9.44],[77.364,9.443],[77.377,9.459],[77.384,9.479],[77.396,9.497],[77.387,9.517],[77.366,9.515],[77.351,9.54],[77.336,9.557],[77.341,9.578],[77.325,9.563],[77.311,9.585],[77.286,9.587],[77.261,9.567],[77.239,9.573],[77.215,9.579],[77.197,9.596],[77.175,9.597],[77.152,9.606],[77.161,9.627],[77.166,9.648],[77.182,9.669],[77.189,9.697],[77.2,9.717],[77.206,9.737],[77.219,9.76],[77.21,9.78],[77.234,9.789],[77.219,9.809],[77.215,9.831],[77.224,9.849],[77.199,9.866],[77.204,9.894],[77.221,9.918],[77.234,9.938],[77.255,9.95],[77.25,9.973],[77.248,9.995],[77.249,10.016],[77.237,10.035],[77.221,10.051],[77.204,10.068],[77.19,10.087],[77.195,10.106],[77.215,10.109],[77.235,10.117],[77.255,10.116],[77.26,10.141],[77.264,10.18],[77.274,10.201],[77.27,10.224],[77.249,10.222],[77.245,10.245],[77.232,10.277],[77.221,10.296],[77.218,10.322],[77.199,10.342],[77.173,10.344],[77.148,10.334],[77.127,10.32],[77.108,10.307],[77.088,10.302],[77.068,10.29],[77.046,10.274],[77.039,10.248],[77.019,10.242],[76.999,10.23],[76.981,10.22],[76.962,10.216],[76.939,10.221],[76.909,10.223],[76.894,10.237],[76.877,10.256],[76.862,10.27],[76.864,10.29],[76.841,10.284],[76.82,10.295],[76.826,10.32],[76.836,10.346],[76.831,10.372],[76.816,10.387],[76.812,10.411],[76.817,10.438],[76.821,10.48],[76.825,10.503],[76.831,10.525],[76.83,10.553],[76.829,10.576],[76.809,10.594],[76.803,10.614],[76.822,10.627],[76.845,10.626],[76.873,10.629],[76.872,10.654],[76.855,10.672],[76.865,10.693],[76.881,10.706],[76.88,10.726],[76.89,10.747],[76.898,10.771],[76.891,10.792],[76.86,10.8],[76.84,10.808],[76.843,10.832],[76.828,10.847],[76.791,10.871],[76.773,10.882],[76.749,10.885],[76.728,10.887],[76.7,10.901],[76.675,10.906],[76.653,10.92],[76.655,10.942],[76.678,10.98],[76.69,11.018],[76.707,11.031],[76.732,11.029],[76.757,11.025],[76.782,11.029],[76.793,11.047],[76.775,11.034],[76.755,11.039],[76.736,11.054],[76.748,11.075],[76.734,11.093],[76.739,11.115],[76.715,11.128],[76.695,11.14],[76.689,11.165],[76.706,11.18],[76.718,11.198],[76.71,11.218],[76.679,11.227],[76.653,11.204],[76.63,11.191],[76.602,11.195],[76.578,11.197],[76.548,11.193],[76.521,11.19],[76.502,11.203],[76.475,11.201],[76.459,11.184],[76.438,11.195],[76.446,11.23],[76.488,11.252],[76.514,11.262],[76.522,11.281],[76.54,11.292],[76.535,11.316],[76.538,11.352],[76.516,11.349],[76.473,11.375],[76.448,11.381],[76.418,11.405],[76.41,11.425],[76.371,11.441],[76.353,11.451],[76.334,11.459],[76.306,11.453],[76.284,11.462],[76.258,11.473],[76.24,11.46],[76.245,11.494],[76.233,11.519],[76.234,11.546],[76.26,11.587],[76.286,11.583],[76.298,11.564],[76.329,11.589],[76.35,11.583],[76.371,11.593],[76.377,11.615],[76.396,11.625],[76.421,11.625],[76.435,11.642],[76.423,11.659],[76.451,11.655],[76.467,11.672],[76.485,11.682],[76.504,11.698],[76.525,11.686],[76.54,11.671],[76.545,11.648],[76.55,11.627],[76.575,11.606],[76.597,11.603],[76.626,11.604],[76.664,11.605],[76.693,11.604],[76.72,11.605],[76.741,11.606],[76.774,11.603],[76.808,11.596],[76.83,11.59],[76.851,11.602],[76.838,11.619],[76.828,11.638],[76.838,11.665],[76.849,11.687],[76.865,11.711],[76.881,11.725],[76.886,11.744],[76.888,11.766],[76.9,11.783],[76.927,11.781],[76.95,11.775],[76.975,11.791],[77.004,11.803],[77.023,11.795],[77.022,11.765],[77.041,11.778],[77.062,11.772],[77.074,11.73],[77.096,11.723],[77.103,11.746],[77.12,11.763],[77.144,11.771],[77.166,11.774],[77.19,11.783],[77.216,11.785],[77.237,11.788],[77.272,11.791],[77.306,11.779],[77.326,11.759],[77.346,11.764],[77.359,11.779],[77.382,11.776],[77.401,11.764],[77.419,11.751],[77.431,11.772],[77.441,11.791],[77.447,11.811],[77.456,11.839],[77.455,11.867],[77.453,11.889],[77.474,11.878],[77.48,11.9],[77.484,11.921],[77.511,11.925],[77.531,11.926],[77.573,11.924],[77.596,11.929],[77.63,11.938],[77.655,11.937],[77.667,11.959],[77.677,11.984],[77.689,12.01],[77.702,12.027],[77.716,12.049],[77.734,12.06],[77.751,12.081],[77.763,12.097],[77.753,12.118],[77.74,12.143],[77.729,12.16],[77.711,12.173],[77.673,12.181],[77.645,12.189],[77.621,12.192],[77.597,12.195],[77.57,12.188],[77.547,12.19],[77.524,12.188],[77.492,12.187],[77.469,12.197],[77.472,12.217],[77.463,12.236],[77.47,12.262],[77.491,12.273],[77.518,12.27],[77.54,12.282],[77.556,12.297],[77.566,12.317],[77.586,12.336],[77.6,12.351],[77.61,12.374],[77.613,12.398],[77.617,12.419],[77.618,12.443],[77.625,12.477],[77.597,12.465],[77.575,12.468],[77.602,12.492],[77.579,12.507],[77.576,12.537],[77.57,12.558],[77.581,12.584],[77.582,12.605],[77.598,12.621],[77.588,12.643],[77.609,12.663],[77.633,12.67],[77.654,12.674],[77.667,12.653],[77.688,12.652],[77.704,12.674],[77.723,12.663],[77.727,12.683],[77.747,12.687],[77.757,12.704],[77.753,12.725],[77.778,12.734],[77.772,12.755],[77.783,12.776],[77.791,12.796],[77.801,12.821],[77.785,12.834],[77.805,12.843],[77.822,12.855],[77.844,12.856],[77.867,12.859],[77.887,12.867],[77.909,12.873],[77.934,12.862],[77.918,12.847],[77.909,12.822],[77.933,12.813],[77.936,12.834],[77.958,12.836],[77.974,12.818],[77.981,12.796],[78.001,12.795],[78,12.819],[78.017,12.834],[78.04,12.838],[78.065,12.83],[78.082,12.809],[78.098,12.796],[78.118,12.78],[78.136,12.769],[78.158,12.76],[78.179,12.76],[78.199,12.755],[78.221,12.753],[78.229,12.72],[78.214,12.702],[78.195,12.695],[78.2,12.676],[78.228,12.674],[78.233,12.694],[78.264,12.692],[78.284,12.668],[78.309,12.65],[78.329,12.638],[78.348,12.624],[78.368,12.612],[78.398,12.614],[78.418,12.621],[78.439,12.617],[78.46,12.617],[78.459,12.639],[78.458,12.662],[78.489,12.663],[78.494,12.686],[78.51,12.699],[78.494,12.711],[78.48,12.73],[78.502,12.722],[78.516,12.706],[78.524,12.68],[78.545,12.684],[78.546,12.707],[78.554,12.726],[78.547,12.746],[78.567,12.752],[78.58,12.767],[78.59,12.792],[78.598,12.811],[78.594,12.833],[78.604,12.857],[78.612,12.889],[78.625,12.914],[78.647,12.919],[78.636,12.938],[78.62,12.974],[78.637,12.997],[78.649,13.016],[78.669,13.011],[78.694,13.004],[78.701,13.044],[78.726,13.053],[78.746,13.045],[78.778,13.053],[78.794,13.07],[78.832,13.07],[78.858,13.071],[78.876,13.086],[78.881,13.044],[78.882,13.02],[78.916,13.023],[78.893,13.035],[78.909,13.05],[78.93,13.066],[78.955,13.065],[78.98,13.077],[78.995,13.063],[79.023,13.056],[79.044,13.044],[79.061,13.021],[79.083,13.012],[79.104,13.024],[79.131,13.017],[79.153,13.007],[79.173,13.019],[79.172,13.044],[79.181,13.067],[79.193,13.09],[79.214,13.097],[79.222,13.116],[79.243,13.133],[79.267,13.141],[79.274,13.121],[79.299,13.115],[79.308,13.097],[79.317,13.119],[79.335,13.128],[79.348,13.144],[79.365,13.16],[79.378,13.182],[79.413,13.186],[79.423,13.204],[79.446,13.217],[79.418,13.218],[79.407,13.238],[79.412,13.258],[79.425,13.281],[79.405,13.285],[79.386,13.295],[79.401,13.316],[79.429,13.324],[79.455,13.324],[79.479,13.321],[79.51,13.315],[79.536,13.311],[79.539,13.29],[79.549,13.267],[79.565,13.249],[79.585,13.247],[79.601,13.268],[79.621,13.259],[79.638,13.276],[79.657,13.268],[79.679,13.269],[79.674,13.247],[79.692,13.239],[79.689,13.211],[79.711,13.21],[79.733,13.215],[79.744,13.195],[79.763,13.209],[79.783,13.218],[79.753,13.244],[79.722,13.266],[79.741,13.277],[79.751,13.299],[79.768,13.29],[79.792,13.292],[79.808,13.305],[79.831,13.302],[79.851,13.303],[79.871,13.312],[79.892,13.325],[79.906,13.339],[79.929,13.344],[79.941,13.361],[79.95,13.382],[79.932,13.404],[79.958,13.413],[79.963,13.441],[79.987,13.462],[80.004,13.478],[80.025,13.487],[80.014,13.504],[79.99,13.51],[80.008,13.532],[80.03,13.524],[80.051,13.531],[80.073,13.534],[80.076,13.527]]]]}}]}