{
"type": "FeatureCollection",
"name": "thaluk nedumangad ",
"crs": { "type": "name", "properties": { "name": "urn:ogc:def:crs:OGC:1.3:CRS84" } },
"features": [
{ "type": "Feature", "properties": { "OID_": 0, "TALUK": "Nedumangad", "STATE": "Kerala", "DISTRICT": "Thiruvanthapuram", "Shape_Leng": 1.36078828633, "Shape_Area": 0.07570816116, "orig_ogc_f": 2566 }, "geometry": { "type": "Polygon", "coordinates": [ [ [ 77.199891100000059, 8.770949350000024, 0.0 ], [ 77.197648600000036, 8.767386600000066, 0.0 ], [ 77.200343850000081, 8.763195350000046, 0.0 ], [ 77.200622850000059, 8.757969100000025, 0.0 ], [ 77.198026350000077, 8.750620850000075, 0.0 ], [ 77.19346610000008, 8.744824600000072, 0.0 ], [ 77.187878600000033, 8.743160850000038, 0.0 ], [ 77.179644100000075, 8.74494210000006, 0.0 ], [ 77.174121350000064, 8.75051110000004, 0.0 ], [ 77.172215350000045, 8.747298100000023, 0.0 ], [ 77.17428110000003, 8.740925100000027, 0.0 ], [ 77.179911600000082, 8.730644100000063, 0.0 ], [ 77.178694850000056, 8.724903100000063, 0.0 ], [ 77.184038600000065, 8.717379350000044, 0.0 ], [ 77.18938785000006, 8.713017100000059, 0.0 ], [ 77.196347100000082, 8.709399100000041, 0.0 ], [ 77.200078350000069, 8.699809600000037, 0.0 ], [ 77.204855350000059, 8.69354885000007, 0.0 ], [ 77.206918600000051, 8.687176850000071, 0.0 ], [ 77.207657850000032, 8.680976850000036, 0.0 ], [ 77.204300850000038, 8.672077100000024, 0.0 ], [ 77.207570850000081, 8.664669350000054, 0.0 ], [ 77.21252185000003, 8.658468600000049, 0.0 ], [ 77.215789850000078, 8.650891600000023, 0.0 ], [ 77.222578600000077, 8.645087600000068, 0.0 ], [ 77.225618600000075, 8.640953850000074, 0.0 ], [ 77.229764850000038, 8.638598850000051, 0.0 ], [ 77.236134850000042, 8.628203600000063, 0.0 ], [ 77.24574935000004, 8.622748350000052, 0.0 ], [ 77.233970100000079, 8.618730850000077, 0.0 ], [ 77.23429985000007, 8.609719100000063, 0.0 ], [ 77.230730600000072, 8.608627350000063, 0.0 ], [ 77.225156850000076, 8.618504850000022, 0.0 ], [ 77.217562600000065, 8.619311100000061, 0.0 ], [ 77.214318850000041, 8.606334850000053, 0.0 ], [ 77.207913100000042, 8.597037350000051, 0.0 ], [ 77.203303100000085, 8.593076600000074, 0.0 ], [ 77.203627600000061, 8.583315600000049, 0.0 ], [ 77.197058350000077, 8.577806850000059, 0.0 ], [ 77.178979350000077, 8.574422100000049, 0.0 ], [ 77.16366110000007, 8.574251600000025, 0.0 ], [ 77.160493350000081, 8.567765350000059, 0.0 ], [ 77.160882100000038, 8.558291850000046, 0.0 ], [ 77.15708010000003, 8.559381850000022, 0.0 ], [ 77.157310850000044, 8.554733850000048, 0.0 ], [ 77.155696350000085, 8.551747350000028, 0.0 ], [ 77.149822100000051, 8.553583850000052, 0.0 ], [ 77.145907350000073, 8.556051600000046, 0.0 ], [ 77.139463350000085, 8.554329850000045, 0.0 ], [ 77.132613100000071, 8.555651600000033, 0.0 ], [ 77.12840760000006, 8.555363600000021, 0.0 ], [ 77.124608350000074, 8.551633350000031, 0.0 ], [ 77.116316850000032, 8.551805350000052, 0.0 ], [ 77.117631850000066, 8.542560600000058, 0.0 ], [ 77.120900600000084, 8.533551850000038, 0.0 ], [ 77.125675350000051, 8.529475350000041, 0.0 ], [ 77.124508350000042, 8.519540100000029, 0.0 ], [ 77.126921100000061, 8.516038850000029, 0.0 ], [ 77.118621850000068, 8.508747850000077, 0.0 ], [ 77.117931600000077, 8.504903350000063, 0.0 ], [ 77.11315710000008, 8.507140850000042, 0.0 ], [ 77.093462850000037, 8.504670100000055, 0.0 ], [ 77.08719560000003, 8.506849100000068, 0.0 ], [ 77.083749600000033, 8.510007600000051, 0.0 ], [ 77.080242350000049, 8.515343850000022, 0.0 ], [ 77.072186100000067, 8.523840350000057, 0.0 ], [ 77.067986100000041, 8.525160100000051, 0.0 ], [ 77.063326350000068, 8.523667850000038, 0.0 ], [ 77.061835600000052, 8.53067285000003, 0.0 ], [ 77.058787850000044, 8.536644100000046, 0.0 ], [ 77.05459460000003, 8.539855850000038, 0.0 ], [ 77.035722100000044, 8.547199600000056, 0.0 ], [ 77.01444360000005, 8.548341600000072, 0.0 ], [ 77.014358350000066, 8.550982350000027, 0.0 ], [ 76.99890135000004, 8.55155035000007, 0.0 ], [ 76.992671100000052, 8.552159350000068, 0.0 ], [ 76.989660350000065, 8.54926585000004, 0.0 ], [ 76.984406350000029, 8.54648485000007, 0.0 ], [ 76.979459850000069, 8.54761035000007, 0.0 ], [ 76.970363350000071, 8.547569600000031, 0.0 ], [ 76.969877100000076, 8.553614350000032, 0.0 ], [ 76.968178600000044, 8.560283350000077, 0.0 ], [ 76.963352850000035, 8.563029350000022, 0.0 ], [ 76.958582850000084, 8.564547850000054, 0.0 ], [ 76.953566600000045, 8.564208350000058, 0.0 ], [ 76.949103100000059, 8.569105850000028, 0.0 ], [ 76.938976850000074, 8.572821100000056, 0.0 ], [ 76.937275600000078, 8.576865350000048, 0.0 ], [ 76.940517600000078, 8.580014600000027, 0.0 ], [ 76.940245850000053, 8.58405410000006, 0.0 ], [ 76.936214350000057, 8.583675350000021, 0.0 ], [ 76.933684350000078, 8.585820350000063, 0.0 ], [ 76.935138100000074, 8.588695100000052, 0.0 ], [ 76.933597850000069, 8.590489600000069, 0.0 ], [ 76.931286600000078, 8.588771850000057, 0.0 ], [ 76.927038350000032, 8.593054850000044, 0.0 ], [ 76.930098100000066, 8.594826850000061, 0.0 ], [ 76.929079350000052, 8.598748100000023, 0.0 ], [ 76.924118350000072, 8.607462600000076, 0.0 ], [ 76.913014850000081, 8.609977600000036, 0.0 ], [ 76.907333350000044, 8.613565600000072, 0.0 ], [ 76.902915850000056, 8.619276600000035, 0.0 ], [ 76.901511850000077, 8.625496600000076, 0.0 ], [ 76.892192600000044, 8.628801850000059, 0.0 ], [ 76.88420085000007, 8.643440350000049, 0.0 ], [ 76.886714350000034, 8.65229510000006, 0.0 ], [ 76.879039600000056, 8.660663100000022, 0.0 ], [ 76.879199600000049, 8.671469100000024, 0.0 ], [ 76.882906600000069, 8.675486600000056, 0.0 ], [ 76.880903600000067, 8.67808210000004, 0.0 ], [ 76.884698350000065, 8.687734850000027, 0.0 ], [ 76.886068350000073, 8.699925350000058, 0.0 ], [ 76.88408835000007, 8.705905600000051, 0.0 ], [ 76.874822100000074, 8.709089600000027, 0.0 ], [ 76.873637100000053, 8.712828350000052, 0.0 ], [ 76.870238850000078, 8.714098850000028, 0.0 ], [ 76.871991600000058, 8.71863785000005, 0.0 ], [ 76.874426850000077, 8.72259710000003, 0.0 ], [ 76.880102350000072, 8.72867535000006, 0.0 ], [ 76.884741600000041, 8.722855600000059, 0.0 ], [ 76.889351600000055, 8.723186350000049, 0.0 ], [ 76.891352100000063, 8.719906350000031, 0.0 ], [ 76.896723100000031, 8.723789350000061, 0.0 ], [ 76.896459850000042, 8.728094600000077, 0.0 ], [ 76.905750100000034, 8.732279100000028, 0.0 ], [ 76.908023850000063, 8.73752010000004, 0.0 ], [ 76.914003600000058, 8.745629350000058, 0.0 ], [ 76.918098100000066, 8.747639100000072, 0.0 ], [ 76.92674935000008, 8.748985600000026, 0.0 ], [ 76.927234100000078, 8.753436850000071, 0.0 ], [ 76.93336185000004, 8.757527100000061, 0.0 ], [ 76.933900100000074, 8.761999600000024, 0.0 ], [ 76.941518100000053, 8.765881100000058, 0.0 ], [ 76.947654600000078, 8.770548100000042, 0.0 ], [ 76.951292100000046, 8.772092600000065, 0.0 ], [ 76.958836600000041, 8.771156350000069, 0.0 ], [ 76.968923850000067, 8.772573600000044, 0.0 ], [ 76.972970600000053, 8.77395260000003, 0.0 ], [ 76.974265350000053, 8.77955785000006, 0.0 ], [ 76.976655850000043, 8.784426850000045, 0.0 ], [ 76.980070850000061, 8.786661350000031, 0.0 ], [ 76.986689600000034, 8.786087100000032, 0.0 ], [ 76.995037850000074, 8.782779100000027, 0.0 ], [ 76.99884035000008, 8.778966600000047, 0.0 ], [ 77.00534685000008, 8.771677350000061, 0.0 ], [ 77.020320600000048, 8.773060600000065, 0.0 ], [ 77.028508350000038, 8.775244850000036, 0.0 ], [ 77.018437100000085, 8.789994850000028, 0.0 ], [ 77.014876600000036, 8.799183850000077, 0.0 ], [ 77.012345850000031, 8.809747600000037, 0.0 ], [ 77.015979350000066, 8.814513350000027, 0.0 ], [ 77.023299100000031, 8.816639850000058, 0.0 ], [ 77.025903600000049, 8.830651600000067, 0.0 ], [ 77.029364350000037, 8.834727350000037, 0.0 ], [ 77.033428600000036, 8.84259835000006, 0.0 ], [ 77.04368635000003, 8.845873100000063, 0.0 ], [ 77.051643600000034, 8.845816100000036, 0.0 ], [ 77.081133600000044, 8.838529600000072, 0.0 ], [ 77.097653600000058, 8.831527100000073, 0.0 ], [ 77.106765350000046, 8.830322600000045, 0.0 ], [ 77.109866100000033, 8.825672100000077, 0.0 ], [ 77.122249600000032, 8.81929585000006, 0.0 ], [ 77.127193600000055, 8.813670600000023, 0.0 ], [ 77.13421610000006, 8.808276850000027, 0.0 ], [ 77.142622350000067, 8.805750100000068, 0.0 ], [ 77.148609350000072, 8.802648100000056, 0.0 ], [ 77.153501100000085, 8.797079350000047, 0.0 ], [ 77.158278600000074, 8.795584100000042, 0.0 ], [ 77.162768850000077, 8.791678600000068, 0.0 ], [ 77.17370685000003, 8.786165600000061, 0.0 ], [ 77.179922100000056, 8.780883600000038, 0.0 ], [ 77.187345850000042, 8.776405100000034, 0.0 ], [ 77.199891100000059, 8.770949350000024, 0.0 ] ] ] } }
]
}
