{
"type": "FeatureCollection",
"name": "mankayam routes",
"crs": { "type": "name", "properties": { "name": "urn:ogc:def:crs:OGC:1.3:CRS84" } },
"features": [
{ "type": "Feature", "properties": { "DIST_KM": 25.165, "DURATION_H": 0.446, "PROFILE": "driving-car", "PREF": "fastest", "OPTIONS": { }, "FROM_ID": null, "TO_ID": null }, "geometry": { "type": "LineString", "coordinates": [ [ 77.065058, 8.756028 ], [ 77.065139, 8.755846 ], [ 77.06544, 8.755301 ], [ 77.065698, 8.755066 ], [ 77.065836, 8.754898 ], [ 77.065957, 8.75479 ], [ 77.066696, 8.754426 ], [ 77.066986, 8.754248 ], [ 77.067485, 8.753982 ], [ 77.067815, 8.753758 ], [ 77.068158, 8.753594 ], [ 77.068314, 8.753482 ], [ 77.068381, 8.753366 ], [ 77.068416, 8.753272 ], [ 77.068547, 8.753132 ], [ 77.068607, 8.753017 ], [ 77.068653, 8.752888 ], [ 77.068604, 8.752709 ], [ 77.068627, 8.752559 ], [ 77.068602, 8.752543 ], [ 77.068593, 8.752485 ], [ 77.068613, 8.752456 ], [ 77.068773, 8.752339 ], [ 77.068846, 8.752248 ], [ 77.069001, 8.75177 ], [ 77.069019, 8.751534 ], [ 77.068948, 8.751358 ], [ 77.06875, 8.751212 ], [ 77.068715, 8.751142 ], [ 77.068708, 8.75105 ], [ 77.068721, 8.750956 ], [ 77.068762, 8.750835 ], [ 77.068833, 8.750704 ], [ 77.068968, 8.750551 ], [ 77.06899, 8.750429 ], [ 77.068987, 8.750191 ], [ 77.068952, 8.749967 ], [ 77.068903, 8.749879 ], [ 77.068805, 8.749803 ], [ 77.068593, 8.749715 ], [ 77.068507, 8.749665 ], [ 77.068443, 8.749572 ], [ 77.068443, 8.749538 ], [ 77.068472, 8.74948 ], [ 77.068622, 8.749273 ], [ 77.06865, 8.749173 ], [ 77.068657, 8.749081 ], [ 77.068579, 8.748645 ], [ 77.068535, 8.748517 ], [ 77.068391, 8.74832 ], [ 77.068346, 8.748226 ], [ 77.068346, 8.748154 ], [ 77.068362, 8.748061 ], [ 77.068424, 8.747907 ], [ 77.068786, 8.747234 ], [ 77.068798, 8.747072 ], [ 77.068711, 8.746583 ], [ 77.068583, 8.746247 ], [ 77.068409, 8.74605 ], [ 77.068287, 8.745966 ], [ 77.068195, 8.745937 ], [ 77.068123, 8.745938 ], [ 77.068041, 8.745978 ], [ 77.06791, 8.745994 ], [ 77.067852, 8.745972 ], [ 77.067767, 8.745909 ], [ 77.06768, 8.745822 ], [ 77.067474, 8.745486 ], [ 77.067365, 8.745347 ], [ 77.067245, 8.745284 ], [ 77.067061, 8.745262 ], [ 77.066974, 8.745237 ], [ 77.066921, 8.745189 ], [ 77.066812, 8.744985 ], [ 77.066752, 8.744818 ], [ 77.066677, 8.74467 ], [ 77.06658, 8.744576 ], [ 77.065983, 8.744178 ], [ 77.065715, 8.744095 ], [ 77.065335, 8.744043 ], [ 77.065223, 8.744048 ], [ 77.065019, 8.744087 ], [ 77.064798, 8.744174 ], [ 77.064645, 8.744298 ], [ 77.064493, 8.744488 ], [ 77.064416, 8.744533 ], [ 77.064383, 8.74453 ], [ 77.064328, 8.744503 ], [ 77.064267, 8.744421 ], [ 77.064247, 8.744246 ], [ 77.064271, 8.744147 ], [ 77.064261, 8.744097 ], [ 77.06421, 8.744051 ], [ 77.06413, 8.744087 ], [ 77.064098, 8.744146 ], [ 77.064066, 8.7443 ], [ 77.064073, 8.744453 ], [ 77.064031, 8.744512 ], [ 77.063993, 8.744516 ], [ 77.063931, 8.74447 ], [ 77.063877, 8.744308 ], [ 77.063808, 8.744173 ], [ 77.063534, 8.743773 ], [ 77.063304, 8.74345 ], [ 77.063149, 8.743272 ], [ 77.063065, 8.7432 ], [ 77.062879, 8.743116 ], [ 77.062765, 8.743099 ], [ 77.062421, 8.743085 ], [ 77.062158, 8.743024 ], [ 77.061359, 8.742783 ], [ 77.061018, 8.742651 ], [ 77.060721, 8.742476 ], [ 77.060542, 8.742407 ], [ 77.060286, 8.742354 ], [ 77.05994, 8.742354 ], [ 77.059815, 8.742372 ], [ 77.059632, 8.742458 ], [ 77.059511, 8.742555 ], [ 77.059211, 8.742841 ], [ 77.059054, 8.742953 ], [ 77.058981, 8.742982 ], [ 77.058892, 8.74298 ], [ 77.058814, 8.742945 ], [ 77.058298, 8.742634 ], [ 77.057737, 8.742362 ], [ 77.057371, 8.742213 ], [ 77.057306, 8.742206 ], [ 77.057238, 8.742221 ], [ 77.056868, 8.742416 ], [ 77.056776, 8.742445 ], [ 77.056693, 8.742446 ], [ 77.056605, 8.74243 ], [ 77.056522, 8.742385 ], [ 77.056401, 8.742292 ], [ 77.056134, 8.742018 ], [ 77.056059, 8.741978 ], [ 77.055936, 8.741969 ], [ 77.055568, 8.742065 ], [ 77.055134, 8.742041 ], [ 77.055034, 8.74201 ], [ 77.054981, 8.741968 ], [ 77.054947, 8.741907 ], [ 77.054924, 8.741732 ], [ 77.054936, 8.741388 ], [ 77.054916, 8.741303 ], [ 77.054876, 8.741218 ], [ 77.054727, 8.740985 ], [ 77.05469, 8.7409 ], [ 77.054672, 8.740793 ], [ 77.054628, 8.740705 ], [ 77.054418, 8.740399 ], [ 77.054352, 8.740233 ], [ 77.054377, 8.740076 ], [ 77.054422, 8.739915 ], [ 77.054412, 8.739854 ], [ 77.054343, 8.739758 ], [ 77.054044, 8.739707 ], [ 77.053996, 8.739675 ], [ 77.053966, 8.739627 ], [ 77.053956, 8.739558 ], [ 77.05401, 8.738806 ], [ 77.053994, 8.738508 ], [ 77.05396, 8.738427 ], [ 77.053905, 8.738349 ], [ 77.053843, 8.738307 ], [ 77.053768, 8.738293 ], [ 77.053679, 8.738309 ], [ 77.05351, 8.738372 ], [ 77.053421, 8.738385 ], [ 77.053355, 8.73837 ], [ 77.053309, 8.738333 ], [ 77.053291, 8.738273 ], [ 77.053369, 8.737889 ], [ 77.053368, 8.737773 ], [ 77.053339, 8.737683 ], [ 77.053274, 8.737597 ], [ 77.0532, 8.737543 ], [ 77.053123, 8.737511 ], [ 77.052883, 8.737513 ], [ 77.052824, 8.737488 ], [ 77.052799, 8.737435 ], [ 77.052791, 8.737349 ], [ 77.052807, 8.737224 ], [ 77.053309, 8.735579 ], [ 77.053318, 8.735451 ], [ 77.053308, 8.735357 ], [ 77.05328, 8.735294 ], [ 77.053212, 8.735209 ], [ 77.052844, 8.734855 ], [ 77.052683, 8.734719 ], [ 77.052323, 8.73452 ], [ 77.052055, 8.734292 ], [ 77.052009, 8.734226 ], [ 77.051993, 8.734168 ], [ 77.051998, 8.734093 ], [ 77.052119, 8.733467 ], [ 77.052191, 8.732966 ], [ 77.05221, 8.732616 ], [ 77.052207, 8.732405 ], [ 77.05216, 8.732089 ], [ 77.052092, 8.731834 ], [ 77.052011, 8.731617 ], [ 77.051947, 8.731511 ], [ 77.051813, 8.731413 ], [ 77.051637, 8.731348 ], [ 77.051421, 8.731301 ], [ 77.051152, 8.731283 ], [ 77.050804, 8.731508 ], [ 77.050687, 8.731528 ], [ 77.050631, 8.731434 ], [ 77.050622, 8.731253 ], [ 77.050716, 8.730912 ], [ 77.050671, 8.730831 ], [ 77.050553, 8.730793 ], [ 77.050208, 8.73081 ], [ 77.049637, 8.730889 ], [ 77.049507, 8.730871 ], [ 77.049446, 8.730815 ], [ 77.049446, 8.730655 ], [ 77.049513, 8.730521 ], [ 77.049852, 8.730147 ], [ 77.049944, 8.729735 ], [ 77.050073, 8.729449 ], [ 77.050056, 8.729363 ], [ 77.049979, 8.729344 ], [ 77.049727, 8.72945 ], [ 77.049552, 8.729496 ], [ 77.049301, 8.729494 ], [ 77.048911, 8.729393 ], [ 77.048783, 8.729391 ], [ 77.048179, 8.729571 ], [ 77.047668, 8.729589 ], [ 77.046882, 8.729385 ], [ 77.046082, 8.728769 ], [ 77.046045, 8.728299 ], [ 77.045932, 8.728059 ], [ 77.045286, 8.727435 ], [ 77.045171, 8.727374 ], [ 77.044295, 8.727219 ], [ 77.044178, 8.727148 ], [ 77.044081, 8.727023 ], [ 77.044008, 8.726798 ], [ 77.043971, 8.726461 ], [ 77.043981, 8.725663 ], [ 77.043957, 8.725471 ], [ 77.043861, 8.725247 ], [ 77.04372, 8.725033 ], [ 77.043527, 8.724829 ], [ 77.042619, 8.724344 ], [ 77.041877, 8.724526 ], [ 77.041757, 8.724516 ], [ 77.041635, 8.724443 ], [ 77.041439, 8.724169 ], [ 77.041191, 8.723957 ], [ 77.040868, 8.723799 ], [ 77.039881, 8.723489 ], [ 77.039038, 8.723446 ], [ 77.038743, 8.723345 ], [ 77.038289, 8.72311 ], [ 77.036453, 8.721406 ], [ 77.035236, 8.720129 ], [ 77.034809, 8.719779 ], [ 77.034651, 8.719694 ], [ 77.034464, 8.719635 ], [ 77.034201, 8.719631 ], [ 77.033966, 8.719683 ], [ 77.033762, 8.719832 ], [ 77.033442, 8.720097 ], [ 77.032993, 8.720366 ], [ 77.032632, 8.72054 ], [ 77.031588, 8.720939 ], [ 77.0313, 8.72112 ], [ 77.031195, 8.721146 ], [ 77.031095, 8.721091 ], [ 77.030934, 8.720901 ], [ 77.030797, 8.720834 ], [ 77.030605, 8.720797 ], [ 77.030255, 8.720816 ], [ 77.029821, 8.720899 ], [ 77.029549, 8.720995 ], [ 77.029316, 8.721103 ], [ 77.029202, 8.721214 ], [ 77.029116, 8.721407 ], [ 77.028942, 8.722537 ], [ 77.028863, 8.722679 ], [ 77.028751, 8.72261 ], [ 77.028271, 8.722003 ], [ 77.028209, 8.721889 ], [ 77.028006, 8.721322 ], [ 77.027954, 8.721242 ], [ 77.027723, 8.721064 ], [ 77.027504, 8.720872 ], [ 77.027306, 8.720636 ], [ 77.027051, 8.72019 ], [ 77.026975, 8.719982 ], [ 77.026889, 8.719659 ], [ 77.026806, 8.719256 ], [ 77.026826, 8.719053 ], [ 77.026903, 8.718911 ], [ 77.027384, 8.718362 ], [ 77.027772, 8.718035 ], [ 77.028451, 8.717123 ], [ 77.028638, 8.716938 ], [ 77.028748, 8.716747 ], [ 77.028896, 8.71643 ], [ 77.029, 8.716002 ], [ 77.029024, 8.715697 ], [ 77.029045, 8.71559 ], [ 77.029078, 8.71552 ], [ 77.029322, 8.715324 ], [ 77.02937, 8.715263 ], [ 77.029391, 8.715191 ], [ 77.029391, 8.715119 ], [ 77.029356, 8.715021 ], [ 77.029147, 8.714756 ], [ 77.029104, 8.714636 ], [ 77.029069, 8.714499 ], [ 77.029037, 8.713915 ], [ 77.028959, 8.713605 ], [ 77.028909, 8.713486 ], [ 77.028691, 8.71325 ], [ 77.028616, 8.713146 ], [ 77.028571, 8.713046 ], [ 77.028541, 8.712622 ], [ 77.028516, 8.71251 ], [ 77.028398, 8.712154 ], [ 77.028321, 8.711818 ], [ 77.028327, 8.711721 ], [ 77.028514, 8.711161 ], [ 77.028563, 8.711092 ], [ 77.028825, 8.710819 ], [ 77.028949, 8.710649 ], [ 77.029029, 8.710445 ], [ 77.029102, 8.710111 ], [ 77.02911, 8.709997 ], [ 77.029099, 8.709411 ], [ 77.029126, 8.709218 ], [ 77.02923, 8.708939 ], [ 77.029246, 8.708835 ], [ 77.029249, 8.708745 ], [ 77.029195, 8.708291 ], [ 77.029318, 8.707613 ], [ 77.029316, 8.707179 ], [ 77.029212, 8.705782 ], [ 77.029225, 8.705616 ], [ 77.0293, 8.705129 ], [ 77.029308, 8.704919 ], [ 77.029289, 8.704801 ], [ 77.029082, 8.70411 ], [ 77.028967, 8.703798 ], [ 77.028753, 8.703337 ], [ 77.028409, 8.702657 ], [ 77.028262, 8.702475 ], [ 77.027956, 8.702201 ], [ 77.027884, 8.702118 ], [ 77.027645, 8.701722 ], [ 77.027567, 8.701528 ], [ 77.027497, 8.700916 ], [ 77.027497, 8.700576 ], [ 77.027653, 8.699935 ], [ 77.027663, 8.699839 ], [ 77.027648, 8.699715 ], [ 77.027621, 8.699639 ], [ 77.02757, 8.699556 ], [ 77.027419, 8.699388 ], [ 77.026975, 8.699114 ], [ 77.026591, 8.698923 ], [ 77.026186, 8.698566 ], [ 77.026113, 8.698532 ], [ 77.025644, 8.698413 ], [ 77.02544, 8.698331 ], [ 77.024534, 8.697639 ], [ 77.024456, 8.697554 ], [ 77.024351, 8.69735 ], [ 77.024236, 8.696986 ], [ 77.023855, 8.696384 ], [ 77.023777, 8.696321 ], [ 77.023608, 8.696241 ], [ 77.023212, 8.696149 ], [ 77.023157, 8.696101 ], [ 77.022994, 8.695843 ], [ 77.022758, 8.695516 ], [ 77.022334, 8.694349 ], [ 77.022208, 8.693836 ], [ 77.022098, 8.693524 ], [ 77.022039, 8.693449 ], [ 77.021962, 8.693402 ], [ 77.021881, 8.693381 ], [ 77.021333, 8.693335 ], [ 77.021191, 8.693314 ], [ 77.021119, 8.693288 ], [ 77.021063, 8.693242 ], [ 77.020808, 8.692879 ], [ 77.020738, 8.692805 ], [ 77.020413, 8.692537 ], [ 77.020086, 8.69215 ], [ 77.020017, 8.692098 ], [ 77.019944, 8.692094 ], [ 77.019591, 8.69217 ], [ 77.019507, 8.692146 ], [ 77.01944, 8.692095 ], [ 77.019387, 8.692026 ], [ 77.019309, 8.691833 ], [ 77.019296, 8.691751 ], [ 77.019298, 8.691666 ], [ 77.019322, 8.691588 ], [ 77.019671, 8.691197 ], [ 77.019773, 8.691035 ], [ 77.019805, 8.690867 ], [ 77.019797, 8.69078 ], [ 77.019713, 8.690392 ], [ 77.019746, 8.690112 ], [ 77.019941, 8.689801 ], [ 77.020164, 8.689228 ], [ 77.020181, 8.689155 ], [ 77.020175, 8.689052 ], [ 77.020081, 8.68878 ], [ 77.020059, 8.68856 ], [ 77.020339, 8.687416 ], [ 77.020374, 8.687209 ], [ 77.020371, 8.687103 ], [ 77.020347, 8.68701 ], [ 77.020167, 8.686785 ], [ 77.020143, 8.686728 ], [ 77.02014, 8.68666 ], [ 77.020159, 8.686602 ], [ 77.020205, 8.686554 ], [ 77.020427, 8.686405 ], [ 77.020492, 8.68635 ], [ 77.020551, 8.68627 ], [ 77.020666, 8.686047 ], [ 77.020781, 8.685721 ], [ 77.020827, 8.685548 ], [ 77.020886, 8.684909 ], [ 77.020969, 8.684535 ], [ 77.020996, 8.684149 ], [ 77.021017, 8.684058 ], [ 77.021184, 8.683597 ], [ 77.021194, 8.683376 ], [ 77.0211, 8.683061 ], [ 77.021081, 8.682889 ], [ 77.021098, 8.682672 ], [ 77.021178, 8.682268 ], [ 77.021221, 8.682179 ], [ 77.021283, 8.682105 ], [ 77.02168, 8.681882 ], [ 77.021726, 8.6818 ], [ 77.021878, 8.681161 ], [ 77.021948, 8.680983 ], [ 77.022367, 8.68062 ], [ 77.022407, 8.680548 ], [ 77.022433, 8.680417 ], [ 77.022417, 8.680362 ], [ 77.022371, 8.680301 ], [ 77.022256, 8.680203 ], [ 77.022015, 8.680073 ], [ 77.021819, 8.680036 ], [ 77.02146, 8.680038 ], [ 77.021363, 8.680025 ], [ 77.021291, 8.679994 ], [ 77.021237, 8.67994 ], [ 77.0212, 8.679872 ], [ 77.021184, 8.67979 ], [ 77.021277, 8.679182 ], [ 77.021358, 8.678997 ], [ 77.02143, 8.678907 ], [ 77.02175, 8.678647 ], [ 77.021892, 8.678512 ], [ 77.022141, 8.678223 ], [ 77.022254, 8.678117 ], [ 77.022511, 8.677942 ], [ 77.022597, 8.677862 ], [ 77.02282, 8.677547 ], [ 77.022927, 8.677321 ], [ 77.022964, 8.677201 ], [ 77.022978, 8.677083 ], [ 77.022973, 8.676948 ], [ 77.02294, 8.676817 ], [ 77.022815, 8.676472 ], [ 77.022801, 8.676371 ], [ 77.022814, 8.676276 ], [ 77.022881, 8.676098 ], [ 77.023043, 8.675882 ], [ 77.023217, 8.675712 ], [ 77.023405, 8.675468 ], [ 77.023571, 8.675123 ], [ 77.023633, 8.674946 ], [ 77.023659, 8.674812 ], [ 77.023646, 8.674589 ], [ 77.023605, 8.674457 ], [ 77.023463, 8.67411 ], [ 77.023401, 8.673879 ], [ 77.023401, 8.673749 ], [ 77.023448, 8.673535 ], [ 77.023635, 8.67319 ], [ 77.023734, 8.67298 ], [ 77.023836, 8.672705 ], [ 77.023909, 8.672581 ], [ 77.023981, 8.672496 ], [ 77.02425, 8.672262 ], [ 77.024356, 8.672121 ], [ 77.024499, 8.671581 ], [ 77.024657, 8.671281 ], [ 77.024866, 8.670974 ], [ 77.024942, 8.670769 ], [ 77.024963, 8.670634 ], [ 77.024968, 8.670446 ], [ 77.024934, 8.670266 ], [ 77.024824, 8.66999 ], [ 77.024807, 8.669889 ], [ 77.024837, 8.669759 ], [ 77.024909, 8.669635 ], [ 77.024987, 8.66956 ], [ 77.02547, 8.669282 ], [ 77.025655, 8.669149 ], [ 77.025717, 8.669075 ], [ 77.025738, 8.668937 ], [ 77.025709, 8.668837 ], [ 77.02562, 8.668666 ], [ 77.025255, 8.668258 ], [ 77.025174, 8.66812 ], [ 77.025143, 8.668038 ], [ 77.025123, 8.667923 ], [ 77.025131, 8.667812 ], [ 77.025212, 8.667585 ], [ 77.025392, 8.66723 ], [ 77.025465, 8.667134 ], [ 77.025741, 8.666843 ], [ 77.025811, 8.666742 ], [ 77.02585, 8.666624 ], [ 77.025901, 8.666425 ], [ 77.025955, 8.666121 ], [ 77.025976, 8.665625 ], [ 77.026205, 8.664554 ], [ 77.02632, 8.663767 ], [ 77.02635, 8.663332 ], [ 77.026461, 8.662786 ], [ 77.026519, 8.662613 ], [ 77.026556, 8.66255 ], [ 77.026618, 8.662475 ], [ 77.026867, 8.662245 ], [ 77.027141, 8.661876 ], [ 77.027468, 8.66115 ], [ 77.027605, 8.660699 ], [ 77.02765, 8.660351 ], [ 77.027637, 8.660245 ], [ 77.027597, 8.660123 ], [ 77.027479, 8.659935 ], [ 77.027393, 8.659856 ], [ 77.027162, 8.659696 ], [ 77.027049, 8.659579 ], [ 77.026963, 8.659422 ], [ 77.026924, 8.659252 ], [ 77.026859, 8.659086 ], [ 77.026811, 8.658853 ], [ 77.026789, 8.658399 ], [ 77.02685, 8.657985 ], [ 77.026847, 8.657887 ], [ 77.026795, 8.657641 ], [ 77.026786, 8.657293 ], [ 77.02676, 8.657187 ], [ 77.026714, 8.657123 ], [ 77.026513, 8.656996 ], [ 77.026427, 8.656909 ], [ 77.026376, 8.656811 ], [ 77.026352, 8.656715 ], [ 77.026368, 8.656496 ], [ 77.026476, 8.656347 ], [ 77.026567, 8.656289 ], [ 77.026819, 8.656215 ], [ 77.026905, 8.656175 ], [ 77.026975, 8.656122 ], [ 77.02702, 8.656055 ], [ 77.027051, 8.655962 ], [ 77.027061, 8.655854 ], [ 77.027027, 8.654883 ], [ 77.026977, 8.654446 ], [ 77.026886, 8.65399 ], [ 77.026816, 8.653791 ], [ 77.026773, 8.653743 ], [ 77.026711, 8.653713 ], [ 77.026634, 8.653712 ], [ 77.026213, 8.653815 ], [ 77.025421, 8.653886 ], [ 77.025311, 8.65388 ], [ 77.024968, 8.653786 ], [ 77.024773, 8.653773 ], [ 77.024287, 8.653913 ], [ 77.023959, 8.653973 ], [ 77.023796, 8.653976 ], [ 77.023678, 8.653955 ], [ 77.023552, 8.653891 ], [ 77.023378, 8.653765 ], [ 77.023287, 8.653675 ], [ 77.023248, 8.653613 ], [ 77.023219, 8.65344 ], [ 77.023257, 8.65321 ], [ 77.023244, 8.653019 ], [ 77.023268, 8.652834 ], [ 77.023354, 8.652526 ], [ 77.023359, 8.652388 ], [ 77.023346, 8.652078 ], [ 77.023327, 8.651964 ], [ 77.023244, 8.65172 ], [ 77.023208, 8.651547 ], [ 77.023211, 8.651449 ], [ 77.023318, 8.650871 ], [ 77.023324, 8.650728 ], [ 77.023277, 8.650504 ], [ 77.023232, 8.650431 ], [ 77.022983, 8.650181 ], [ 77.022951, 8.650108 ], [ 77.022898, 8.649838 ], [ 77.022862, 8.649752 ], [ 77.022815, 8.649689 ], [ 77.022747, 8.649635 ], [ 77.022675, 8.649607 ], [ 77.022557, 8.649599 ], [ 77.022415, 8.649625 ], [ 77.022334, 8.649663 ], [ 77.022096, 8.649867 ], [ 77.02198, 8.649912 ], [ 77.021731, 8.649949 ], [ 77.021669, 8.64994 ], [ 77.02162, 8.649911 ], [ 77.021586, 8.64985 ], [ 77.021452, 8.64949 ], [ 77.021406, 8.649432 ], [ 77.021189, 8.649273 ], [ 77.021154, 8.649221 ], [ 77.021138, 8.649166 ], [ 77.021165, 8.649082 ], [ 77.02143, 8.648814 ], [ 77.021659, 8.648697 ], [ 77.021801, 8.648599 ], [ 77.021868, 8.648528 ], [ 77.021911, 8.648432 ], [ 77.021919, 8.648318 ], [ 77.021897, 8.648195 ], [ 77.021846, 8.648111 ], [ 77.02179, 8.64805 ], [ 77.021714, 8.648012 ], [ 77.021522, 8.647952 ], [ 77.021449, 8.647845 ], [ 77.021449, 8.647788 ], [ 77.021567, 8.647541 ], [ 77.021689, 8.646953 ], [ 77.022069, 8.646595 ], [ 77.022212, 8.646388 ], [ 77.022215, 8.646274 ], [ 77.022203, 8.646226 ], [ 77.02214, 8.646115 ], [ 77.021922, 8.64589 ], [ 77.021058, 8.644328 ], [ 77.021025, 8.644129 ], [ 77.021005, 8.643846 ], [ 77.020992, 8.64325 ], [ 77.020866, 8.642411 ], [ 77.02081, 8.642238 ], [ 77.020742, 8.642099 ], [ 77.020581, 8.641988 ], [ 77.020457, 8.641923 ], [ 77.020336, 8.641886 ], [ 77.020227, 8.641921 ], [ 77.020119, 8.641996 ], [ 77.019926, 8.64235 ], [ 77.019815, 8.642481 ], [ 77.01968, 8.64257 ], [ 77.019407, 8.642609 ], [ 77.019282, 8.642572 ], [ 77.019117, 8.6425 ], [ 77.019036, 8.642374 ], [ 77.018969, 8.642155 ], [ 77.018866, 8.641989 ], [ 77.018721, 8.641877 ], [ 77.01852, 8.641607 ], [ 77.018404, 8.641203 ], [ 77.018198, 8.640872 ], [ 77.018063, 8.640746 ], [ 77.01794, 8.640722 ], [ 77.017732, 8.64072 ], [ 77.017295, 8.640658 ], [ 77.016698, 8.640482 ], [ 77.016531, 8.640453 ], [ 77.016106, 8.640336 ], [ 77.01597, 8.640252 ], [ 77.01593, 8.640159 ], [ 77.015949, 8.64003 ], [ 77.016044, 8.639652 ], [ 77.016124, 8.63918 ], [ 77.016127, 8.639004 ], [ 77.016014, 8.638815 ], [ 77.015568, 8.638239 ], [ 77.015488, 8.63799 ], [ 77.015463, 8.637619 ], [ 77.015398, 8.637351 ], [ 77.01525, 8.637147 ], [ 77.015066, 8.637074 ], [ 77.014161, 8.637239 ], [ 77.013912, 8.637194 ], [ 77.013727, 8.637126 ], [ 77.013611, 8.636957 ], [ 77.0136, 8.636779 ], [ 77.013672, 8.636263 ], [ 77.013635, 8.636062 ], [ 77.013409, 8.635739 ], [ 77.012409, 8.634768 ], [ 77.011668, 8.633982 ], [ 77.011248, 8.633598 ], [ 77.011279, 8.633481 ], [ 77.011234, 8.632943 ], [ 77.011298, 8.632908 ], [ 77.011453, 8.63274 ], [ 77.012062, 8.632201 ], [ 77.012416, 8.63183 ], [ 77.012566, 8.631715 ], [ 77.012372, 8.631161 ], [ 77.012329, 8.630643 ], [ 77.012236, 8.630159 ], [ 77.012212, 8.629825 ], [ 77.01219, 8.628812 ], [ 77.012027, 8.627986 ], [ 77.01194, 8.627002 ], [ 77.011849, 8.626639 ], [ 77.011413, 8.625583 ], [ 77.011329, 8.625277 ], [ 77.011051, 8.624866 ], [ 77.010577, 8.624308 ], [ 77.010051, 8.623644 ], [ 77.009601, 8.623263 ], [ 77.009445, 8.623114 ], [ 77.009323, 8.622713 ], [ 77.009114, 8.621802 ], [ 77.008832, 8.621387 ], [ 77.008547, 8.621117 ], [ 77.0084, 8.620902 ], [ 77.008331, 8.62076 ], [ 77.008263, 8.620536 ], [ 77.008067, 8.61965 ], [ 77.007967, 8.619371 ], [ 77.007602, 8.618876 ], [ 77.006852, 8.617744 ], [ 77.006745, 8.617523 ], [ 77.006612, 8.617184 ], [ 77.006501, 8.616826 ], [ 77.006504, 8.615955 ], [ 77.00653, 8.615234 ], [ 77.006519, 8.614984 ], [ 77.00648, 8.614667 ], [ 77.006427, 8.614585 ], [ 77.006131, 8.614366 ], [ 77.006055, 8.614227 ], [ 77.00601, 8.614 ], [ 77.005981, 8.613703 ], [ 77.005813, 8.613164 ], [ 77.005793, 8.612846 ], [ 77.005841, 8.611835 ], [ 77.005847, 8.611278 ], [ 77.005785, 8.611054 ], [ 77.005791, 8.611009 ], [ 77.005886, 8.610857 ], [ 77.006026, 8.610728 ], [ 77.006187, 8.610518 ], [ 77.006227, 8.610417 ], [ 77.006227, 8.610338 ], [ 77.006042, 8.609864 ], [ 77.006152, 8.608933 ], [ 77.006157, 8.608703 ], [ 77.006142, 8.608479 ], [ 77.006057, 8.608353 ], [ 77.005845, 8.608284 ], [ 77.005497, 8.608275 ], [ 77.005266, 8.608203 ], [ 77.005191, 8.608329 ], [ 77.00513, 8.608372 ], [ 77.004938, 8.608402 ], [ 77.004903, 8.608421 ], [ 77.004189, 8.608262 ], [ 77.003848, 8.60817 ], [ 77.00328, 8.60812 ], [ 77.003153, 8.608082 ], [ 77.003082, 8.608035 ], [ 77.002843, 8.607706 ], [ 77.002833, 8.607212 ], [ 77.002876, 8.607025 ], [ 77.002913, 8.606582 ], [ 77.002872, 8.606205 ], [ 77.002858, 8.60554 ], [ 77.002899, 8.605273 ], [ 77.002954, 8.605189 ], [ 77.003364, 8.605167 ], [ 77.003991, 8.604924 ], [ 77.004052, 8.605093 ], [ 77.004067, 8.605218 ], [ 77.004058, 8.605379 ], [ 77.004042, 8.605406 ], [ 77.003641, 8.605576 ] ] } }
]
}
