{
"type": "FeatureCollection",
"name": "golden valley route",
"crs": { "type": "name", "properties": { "name": "urn:ogc:def:crs:OGC:1.3:CRS84" } },
"features": [
{ "type": "Feature", "properties": { "DIST_KM": 27.408, "DURATION_H": 0.618, "PROFILE": "driving-car", "PREF": "fastest", "OPTIONS": { }, "FROM_ID": null, "TO_ID": null }, "geometry": { "type": "LineString", "coordinates": [ [ 77.003642, 8.605575 ], [ 77.003319, 8.605712 ], [ 77.003205, 8.60574 ], [ 77.003013, 8.60573 ], [ 77.002858, 8.605666 ], [ 77.002857, 8.605739 ], [ 77.002872, 8.606205 ], [ 77.002913, 8.606582 ], [ 77.002894, 8.606828 ], [ 77.002876, 8.607025 ], [ 77.002833, 8.607212 ], [ 77.002843, 8.607706 ], [ 77.003082, 8.608035 ], [ 77.003153, 8.608082 ], [ 77.00328, 8.60812 ], [ 77.003848, 8.60817 ], [ 77.004189, 8.608262 ], [ 77.004219, 8.608267 ], [ 77.004903, 8.608421 ], [ 77.004938, 8.608402 ], [ 77.00513, 8.608372 ], [ 77.005191, 8.608329 ], [ 77.005266, 8.608203 ], [ 77.00558, 8.607632 ], [ 77.005695, 8.60747 ], [ 77.005748, 8.607419 ], [ 77.005875, 8.607351 ], [ 77.006176, 8.607272 ], [ 77.006511, 8.607137 ], [ 77.006614, 8.607108 ], [ 77.006752, 8.607085 ], [ 77.007049, 8.607085 ], [ 77.007202, 8.60711 ], [ 77.007629, 8.60729 ], [ 77.007753, 8.607368 ], [ 77.007833, 8.607476 ], [ 77.007869, 8.607605 ], [ 77.007978, 8.607962 ], [ 77.008058, 8.608165 ], [ 77.008197, 8.6084 ], [ 77.00836, 8.608582 ], [ 77.008589, 8.608945 ], [ 77.008753, 8.609088 ], [ 77.009008, 8.609212 ], [ 77.009283, 8.609392 ], [ 77.009478, 8.60955 ], [ 77.009712, 8.609854 ], [ 77.00975, 8.6099 ], [ 77.009843, 8.609965 ], [ 77.009966, 8.610028 ], [ 77.010253, 8.610138 ], [ 77.010442, 8.610264 ], [ 77.01056, 8.610319 ], [ 77.010744, 8.610352 ], [ 77.011051, 8.610343 ], [ 77.011236, 8.610421 ], [ 77.011625, 8.61072 ], [ 77.012034, 8.611003 ], [ 77.012183, 8.611106 ], [ 77.012303, 8.611222 ], [ 77.01238, 8.611336 ], [ 77.012457, 8.611515 ], [ 77.012525, 8.611649 ], [ 77.012709, 8.612019 ], [ 77.012858, 8.612294 ], [ 77.012941, 8.612416 ], [ 77.013241, 8.612682 ], [ 77.013461, 8.612848 ], [ 77.013585, 8.612923 ], [ 77.013715, 8.612984 ], [ 77.013927, 8.613044 ], [ 77.014302, 8.613065 ], [ 77.014601, 8.613097 ], [ 77.015071, 8.613111 ], [ 77.015244, 8.61309 ], [ 77.015657, 8.613002 ], [ 77.016336, 8.613028 ], [ 77.016556, 8.612998 ], [ 77.017289, 8.612802 ], [ 77.017813, 8.612684 ], [ 77.018137, 8.612654 ], [ 77.018256, 8.612656 ], [ 77.018392, 8.612678 ], [ 77.018637, 8.612736 ], [ 77.018903, 8.612859 ], [ 77.019223, 8.613035 ], [ 77.019602, 8.613529 ], [ 77.01985, 8.613728 ], [ 77.019984, 8.613896 ], [ 77.020027, 8.613998 ], [ 77.020071, 8.614177 ], [ 77.020097, 8.614372 ], [ 77.0201, 8.614619 ], [ 77.020076, 8.614741 ], [ 77.019985, 8.615031 ], [ 77.019978, 8.615134 ], [ 77.02006, 8.615371 ], [ 77.020172, 8.615844 ], [ 77.02017, 8.615976 ], [ 77.020148, 8.616237 ], [ 77.020157, 8.616787 ], [ 77.02001, 8.617333 ], [ 77.019986, 8.618239 ], [ 77.020014, 8.618354 ], [ 77.020088, 8.618531 ], [ 77.020167, 8.61863 ], [ 77.02023, 8.618743 ], [ 77.020813, 8.619434 ], [ 77.021573, 8.620161 ], [ 77.021698, 8.620247 ], [ 77.021876, 8.620407 ], [ 77.022047, 8.620505 ], [ 77.022188, 8.620654 ], [ 77.022249, 8.62075 ], [ 77.022339, 8.621088 ], [ 77.022403, 8.621264 ], [ 77.022491, 8.621378 ], [ 77.022658, 8.621528 ], [ 77.022822, 8.621705 ], [ 77.023064, 8.621987 ], [ 77.023122, 8.622107 ], [ 77.023145, 8.622216 ], [ 77.023097, 8.622491 ], [ 77.023012, 8.622671 ], [ 77.022754, 8.622998 ], [ 77.022719, 8.623075 ], [ 77.022706, 8.62314 ], [ 77.022752, 8.62336 ], [ 77.022833, 8.623465 ], [ 77.022962, 8.623744 ], [ 77.02307, 8.623883 ], [ 77.023139, 8.623946 ], [ 77.023265, 8.624012 ], [ 77.023691, 8.624152 ], [ 77.023842, 8.624239 ], [ 77.02394, 8.624326 ], [ 77.024238, 8.624658 ], [ 77.024404, 8.624816 ], [ 77.024569, 8.625017 ], [ 77.024636, 8.625142 ], [ 77.024668, 8.625232 ], [ 77.024753, 8.625649 ], [ 77.024836, 8.625906 ], [ 77.024921, 8.626112 ], [ 77.024972, 8.626216 ], [ 77.025136, 8.626419 ], [ 77.025259, 8.626659 ], [ 77.025354, 8.626938 ], [ 77.02543, 8.627257 ], [ 77.025472, 8.627531 ], [ 77.025496, 8.627702 ], [ 77.025588, 8.627905 ], [ 77.025728, 8.628076 ], [ 77.025949, 8.628281 ], [ 77.026092, 8.628472 ], [ 77.026166, 8.628628 ], [ 77.026202, 8.628771 ], [ 77.0262, 8.628894 ], [ 77.026253, 8.629256 ], [ 77.026311, 8.629446 ], [ 77.026355, 8.629536 ], [ 77.026398, 8.629623 ], [ 77.026491, 8.629737 ], [ 77.02661, 8.629846 ], [ 77.026944, 8.630049 ], [ 77.026982, 8.630088 ], [ 77.027105, 8.630244 ], [ 77.027222, 8.630293 ], [ 77.02745, 8.630303 ], [ 77.027692, 8.63042 ], [ 77.027904, 8.630648 ], [ 77.028008, 8.630908 ], [ 77.027984, 8.631205 ], [ 77.027931, 8.63137 ], [ 77.027794, 8.631497 ], [ 77.027485, 8.63159 ], [ 77.027212, 8.631645 ], [ 77.027088, 8.631831 ], [ 77.027139, 8.63216 ], [ 77.027198, 8.6322 ], [ 77.027429, 8.632247 ], [ 77.027573, 8.632317 ], [ 77.027622, 8.63247 ], [ 77.027563, 8.632849 ], [ 77.027641, 8.633205 ], [ 77.027628, 8.633494 ], [ 77.027555, 8.633711 ], [ 77.027511, 8.633924 ], [ 77.027585, 8.634128 ], [ 77.027697, 8.634265 ], [ 77.027935, 8.634732 ], [ 77.028661, 8.634696 ], [ 77.029356, 8.634625 ], [ 77.029604, 8.634654 ], [ 77.029708, 8.634735 ], [ 77.030052, 8.635104 ], [ 77.03022, 8.63521 ], [ 77.030471, 8.635203 ], [ 77.031205, 8.635008 ], [ 77.031641, 8.634997 ], [ 77.031802, 8.635034 ], [ 77.031899, 8.635062 ], [ 77.031994, 8.635113 ], [ 77.03206, 8.635187 ], [ 77.032288, 8.635647 ], [ 77.032391, 8.636159 ], [ 77.032415, 8.636431 ], [ 77.032394, 8.636672 ], [ 77.032326, 8.636803 ], [ 77.032191, 8.636941 ], [ 77.03207, 8.637042 ], [ 77.031924, 8.637121 ], [ 77.031692, 8.637179 ], [ 77.031622, 8.637212 ], [ 77.031522, 8.637322 ], [ 77.031499, 8.637385 ], [ 77.031375, 8.638133 ], [ 77.031483, 8.638715 ], [ 77.031666, 8.639392 ], [ 77.032002, 8.639985 ], [ 77.032729, 8.641222 ], [ 77.032957, 8.64148 ], [ 77.033206, 8.641593 ], [ 77.033447, 8.641588 ], [ 77.033938, 8.641504 ], [ 77.035605, 8.640857 ], [ 77.035884, 8.640528 ], [ 77.035943, 8.640472 ], [ 77.036009, 8.640436 ], [ 77.036637, 8.640367 ], [ 77.036917, 8.64038 ], [ 77.037158, 8.64043 ], [ 77.037338, 8.64051 ], [ 77.037507, 8.640639 ], [ 77.03782, 8.640775 ], [ 77.038123, 8.640941 ], [ 77.038248, 8.640951 ], [ 77.038445, 8.640895 ], [ 77.03883, 8.640803 ], [ 77.039152, 8.640786 ], [ 77.039397, 8.640835 ], [ 77.039855, 8.640824 ], [ 77.040001, 8.64079 ], [ 77.040207, 8.640669 ], [ 77.040829, 8.640074 ], [ 77.041782, 8.639393 ], [ 77.042028, 8.639308 ], [ 77.042945, 8.639293 ], [ 77.043284, 8.639264 ], [ 77.043977, 8.639152 ], [ 77.04412, 8.639153 ], [ 77.044213, 8.639205 ], [ 77.044272, 8.639289 ], [ 77.04429, 8.639406 ], [ 77.044167, 8.639825 ], [ 77.044181, 8.639905 ], [ 77.044249, 8.639968 ], [ 77.044359, 8.639981 ], [ 77.044957, 8.63982 ], [ 77.045059, 8.639836 ], [ 77.045151, 8.63989 ], [ 77.045233, 8.640027 ], [ 77.045265, 8.640165 ], [ 77.045231, 8.640317 ], [ 77.045128, 8.640448 ], [ 77.044377, 8.641072 ], [ 77.043783, 8.641696 ], [ 77.043767, 8.641853 ], [ 77.043829, 8.641985 ], [ 77.044108, 8.642352 ], [ 77.044322, 8.642779 ], [ 77.044356, 8.642837 ], [ 77.044405, 8.642873 ], [ 77.044512, 8.642856 ], [ 77.04565, 8.642388 ], [ 77.045764, 8.642369 ], [ 77.045891, 8.642399 ], [ 77.046157, 8.642503 ], [ 77.046671, 8.642747 ], [ 77.047044, 8.643256 ], [ 77.04716, 8.643358 ], [ 77.047322, 8.64336 ], [ 77.047604, 8.643274 ], [ 77.048014, 8.643265 ], [ 77.048277, 8.6433 ], [ 77.048536, 8.643391 ], [ 77.049153, 8.64387 ], [ 77.049286, 8.644138 ], [ 77.049568, 8.644827 ], [ 77.049629, 8.644896 ], [ 77.04972, 8.644946 ], [ 77.049942, 8.645032 ], [ 77.050328, 8.645104 ], [ 77.05143, 8.645104 ], [ 77.051541, 8.645136 ], [ 77.051631, 8.645206 ], [ 77.051707, 8.645413 ], [ 77.05171, 8.64552 ], [ 77.051685, 8.6456 ], [ 77.051426, 8.645861 ], [ 77.051396, 8.645926 ], [ 77.051394, 8.646015 ], [ 77.051451, 8.646088 ], [ 77.051607, 8.646099 ], [ 77.051684, 8.64607 ], [ 77.051787, 8.646 ], [ 77.052187, 8.64565 ], [ 77.052554, 8.64546 ], [ 77.052698, 8.645436 ], [ 77.05292, 8.645468 ], [ 77.053168, 8.645642 ], [ 77.053269, 8.645678 ], [ 77.053379, 8.645683 ], [ 77.053444, 8.645668 ], [ 77.053493, 8.645622 ], [ 77.053666, 8.645345 ], [ 77.053822, 8.645228 ], [ 77.054012, 8.64516 ], [ 77.054639, 8.645016 ], [ 77.054723, 8.644997 ], [ 77.054844, 8.645015 ], [ 77.054977, 8.645102 ], [ 77.055111, 8.645253 ], [ 77.0552, 8.645242 ], [ 77.055559, 8.645046 ], [ 77.055694, 8.64499 ], [ 77.055898, 8.644953 ], [ 77.055997, 8.644968 ], [ 77.056166, 8.645045 ], [ 77.05643, 8.645228 ], [ 77.056516, 8.645262 ], [ 77.056569, 8.64526 ], [ 77.056644, 8.645233 ], [ 77.056741, 8.645148 ], [ 77.056896, 8.645076 ], [ 77.057295, 8.645021 ], [ 77.057351, 8.645032 ], [ 77.057924, 8.645273 ], [ 77.058271, 8.645469 ], [ 77.058524, 8.645554 ], [ 77.058602, 8.645598 ], [ 77.058672, 8.64566 ], [ 77.058705, 8.645725 ], [ 77.058738, 8.645791 ], [ 77.058757, 8.64591 ], [ 77.058723, 8.646172 ], [ 77.058634, 8.646372 ], [ 77.058527, 8.646534 ], [ 77.058401, 8.646627 ], [ 77.058306, 8.646731 ], [ 77.058236, 8.646858 ], [ 77.05817, 8.647065 ], [ 77.058154, 8.647221 ], [ 77.058175, 8.647301 ], [ 77.058224, 8.647374 ], [ 77.058464, 8.647645 ], [ 77.058626, 8.64777 ], [ 77.058983, 8.648128 ], [ 77.059247, 8.648413 ], [ 77.05955, 8.64861 ], [ 77.060024, 8.648828 ], [ 77.060415, 8.64893 ], [ 77.060889, 8.649034 ], [ 77.061103, 8.649112 ], [ 77.061182, 8.649178 ], [ 77.061224, 8.649258 ], [ 77.061247, 8.649343 ], [ 77.061255, 8.649718 ], [ 77.06129, 8.649816 ], [ 77.061621, 8.650138 ], [ 77.061746, 8.650289 ], [ 77.061858, 8.650469 ], [ 77.06156, 8.65082 ], [ 77.061239, 8.651066 ], [ 77.061204, 8.651183 ], [ 77.061614, 8.651658 ], [ 77.061684, 8.65187 ], [ 77.061528, 8.652284 ], [ 77.061506, 8.652549 ], [ 77.061882, 8.653149 ], [ 77.061984, 8.654851 ], [ 77.062225, 8.656118 ], [ 77.062526, 8.656665 ], [ 77.062258, 8.657794 ], [ 77.062237, 8.658053 ], [ 77.062317, 8.658272 ], [ 77.062634, 8.658843 ], [ 77.06268, 8.658994 ], [ 77.062743, 8.659901 ], [ 77.062712, 8.659973 ], [ 77.062685, 8.660316 ], [ 77.062303, 8.661349 ], [ 77.061867, 8.661997 ], [ 77.06149, 8.66271 ], [ 77.061179, 8.663824 ], [ 77.061115, 8.664641 ], [ 77.060777, 8.665426 ], [ 77.060493, 8.666163 ], [ 77.060557, 8.666836 ], [ 77.06097, 8.667197 ], [ 77.061244, 8.668114 ], [ 77.061259, 8.668284 ], [ 77.061239, 8.668415 ], [ 77.061281, 8.66928 ], [ 77.061297, 8.669424 ], [ 77.061331, 8.669488 ], [ 77.061384, 8.669542 ], [ 77.061505, 8.669594 ], [ 77.061676, 8.669609 ], [ 77.062298, 8.669715 ], [ 77.062428, 8.669756 ], [ 77.062573, 8.669835 ], [ 77.062725, 8.669947 ], [ 77.06308, 8.670251 ], [ 77.063195, 8.670319 ], [ 77.063233, 8.670363 ], [ 77.06342, 8.670687 ], [ 77.063462, 8.670727 ], [ 77.063528, 8.670704 ], [ 77.06395, 8.670413 ], [ 77.063996, 8.670415 ], [ 77.06419, 8.670519 ], [ 77.064526, 8.671373 ], [ 77.064587, 8.671423 ], [ 77.064642, 8.671417 ], [ 77.064904, 8.67129 ], [ 77.064989, 8.671234 ], [ 77.065026, 8.671232 ], [ 77.065373, 8.671435 ], [ 77.065678, 8.671537 ], [ 77.066097, 8.671777 ], [ 77.066307, 8.671855 ], [ 77.066531, 8.671908 ], [ 77.066745, 8.671911 ], [ 77.067602, 8.671728 ], [ 77.067643, 8.671759 ], [ 77.06795, 8.672325 ], [ 77.067982, 8.672337 ], [ 77.068132, 8.672306 ], [ 77.06842, 8.672213 ], [ 77.068531, 8.672196 ], [ 77.068619, 8.672202 ], [ 77.069275, 8.672456 ], [ 77.06937, 8.672466 ], [ 77.069441, 8.672425 ], [ 77.069559, 8.672223 ], [ 77.06958, 8.672204 ], [ 77.069609, 8.672202 ], [ 77.070222, 8.672592 ], [ 77.070518, 8.672849 ], [ 77.070812, 8.673135 ], [ 77.070876, 8.673167 ], [ 77.071164, 8.673256 ], [ 77.071579, 8.673467 ], [ 77.071971, 8.673737 ], [ 77.072238, 8.673879 ], [ 77.07228, 8.673924 ], [ 77.072341, 8.673979 ], [ 77.072521, 8.674211 ], [ 77.072767, 8.674077 ], [ 77.072929, 8.674042 ], [ 77.073131, 8.673981 ], [ 77.07346, 8.673846 ], [ 77.073627, 8.67383 ], [ 77.073783, 8.673876 ], [ 77.073904, 8.673945 ], [ 77.073972, 8.673967 ], [ 77.074239, 8.673905 ], [ 77.074357, 8.673903 ], [ 77.074474, 8.674002 ], [ 77.074649, 8.674202 ], [ 77.074835, 8.67431 ], [ 77.075042, 8.67437 ], [ 77.075167, 8.674366 ], [ 77.075275, 8.674292 ], [ 77.075362, 8.674021 ], [ 77.075471, 8.673966 ], [ 77.075899, 8.673943 ], [ 77.075946, 8.673922 ], [ 77.075999, 8.673854 ], [ 77.076027, 8.673725 ], [ 77.076068, 8.673629 ], [ 77.076143, 8.673586 ], [ 77.076215, 8.673571 ], [ 77.076691, 8.673611 ], [ 77.077245, 8.673574 ], [ 77.077644, 8.673598 ], [ 77.07773, 8.673615 ], [ 77.077908, 8.673712 ], [ 77.078104, 8.673767 ], [ 77.078372, 8.673818 ], [ 77.078812, 8.67387 ], [ 77.079009, 8.673948 ], [ 77.079343, 8.674125 ], [ 77.079521, 8.674131 ], [ 77.079907, 8.674058 ], [ 77.080251, 8.673956 ], [ 77.080749, 8.67376 ], [ 77.081372, 8.673433 ], [ 77.081509, 8.673351 ], [ 77.081696, 8.673207 ], [ 77.081805, 8.673107 ], [ 77.082001, 8.67287 ], [ 77.082065, 8.672742 ], [ 77.082117, 8.672564 ], [ 77.082589, 8.672595 ], [ 77.082868, 8.672497 ], [ 77.083219, 8.672396 ], [ 77.083808, 8.672558 ], [ 77.084434, 8.672707 ], [ 77.084713, 8.672611 ], [ 77.085207, 8.671842 ], [ 77.085312, 8.671521 ], [ 77.085391, 8.67146 ], [ 77.085833, 8.671235 ], [ 77.085866, 8.671161 ], [ 77.085888, 8.671025 ], [ 77.085884, 8.670948 ], [ 77.085838, 8.670887 ], [ 77.085706, 8.670794 ], [ 77.085668, 8.67075 ], [ 77.08562, 8.670647 ], [ 77.085957, 8.670824 ], [ 77.086106, 8.67093 ], [ 77.086188, 8.671025 ], [ 77.086253, 8.671142 ], [ 77.086348, 8.671218 ], [ 77.086623, 8.671328 ], [ 77.087153, 8.671684 ], [ 77.087248, 8.671779 ], [ 77.087281, 8.67187 ], [ 77.087313, 8.672156 ], [ 77.08734, 8.672217 ], [ 77.087427, 8.672289 ], [ 77.0877, 8.672477 ], [ 77.088361, 8.67281 ], [ 77.08845, 8.672834 ], [ 77.088556, 8.672928 ], [ 77.088859, 8.673414 ], [ 77.089204, 8.673802 ], [ 77.089387, 8.673937 ], [ 77.089617, 8.674058 ], [ 77.089785, 8.674117 ], [ 77.090043, 8.674119 ], [ 77.090675, 8.674029 ], [ 77.090897, 8.673981 ], [ 77.091091, 8.673987 ], [ 77.091489, 8.674051 ], [ 77.092286, 8.673917 ], [ 77.092839, 8.674042 ], [ 77.093579, 8.674379 ], [ 77.093806, 8.674698 ], [ 77.093823, 8.67508 ], [ 77.093976, 8.675454 ], [ 77.094156, 8.675715 ], [ 77.094215, 8.675778 ], [ 77.09435, 8.675923 ], [ 77.094938, 8.676395 ], [ 77.095253, 8.6765 ], [ 77.095919, 8.676555 ], [ 77.096154, 8.676606 ], [ 77.096376, 8.676747 ], [ 77.096618, 8.676954 ], [ 77.096895, 8.677252 ], [ 77.097562, 8.677838 ], [ 77.097695, 8.677984 ], [ 77.097917, 8.67829 ], [ 77.09814, 8.678656 ], [ 77.098358, 8.679064 ], [ 77.098434, 8.679288 ], [ 77.098466, 8.679618 ], [ 77.098466, 8.680089 ], [ 77.098342, 8.681307 ], [ 77.098342, 8.681472 ], [ 77.098414, 8.681751 ], [ 77.098553, 8.682005 ], [ 77.098589, 8.682065 ], [ 77.098636, 8.682218 ], [ 77.098604, 8.682536 ], [ 77.098505, 8.682811 ], [ 77.098485, 8.68298 ], [ 77.098497, 8.68307 ], [ 77.098829, 8.683221 ], [ 77.09927, 8.683362 ], [ 77.099497, 8.683496 ], [ 77.099628, 8.683616 ], [ 77.099707, 8.683751 ], [ 77.099789, 8.683829 ], [ 77.099823, 8.683861 ], [ 77.09993, 8.683912 ], [ 77.100097, 8.6839 ], [ 77.100256, 8.683806 ], [ 77.100474, 8.683763 ], [ 77.100617, 8.683778 ], [ 77.100725, 8.683841 ], [ 77.100824, 8.683983 ], [ 77.10086, 8.684155 ], [ 77.100864, 8.684403 ], [ 77.100923, 8.684615 ], [ 77.101058, 8.684854 ], [ 77.101241, 8.68509 ], [ 77.101648, 8.685473 ], [ 77.102494, 8.686443 ], [ 77.102738, 8.686679 ], [ 77.102971, 8.687029 ], [ 77.1033, 8.687609 ], [ 77.103474, 8.687828 ], [ 77.103679, 8.688042 ], [ 77.103901, 8.688235 ], [ 77.104303, 8.688634 ], [ 77.104536, 8.688889 ], [ 77.104787, 8.68925 ], [ 77.105017, 8.689559 ], [ 77.105239, 8.689811 ], [ 77.105455, 8.690211 ], [ 77.105635, 8.690669 ], [ 77.10564, 8.690964 ], [ 77.105626, 8.691422 ], [ 77.105834, 8.691866 ], [ 77.106034, 8.692241 ], [ 77.106186, 8.692699 ], [ 77.106205, 8.692999 ], [ 77.106152, 8.693249 ], [ 77.106062, 8.693535 ], [ 77.106053, 8.693713 ], [ 77.106121, 8.693835 ], [ 77.10625, 8.693971 ], [ 77.106449, 8.694118 ], [ 77.106606, 8.694227 ], [ 77.106786, 8.694507 ], [ 77.106859, 8.694696 ], [ 77.106882, 8.695027 ], [ 77.106921, 8.695299 ], [ 77.107011, 8.695469 ], [ 77.107083, 8.695509 ], [ 77.107173, 8.69553 ], [ 77.107486, 8.695536 ], [ 77.107572, 8.695591 ], [ 77.108007, 8.696272 ], [ 77.108084, 8.696394 ], [ 77.108275, 8.69661 ], [ 77.108408, 8.696726 ], [ 77.108547, 8.696803 ], [ 77.10867, 8.696854 ], [ 77.108805, 8.696878 ], [ 77.109026, 8.696888 ], [ 77.109475, 8.69697 ], [ 77.109795, 8.697094 ], [ 77.109849, 8.697131 ], [ 77.109961, 8.697208 ], [ 77.110226, 8.69741 ], [ 77.110317, 8.697553 ], [ 77.110371, 8.697689 ], [ 77.110365, 8.697959 ], [ 77.11027, 8.698138 ], [ 77.11017, 8.698242 ], [ 77.109862, 8.698454 ], [ 77.109713, 8.698602 ], [ 77.109697, 8.698678 ], [ 77.109723, 8.698725 ], [ 77.109789, 8.698765 ], [ 77.109936, 8.698741 ], [ 77.11049, 8.698509 ], [ 77.110628, 8.698472 ], [ 77.11084, 8.698517 ], [ 77.111028, 8.698613 ], [ 77.111136, 8.698691 ], [ 77.111484, 8.699105 ], [ 77.11184, 8.699438 ], [ 77.111955, 8.699716 ], [ 77.111953, 8.699855 ], [ 77.111925, 8.699941 ], [ 77.111915, 8.700049 ], [ 77.111957, 8.700154 ], [ 77.112257, 8.700375 ], [ 77.112275, 8.700479 ], [ 77.112263, 8.700688 ], [ 77.112317, 8.700823 ], [ 77.112416, 8.700906 ], [ 77.112569, 8.70097 ], [ 77.112748, 8.701092 ], [ 77.112992, 8.701371 ], [ 77.113119, 8.701662 ], [ 77.113195, 8.70173 ], [ 77.113274, 8.701768 ], [ 77.113611, 8.701779 ], [ 77.113916, 8.701768 ], [ 77.114079, 8.701799 ], [ 77.114253, 8.70185 ], [ 77.114772, 8.702095 ], [ 77.11496, 8.702189 ], [ 77.115474, 8.702455 ], [ 77.115584, 8.702514 ], [ 77.115692, 8.702611 ], [ 77.115727, 8.702643 ], [ 77.115809, 8.702785 ], [ 77.115835, 8.702879 ], [ 77.115833, 8.702946 ], [ 77.115765, 8.703111 ], [ 77.11497, 8.704325 ], [ 77.114938, 8.704458 ], [ 77.114936, 8.704672 ], [ 77.114978, 8.704774 ], [ 77.115065, 8.704814 ], [ 77.115196, 8.704816 ], [ 77.115748, 8.704619 ], [ 77.115839, 8.704614 ], [ 77.116035, 8.704691 ], [ 77.116364, 8.705016 ], [ 77.116579, 8.705269 ], [ 77.116734, 8.705377 ], [ 77.116974, 8.705422 ], [ 77.117097, 8.705473 ], [ 77.117133, 8.705623 ], [ 77.117113, 8.705776 ], [ 77.116764, 8.706198 ], [ 77.116748, 8.706257 ], [ 77.116762, 8.706339 ], [ 77.117004, 8.706559 ], [ 77.117133, 8.706724 ], [ 77.117189, 8.706901 ], [ 77.117256, 8.707286 ], [ 77.117244, 8.707398 ], [ 77.117193, 8.70749 ], [ 77.117142, 8.707537 ], [ 77.117026, 8.707602 ], [ 77.116269, 8.707932 ], [ 77.116054, 8.708002 ], [ 77.115403, 8.708258 ], [ 77.115329, 8.708319 ], [ 77.115274, 8.708399 ], [ 77.11528, 8.708485 ], [ 77.115301, 8.708544 ], [ 77.115383, 8.708606 ], [ 77.115526, 8.708621 ], [ 77.115919, 8.708815 ], [ 77.116491, 8.709143 ], [ 77.116684, 8.709192 ], [ 77.116877, 8.7092 ], [ 77.117054, 8.709238 ], [ 77.117328, 8.709351 ], [ 77.117445, 8.709471 ], [ 77.11752, 8.709648 ], [ 77.117542, 8.710031 ], [ 77.117576, 8.710137 ], [ 77.117628, 8.710215 ], [ 77.117715, 8.710284 ], [ 77.117812, 8.710337 ], [ 77.118015, 8.710357 ], [ 77.118126, 8.710329 ], [ 77.118212, 8.710282 ], [ 77.118575, 8.709842 ], [ 77.118784, 8.709654 ], [ 77.118994, 8.70952 ], [ 77.119369, 8.709456 ], [ 77.119956, 8.709495 ], [ 77.120893, 8.70943 ], [ 77.122133, 8.709375 ], [ 77.122256, 8.709422 ], [ 77.122419, 8.709783 ], [ 77.122463, 8.709999 ], [ 77.122431, 8.710145 ], [ 77.122261, 8.710332 ], [ 77.122141, 8.710494 ], [ 77.122085, 8.710643 ], [ 77.122079, 8.710795 ], [ 77.121986, 8.710977 ], [ 77.121819, 8.711099 ], [ 77.121763, 8.711233 ], [ 77.121811, 8.711358 ], [ 77.121881, 8.711432 ], [ 77.12217, 8.711693 ], [ 77.122317, 8.711767 ], [ 77.122406, 8.711781 ], [ 77.122504, 8.711768 ], [ 77.122619, 8.711695 ], [ 77.12292, 8.71146 ], [ 77.123115, 8.711366 ], [ 77.123173, 8.711362 ], [ 77.123263, 8.711395 ], [ 77.123483, 8.711507 ], [ 77.123861, 8.711538 ], [ 77.123942, 8.711568 ], [ 77.124435, 8.71197 ], [ 77.125146, 8.712364 ], [ 77.125348, 8.712387 ], [ 77.125522, 8.712334 ], [ 77.125626, 8.712237 ], [ 77.125722, 8.712103 ], [ 77.125792, 8.711967 ], [ 77.125814, 8.711808 ], [ 77.125939, 8.711306 ], [ 77.126047, 8.711108 ], [ 77.12648, 8.710676 ], [ 77.126565, 8.710614 ], [ 77.126697, 8.710586 ], [ 77.126951, 8.710592 ], [ 77.12715, 8.710635 ], [ 77.127567, 8.710659 ], [ 77.128224, 8.710812 ], [ 77.128476, 8.71081 ], [ 77.128659, 8.710743 ], [ 77.128645, 8.710478 ], [ 77.128576, 8.710274 ], [ 77.128552, 8.710154 ], [ 77.128554, 8.710062 ], [ 77.128601, 8.709986 ], [ 77.128668, 8.709964 ], [ 77.129077, 8.709952 ], [ 77.129201, 8.709998 ], [ 77.129288, 8.710062 ], [ 77.129336, 8.710209 ], [ 77.129322, 8.710456 ], [ 77.12924, 8.710973 ], [ 77.129084, 8.711423 ], [ 77.128868, 8.711856 ], [ 77.128686, 8.712087 ], [ 77.128486, 8.712601 ], [ 77.12852, 8.712981 ], [ 77.128509, 8.713073 ], [ 77.128309, 8.713309 ], [ 77.128255, 8.713343 ], [ 77.128184, 8.713388 ], [ 77.128042, 8.713478 ], [ 77.127589, 8.713649 ], [ 77.127305, 8.713866 ], [ 77.127243, 8.713955 ], [ 77.127233, 8.714091 ], [ 77.127113, 8.714623 ], [ 77.126844, 8.715064 ], [ 77.126621, 8.715288 ], [ 77.12658, 8.715475 ], [ 77.126568, 8.715722 ], [ 77.126454, 8.71603 ], [ 77.126437, 8.716138 ], [ 77.126466, 8.716223 ], [ 77.126566, 8.716297 ], [ 77.126744, 8.716376 ], [ 77.126921, 8.716426 ], [ 77.127214, 8.716426 ], [ 77.127477, 8.716374 ], [ 77.127545, 8.716423 ], [ 77.127521, 8.716543 ], [ 77.127444, 8.716771 ], [ 77.127493, 8.71703 ], [ 77.127593, 8.717218 ], [ 77.127843, 8.71745 ], [ 77.127996, 8.71757 ], [ 77.128014, 8.717652 ], [ 77.127992, 8.71776 ], [ 77.127849, 8.717864 ], [ 77.127767, 8.718037 ], [ 77.127684, 8.718304 ], [ 77.127134, 8.718913 ], [ 77.126934, 8.719017 ], [ 77.126929, 8.719019 ], [ 77.126858, 8.719056 ], [ 77.12649, 8.719321 ], [ 77.126324, 8.719461 ] ] } }
]
}
