{
"type": "FeatureCollection",
"name": "peppara toutes",
"crs": { "type": "name", "properties": { "name": "urn:ogc:def:crs:OGC:1.3:CRS84" } },
"features": [
{ "type": "Feature", "properties": { "DIST_KM": 21.709, "DURATION_H": 0.438, "PROFILE": "driving-car", "PREF": "fastest", "OPTIONS": { }, "FROM_ID": null, "TO_ID": null }, "geometry": { "type": "LineString", "coordinates": [ [ 77.138263, 8.634734 ], [ 77.138101, 8.634492 ], [ 77.137906, 8.634388 ], [ 77.137743, 8.634227 ], [ 77.137792, 8.633954 ], [ 77.137963, 8.633544 ], [ 77.137963, 8.63327 ], [ 77.137881, 8.632989 ], [ 77.137724, 8.632876 ], [ 77.137634, 8.632806 ], [ 77.13745, 8.632684 ], [ 77.137158, 8.632635 ], [ 77.136865, 8.632049 ], [ 77.136662, 8.631928 ], [ 77.136201, 8.631873 ], [ 77.136071, 8.631399 ], [ 77.136022, 8.631166 ], [ 77.135868, 8.630957 ], [ 77.135689, 8.630555 ], [ 77.135486, 8.630306 ], [ 77.135144, 8.629976 ], [ 77.134903, 8.629788 ], [ 77.134835, 8.629735 ], [ 77.134713, 8.629687 ], [ 77.134518, 8.629743 ], [ 77.133908, 8.629984 ], [ 77.133575, 8.630225 ], [ 77.133412, 8.630249 ], [ 77.133038, 8.630097 ], [ 77.132867, 8.630129 ], [ 77.132656, 8.630258 ], [ 77.132266, 8.630338 ], [ 77.131721, 8.630298 ], [ 77.131111, 8.630145 ], [ 77.130826, 8.629952 ], [ 77.130521, 8.629626 ], [ 77.130429, 8.629526 ], [ 77.130235, 8.629251 ], [ 77.130289, 8.628604 ], [ 77.130225, 8.628365 ], [ 77.130005, 8.628264 ], [ 77.129464, 8.628246 ], [ 77.129273, 8.62824 ], [ 77.129048, 8.628368 ], [ 77.128704, 8.628564 ], [ 77.128583, 8.628795 ], [ 77.128594, 8.629664 ], [ 77.128258, 8.630021 ], [ 77.128103, 8.630133 ], [ 77.12732, 8.630346 ], [ 77.126888, 8.63038 ], [ 77.126341, 8.629935 ], [ 77.126013, 8.629762 ], [ 77.125638, 8.629825 ], [ 77.125365, 8.629911 ], [ 77.124565, 8.629898 ], [ 77.124361, 8.6302 ], [ 77.123868, 8.630539 ], [ 77.123433, 8.630767 ], [ 77.123012, 8.630616 ], [ 77.122851, 8.630593 ], [ 77.122698, 8.630673 ], [ 77.122159, 8.631168 ], [ 77.121025, 8.631743 ], [ 77.120375, 8.632006 ], [ 77.119831, 8.632154 ], [ 77.119474, 8.632287 ], [ 77.118799, 8.632443 ], [ 77.118345, 8.632501 ], [ 77.117967, 8.632443 ], [ 77.117646, 8.63237 ], [ 77.116834, 8.632725 ], [ 77.115655, 8.633278 ], [ 77.115082, 8.633186 ], [ 77.114566, 8.633032 ], [ 77.114201, 8.632539 ], [ 77.113941, 8.632488 ], [ 77.112713, 8.633554 ], [ 77.112243, 8.633833 ], [ 77.112157, 8.633929 ], [ 77.111947, 8.633863 ], [ 77.111741, 8.633407 ], [ 77.111705, 8.633221 ], [ 77.111595, 8.633023 ], [ 77.111352, 8.632787 ], [ 77.111018, 8.632487 ], [ 77.11029, 8.631923 ], [ 77.109889, 8.631737 ], [ 77.109451, 8.631375 ], [ 77.109171, 8.631345 ], [ 77.108902, 8.631396 ], [ 77.10872, 8.631393 ], [ 77.108613, 8.631355 ], [ 77.108498, 8.631289 ], [ 77.10834, 8.631114 ], [ 77.108106, 8.630997 ], [ 77.107802, 8.630861 ], [ 77.107058, 8.630615 ], [ 77.106782, 8.630491 ], [ 77.10675, 8.63043 ], [ 77.106749, 8.630385 ], [ 77.106802, 8.63034 ], [ 77.10716, 8.630225 ], [ 77.107302, 8.630135 ], [ 77.107351, 8.630053 ], [ 77.107371, 8.629949 ], [ 77.107346, 8.629598 ], [ 77.107389, 8.629215 ], [ 77.107461, 8.629086 ], [ 77.107586, 8.62895 ], [ 77.107802, 8.628654 ], [ 77.107958, 8.628481 ], [ 77.108198, 8.628309 ], [ 77.108217, 8.628268 ], [ 77.108207, 8.628205 ], [ 77.108172, 8.628167 ], [ 77.108106, 8.628145 ], [ 77.107764, 8.628134 ], [ 77.107289, 8.628145 ], [ 77.106981, 8.628087 ], [ 77.106607, 8.627975 ], [ 77.105846, 8.627655 ], [ 77.105804, 8.627728 ], [ 77.104813, 8.628885 ], [ 77.104358, 8.628657 ], [ 77.103097, 8.628254 ], [ 77.102743, 8.627967 ], [ 77.102716, 8.627331 ], [ 77.102528, 8.626461 ], [ 77.10263, 8.625835 ], [ 77.102936, 8.625469 ], [ 77.103022, 8.625124 ], [ 77.103038, 8.624064 ], [ 77.102882, 8.62348 ], [ 77.102555, 8.623151 ], [ 77.101702, 8.622579 ], [ 77.101193, 8.622488 ], [ 77.100592, 8.622287 ], [ 77.100292, 8.622276 ], [ 77.099532, 8.622528 ], [ 77.098816, 8.622435 ], [ 77.09832, 8.622247 ], [ 77.097261, 8.621841 ], [ 77.09659, 8.62147 ], [ 77.096209, 8.620738 ], [ 77.09556, 8.620155 ], [ 77.095348, 8.61969 ], [ 77.095466, 8.619038 ], [ 77.095412, 8.618767 ], [ 77.093924, 8.617296 ], [ 77.093082, 8.616675 ], [ 77.092948, 8.616415 ], [ 77.093023, 8.615387 ], [ 77.093336, 8.614572 ], [ 77.093543, 8.614305 ], [ 77.093516, 8.61414 ], [ 77.093191, 8.613729 ], [ 77.091585, 8.613763 ], [ 77.091406, 8.613808 ], [ 77.090943, 8.613596 ], [ 77.090849, 8.613527 ], [ 77.09056, 8.613235 ], [ 77.090185, 8.612975 ], [ 77.090005, 8.612893 ], [ 77.089676, 8.612821 ], [ 77.089244, 8.612768 ], [ 77.08893, 8.612634 ], [ 77.088707, 8.612558 ], [ 77.08772, 8.612563 ], [ 77.08769, 8.612726 ], [ 77.086988, 8.612684 ], [ 77.086269, 8.612535 ], [ 77.085313, 8.612411 ], [ 77.084478, 8.612121 ], [ 77.084298, 8.612086 ], [ 77.083662, 8.611962 ], [ 77.083207, 8.611799 ], [ 77.082556, 8.611658 ], [ 77.081054, 8.611584 ], [ 77.079906, 8.611456 ], [ 77.079241, 8.611074 ], [ 77.078598, 8.61087 ], [ 77.076796, 8.610488 ], [ 77.076708, 8.610142 ], [ 77.076699, 8.610106 ], [ 77.076431, 8.609862 ], [ 77.075357, 8.609112 ], [ 77.074381, 8.609101 ], [ 77.074282, 8.609208 ], [ 77.07392, 8.609597 ], [ 77.073631, 8.609809 ], [ 77.073051, 8.60965 ], [ 77.073072, 8.609413 ], [ 77.073082, 8.609292 ], [ 77.073072, 8.608783 ], [ 77.073041, 8.608313 ], [ 77.072923, 8.607974 ], [ 77.072825, 8.607881 ], [ 77.072439, 8.608157 ], [ 77.072215, 8.608398 ], [ 77.072053, 8.608338 ], [ 77.071827, 8.608157 ], [ 77.071988, 8.60768 ], [ 77.07273, 8.606775 ], [ 77.072704, 8.605685 ], [ 77.072923, 8.605219 ], [ 77.072956, 8.603717 ], [ 77.072984, 8.603493 ], [ 77.07266, 8.602852 ], [ 77.072617, 8.60252 ], [ 77.072389, 8.6018 ], [ 77.072042, 8.600976 ], [ 77.071977, 8.600084 ], [ 77.072074, 8.599034 ], [ 77.072085, 8.598016 ], [ 77.071839, 8.596856 ], [ 77.071527, 8.595958 ], [ 77.071377, 8.595131 ], [ 77.071238, 8.593907 ], [ 77.071165, 8.593524 ], [ 77.071233, 8.593375 ], [ 77.0714, 8.593277 ], [ 77.071555, 8.593221 ], [ 77.071586, 8.593096 ], [ 77.071497, 8.592254 ], [ 77.071322, 8.590031 ], [ 77.07115, 8.590136 ], [ 77.070985, 8.590194 ], [ 77.07087, 8.590204 ], [ 77.070787, 8.590171 ], [ 77.070665, 8.590094 ], [ 77.070446, 8.590038 ], [ 77.070243, 8.59005 ], [ 77.070057, 8.590085 ], [ 77.069862, 8.590101 ], [ 77.069555, 8.590059 ], [ 77.069374, 8.589982 ], [ 77.069096, 8.589805 ], [ 77.06891, 8.58978 ], [ 77.068663, 8.589812 ], [ 77.068321, 8.589912 ], [ 77.067504, 8.590099 ], [ 77.067325, 8.590159 ], [ 77.067134, 8.590266 ], [ 77.06671, 8.590802 ], [ 77.066595, 8.590883 ], [ 77.066133, 8.591075 ], [ 77.065496, 8.591097 ], [ 77.065337, 8.591058 ], [ 77.065187, 8.590993 ], [ 77.064968, 8.590818 ], [ 77.064584, 8.590378 ], [ 77.064273, 8.590113 ], [ 77.06411, 8.590024 ], [ 77.063703, 8.589789 ], [ 77.063583, 8.589693 ], [ 77.063453, 8.589535 ], [ 77.063267, 8.589344 ], [ 77.062857, 8.589058 ], [ 77.062693, 8.589007 ], [ 77.062556, 8.588985 ], [ 77.062327, 8.589009 ], [ 77.061098, 8.589254 ], [ 77.060663, 8.58932 ], [ 77.060382, 8.589388 ], [ 77.06021, 8.589488 ], [ 77.060037, 8.589619 ], [ 77.059957, 8.589708 ], [ 77.059873, 8.589785 ], [ 77.059685, 8.589854 ], [ 77.059151, 8.589969 ], [ 77.058595, 8.59003 ], [ 77.05843, 8.590065 ], [ 77.058014, 8.590337 ], [ 77.057815, 8.590516 ], [ 77.057623, 8.590754 ], [ 77.057521, 8.590863 ], [ 77.057187, 8.591075 ], [ 77.056852, 8.591187 ], [ 77.056096, 8.591334 ], [ 77.055899, 8.591404 ], [ 77.055463, 8.591662 ], [ 77.054114, 8.592564 ], [ 77.053831, 8.592715 ], [ 77.05372, 8.592752 ], [ 77.051845, 8.592892 ], [ 77.051598, 8.592948 ], [ 77.051398, 8.593029 ], [ 77.050928, 8.593444 ], [ 77.050708, 8.593555 ], [ 77.050272, 8.593602 ], [ 77.049982, 8.593602 ], [ 77.049759, 8.593566 ], [ 77.049571, 8.593499 ], [ 77.049336, 8.593253 ], [ 77.048948, 8.592776 ], [ 77.048754, 8.592587 ], [ 77.048552, 8.59239 ], [ 77.048337, 8.592244 ], [ 77.048133, 8.592103 ], [ 77.04773, 8.592004 ], [ 77.04753, 8.591971 ], [ 77.047293, 8.592008 ], [ 77.046604, 8.592191 ], [ 77.045974, 8.592357 ], [ 77.045799, 8.592362 ], [ 77.045568, 8.592324 ], [ 77.045269, 8.59221 ], [ 77.044975, 8.59213 ], [ 77.044659, 8.592083 ], [ 77.044426, 8.592087 ], [ 77.044169, 8.592146 ], [ 77.043959, 8.592228 ], [ 77.043734, 8.592404 ], [ 77.04333, 8.592936 ], [ 77.04314, 8.593061 ], [ 77.042736, 8.593269 ], [ 77.042404, 8.593467 ], [ 77.041556, 8.593916 ], [ 77.041245, 8.594043 ], [ 77.040784, 8.594282 ], [ 77.040352, 8.594461 ], [ 77.040199, 8.594606 ], [ 77.040039, 8.594846 ], [ 77.039923, 8.594978 ], [ 77.039673, 8.595109 ], [ 77.038676, 8.595339 ], [ 77.038116, 8.595429 ], [ 77.037603, 8.595534 ], [ 77.03724, 8.595569 ], [ 77.036992, 8.595633 ], [ 77.036752, 8.595761 ], [ 77.036507, 8.595947 ], [ 77.036213, 8.596101 ], [ 77.035989, 8.596166 ], [ 77.035063, 8.596315 ], [ 77.034788, 8.596327 ], [ 77.03452, 8.596317 ], [ 77.034402, 8.596313 ], [ 77.033502, 8.596252 ], [ 77.033321, 8.596194 ], [ 77.0332, 8.596078 ], [ 77.033045, 8.595966 ], [ 77.032852, 8.595882 ], [ 77.032649, 8.595833 ], [ 77.032063, 8.595803 ], [ 77.031809, 8.59577 ], [ 77.031387, 8.595677 ], [ 77.031236, 8.595691 ], [ 77.031093, 8.595775 ], [ 77.030779, 8.596038 ], [ 77.030675, 8.596144 ], [ 77.030301, 8.596526 ], [ 77.030155, 8.596655 ], [ 77.03004, 8.596718 ], [ 77.029545, 8.596825 ], [ 77.028617, 8.596939 ], [ 77.028014, 8.596932 ], [ 77.027685, 8.596976 ], [ 77.027239, 8.597093 ], [ 77.026895, 8.597289 ], [ 77.026504, 8.597369 ], [ 77.026382, 8.597373 ], [ 77.026179, 8.597386 ], [ 77.025101, 8.59743 ], [ 77.024686, 8.59744 ], [ 77.024572, 8.597512 ], [ 77.024245, 8.597613 ], [ 77.023904, 8.59763 ], [ 77.023519, 8.597743 ], [ 77.023433, 8.597928 ], [ 77.023475, 8.598207 ], [ 77.023391, 8.598391 ], [ 77.023262, 8.598542 ], [ 77.023011, 8.59861 ], [ 77.022958, 8.598601 ], [ 77.022861, 8.598583 ], [ 77.022673, 8.598472 ], [ 77.022453, 8.598377 ], [ 77.022139, 8.598318 ], [ 77.021697, 8.598255 ], [ 77.020874, 8.597993 ], [ 77.020539, 8.597991 ], [ 77.019618, 8.598253 ], [ 77.019224, 8.598451 ], [ 77.018977, 8.598499 ], [ 77.018704, 8.59852 ], [ 77.017947, 8.598365 ], [ 77.01739, 8.598223 ], [ 77.016076, 8.598297 ], [ 77.015958, 8.598354 ], [ 77.015527, 8.598671 ], [ 77.015201, 8.598795 ], [ 77.014874, 8.598961 ], [ 77.01454, 8.599165 ], [ 77.014428, 8.599263 ], [ 77.014288, 8.599443 ], [ 77.014227, 8.599635 ], [ 77.014232, 8.599819 ], [ 77.014117, 8.600133 ], [ 77.013909, 8.600375 ], [ 77.013713, 8.600547 ], [ 77.013478, 8.600656 ], [ 77.013279, 8.600683 ], [ 77.013172, 8.600656 ], [ 77.012758, 8.600455 ], [ 77.012614, 8.600406 ], [ 77.012562, 8.600387 ], [ 77.012404, 8.60038 ], [ 77.012276, 8.600437 ], [ 77.011813, 8.600784 ], [ 77.011567, 8.600824 ], [ 77.011496, 8.600809 ], [ 77.01056, 8.60059 ], [ 77.010382, 8.600509 ], [ 77.009982, 8.600211 ], [ 77.009875, 8.600107 ], [ 77.009754, 8.600037 ], [ 77.009662, 8.600004 ], [ 77.009576, 8.600008 ], [ 77.009485, 8.600059 ], [ 77.009364, 8.600192 ], [ 77.009217, 8.600386 ], [ 77.008835, 8.600829 ], [ 77.008704, 8.600979 ], [ 77.008547, 8.601054 ], [ 77.008388, 8.601088 ], [ 77.00814, 8.601096 ], [ 77.007853, 8.601213 ], [ 77.00754, 8.601441 ], [ 77.007302, 8.601682 ], [ 77.007212, 8.601773 ], [ 77.006539, 8.602574 ], [ 77.006133, 8.602904 ], [ 77.005862, 8.603099 ], [ 77.005742, 8.603186 ], [ 77.005355, 8.603402 ], [ 77.005006, 8.603462 ], [ 77.004909, 8.603462 ], [ 77.004636, 8.603461 ], [ 77.004002, 8.603395 ], [ 77.003878, 8.603331 ], [ 77.003544, 8.603081 ], [ 77.003436, 8.603059 ], [ 77.003276, 8.603081 ], [ 77.003025, 8.603241 ], [ 77.003058, 8.60373 ], [ 77.003095, 8.604037 ], [ 77.003024, 8.604698 ], [ 77.002954, 8.605189 ], [ 77.003364, 8.605167 ], [ 77.003991, 8.604924 ], [ 77.004052, 8.605093 ], [ 77.004067, 8.605218 ], [ 77.004058, 8.605379 ], [ 77.004042, 8.605406 ], [ 77.003784, 8.605515 ] ] } }
]
}
