{
"type": "FeatureCollection",
"name": "vazhvanthol routes",
"crs": { "type": "name", "properties": { "name": "urn:ogc:def:crs:OGC:1.3:CRS84" } },
"features": [
{ "type": "Feature", "properties": { "DIST_KM": 36.404, "DURATION_H": 0.757, "PROFILE": "driving-car", "PREF": "fastest", "OPTIONS": { }, "FROM_ID": null, "TO_ID": null }, "geometry": { "type": "LineString", "coordinates": [ [ 77.168013, 8.680156 ], [ 77.167922, 8.680172 ], [ 77.16782, 8.680206 ], [ 77.167744, 8.680296 ], [ 77.16768, 8.680422 ], [ 77.167497, 8.680572 ], [ 77.167421, 8.680676 ], [ 77.167361, 8.680707 ], [ 77.167252, 8.680765 ], [ 77.167196, 8.680843 ], [ 77.16723, 8.681069 ], [ 77.167285, 8.681304 ], [ 77.167293, 8.681499 ], [ 77.167253, 8.681695 ], [ 77.167245, 8.681867 ], [ 77.16734, 8.682085 ], [ 77.16734, 8.682179 ], [ 77.167261, 8.682289 ], [ 77.167087, 8.682351 ], [ 77.166866, 8.682242 ], [ 77.1667, 8.682179 ], [ 77.166439, 8.682148 ], [ 77.166067, 8.682211 ], [ 77.165846, 8.682304 ], [ 77.165782, 8.682539 ], [ 77.165877, 8.682773 ], [ 77.165948, 8.682906 ], [ 77.166178, 8.682992 ], [ 77.166431, 8.682899 ], [ 77.166692, 8.682828 ], [ 77.166882, 8.682852 ], [ 77.166953, 8.68293 ], [ 77.166921, 8.683063 ], [ 77.16651, 8.683242 ], [ 77.166352, 8.683367 ], [ 77.166328, 8.68354 ], [ 77.166162, 8.683649 ], [ 77.165956, 8.683813 ], [ 77.165869, 8.683938 ], [ 77.165814, 8.684134 ], [ 77.165798, 8.684384 ], [ 77.165735, 8.684548 ], [ 77.165561, 8.684618 ], [ 77.165063, 8.684736 ], [ 77.16492, 8.684869 ], [ 77.164849, 8.685127 ], [ 77.164833, 8.685752 ], [ 77.164788, 8.685789 ], [ 77.164708, 8.685854 ], [ 77.164703, 8.685858 ], [ 77.164588, 8.685761 ], [ 77.164485, 8.685541 ], [ 77.164367, 8.6854 ], [ 77.164248, 8.685392 ], [ 77.164058, 8.685432 ], [ 77.163861, 8.685525 ], [ 77.163647, 8.685658 ], [ 77.163497, 8.685603 ], [ 77.163465, 8.685439 ], [ 77.163615, 8.685166 ], [ 77.163876, 8.684939 ], [ 77.164035, 8.684767 ], [ 77.164066, 8.684478 ], [ 77.164035, 8.684243 ], [ 77.164106, 8.684087 ], [ 77.164375, 8.683891 ], [ 77.164462, 8.683657 ], [ 77.164216, 8.683078 ], [ 77.164232, 8.682844 ], [ 77.164303, 8.682664 ], [ 77.164185, 8.682461 ], [ 77.163955, 8.682156 ], [ 77.163679, 8.681953 ], [ 77.163481, 8.681655 ], [ 77.163489, 8.681288 ], [ 77.163426, 8.680999 ], [ 77.163323, 8.680788 ], [ 77.163046, 8.680694 ], [ 77.162832, 8.68053 ], [ 77.162943, 8.680311 ], [ 77.163101, 8.680076 ], [ 77.163101, 8.679865 ], [ 77.162999, 8.67949 ], [ 77.162785, 8.679404 ], [ 77.161662, 8.679318 ], [ 77.161211, 8.679334 ], [ 77.160824, 8.679193 ], [ 77.160681, 8.678935 ], [ 77.160578, 8.678583 ], [ 77.160381, 8.678161 ], [ 77.160231, 8.677715 ], [ 77.160064, 8.67734 ], [ 77.159883, 8.677019 ], [ 77.15955, 8.676957 ], [ 77.159258, 8.677019 ], [ 77.15857, 8.677105 ], [ 77.158111, 8.67734 ], [ 77.157676, 8.677449 ], [ 77.15751, 8.677348 ], [ 77.157526, 8.677129 ], [ 77.157945, 8.676464 ], [ 77.158965, 8.675761 ], [ 77.159202, 8.675565 ], [ 77.158673, 8.675565 ], [ 77.15804, 8.675706 ], [ 77.15751, 8.67569 ], [ 77.156569, 8.675776 ], [ 77.156102, 8.675886 ], [ 77.155533, 8.67605 ], [ 77.155319, 8.676042 ], [ 77.155731, 8.675659 ], [ 77.15592, 8.675409 ], [ 77.156347, 8.675096 ], [ 77.156695, 8.674744 ], [ 77.156956, 8.674408 ], [ 77.157059, 8.674134 ], [ 77.157328, 8.673939 ], [ 77.15751, 8.673704 ], [ 77.157518, 8.673345 ], [ 77.15766, 8.673032 ], [ 77.157855, 8.672811 ], [ 77.158059, 8.672619 ], [ 77.158053, 8.672565 ], [ 77.158022, 8.672553 ], [ 77.157983, 8.672562 ], [ 77.157541, 8.672813 ], [ 77.157233, 8.673102 ], [ 77.157035, 8.673228 ], [ 77.156759, 8.673212 ], [ 77.156561, 8.673228 ], [ 77.156403, 8.673314 ], [ 77.156268, 8.673188 ], [ 77.156237, 8.673056 ], [ 77.155999, 8.673048 ], [ 77.155628, 8.673079 ], [ 77.155335, 8.673079 ], [ 77.155082, 8.672907 ], [ 77.154861, 8.672727 ], [ 77.154465, 8.672837 ], [ 77.153706, 8.673353 ], [ 77.153081, 8.67383 ], [ 77.151998, 8.674744 ], [ 77.151658, 8.675151 ], [ 77.151428, 8.675503 ], [ 77.151262, 8.675667 ], [ 77.151183, 8.675589 ], [ 77.15127, 8.675143 ], [ 77.151499, 8.674502 ], [ 77.15195, 8.673986 ], [ 77.152172, 8.673673 ], [ 77.153113, 8.672665 ], [ 77.15388, 8.672055 ], [ 77.154521, 8.671656 ], [ 77.155493, 8.671156 ], [ 77.156134, 8.670718 ], [ 77.156419, 8.67046 ], [ 77.156252, 8.670335 ], [ 77.155675, 8.670327 ], [ 77.154845, 8.670499 ], [ 77.154212, 8.670796 ], [ 77.153682, 8.670968 ], [ 77.15335, 8.671234 ], [ 77.152789, 8.671461 ], [ 77.152274, 8.671609 ], [ 77.152085, 8.671562 ], [ 77.152401, 8.671281 ], [ 77.153105, 8.67096 ], [ 77.153461, 8.670601 ], [ 77.153896, 8.670225 ], [ 77.15384, 8.669842 ], [ 77.153848, 8.669545 ], [ 77.153983, 8.669225 ], [ 77.154006, 8.668865 ], [ 77.154236, 8.668568 ], [ 77.154584, 8.668318 ], [ 77.154884, 8.668013 ], [ 77.155383, 8.667927 ], [ 77.155746, 8.667942 ], [ 77.155754, 8.66781 ], [ 77.155517, 8.66777 ], [ 77.155477, 8.6677 ], [ 77.155533, 8.667505 ], [ 77.15577, 8.66727 ], [ 77.155936, 8.667059 ], [ 77.155999, 8.666785 ], [ 77.155976, 8.666441 ], [ 77.15592, 8.66616 ], [ 77.155731, 8.66616 ], [ 77.155398, 8.66641 ], [ 77.154568, 8.667231 ], [ 77.154133, 8.66763 ], [ 77.153738, 8.667708 ], [ 77.153405, 8.667794 ], [ 77.152899, 8.668122 ], [ 77.15267, 8.66849 ], [ 77.152361, 8.668912 ], [ 77.152354, 8.669217 ], [ 77.152021, 8.66953 ], [ 77.151642, 8.669834 ], [ 77.151333, 8.670382 ], [ 77.151033, 8.670812 ], [ 77.150708, 8.671234 ], [ 77.150574, 8.671547 ], [ 77.150345, 8.671898 ], [ 77.150044, 8.672188 ], [ 77.149633, 8.672094 ], [ 77.149174, 8.671508 ], [ 77.148937, 8.671046 ], [ 77.148763, 8.670632 ], [ 77.148565, 8.670507 ], [ 77.147608, 8.670992 ], [ 77.14711, 8.671273 ], [ 77.146818, 8.671468 ], [ 77.146604, 8.671766 ], [ 77.146454, 8.672024 ], [ 77.146375, 8.671938 ], [ 77.146359, 8.671789 ], [ 77.14643, 8.67157 ], [ 77.146588, 8.671218 ], [ 77.146849, 8.670796 ], [ 77.14711, 8.670554 ], [ 77.147466, 8.670178 ], [ 77.148067, 8.669741 ], [ 77.14836, 8.669647 ], [ 77.148913, 8.669608 ], [ 77.14889, 8.66949 ], [ 77.148652, 8.66942 ], [ 77.148035, 8.669561 ], [ 77.147648, 8.669686 ], [ 77.147245, 8.66985 ], [ 77.14628, 8.670866 ], [ 77.145963, 8.671054 ], [ 77.145473, 8.671289 ], [ 77.14518, 8.671296 ], [ 77.14522, 8.671109 ], [ 77.145465, 8.670898 ], [ 77.145687, 8.670546 ], [ 77.146011, 8.670178 ], [ 77.146137, 8.669881 ], [ 77.146193, 8.669647 ], [ 77.146509, 8.669279 ], [ 77.146857, 8.668943 ], [ 77.147189, 8.66849 ], [ 77.147182, 8.668448 ], [ 77.147158, 8.668302 ], [ 77.147047, 8.668224 ], [ 77.146762, 8.668279 ], [ 77.146296, 8.668301 ], [ 77.146084, 8.668315 ], [ 77.145908, 8.668333 ], [ 77.14518, 8.668881 ], [ 77.144745, 8.66917 ], [ 77.14454, 8.669272 ], [ 77.144303, 8.669225 ], [ 77.144065, 8.668865 ], [ 77.14382, 8.668662 ], [ 77.143575, 8.668591 ], [ 77.143472, 8.668763 ], [ 77.143433, 8.669014 ], [ 77.143227, 8.669217 ], [ 77.142871, 8.669756 ], [ 77.142594, 8.669983 ], [ 77.141977, 8.67021 ], [ 77.141819, 8.670483 ], [ 77.141788, 8.670726 ], [ 77.14169, 8.670845 ], [ 77.141416, 8.670937 ], [ 77.141258, 8.670929 ], [ 77.140973, 8.671164 ], [ 77.140427, 8.671531 ], [ 77.140159, 8.671805 ], [ 77.139787, 8.672235 ], [ 77.139668, 8.672571 ], [ 77.139494, 8.672758 ], [ 77.139225, 8.672774 ], [ 77.138917, 8.672884 ], [ 77.13845, 8.67322 ], [ 77.138181, 8.673587 ], [ 77.137944, 8.673853 ], [ 77.137754, 8.674181 ], [ 77.137533, 8.674306 ], [ 77.137256, 8.674361 ], [ 77.137122, 8.674416 ], [ 77.136916, 8.674134 ], [ 77.136742, 8.674166 ], [ 77.136718, 8.674369 ], [ 77.136782, 8.67469 ], [ 77.136758, 8.674846 ], [ 77.136307, 8.675182 ], [ 77.135935, 8.675221 ], [ 77.135659, 8.675174 ], [ 77.135516, 8.675315 ], [ 77.135453, 8.675651 ], [ 77.135073, 8.67623 ], [ 77.134844, 8.676519 ], [ 77.134551, 8.676707 ], [ 77.134285, 8.677056 ], [ 77.134051, 8.67705 ], [ 77.133898, 8.677008 ], [ 77.133746, 8.677096 ], [ 77.133565, 8.677253 ], [ 77.133193, 8.677726 ], [ 77.132785, 8.677879 ], [ 77.132387, 8.678126 ], [ 77.132054, 8.678064 ], [ 77.131844, 8.678063 ], [ 77.131451, 8.678137 ], [ 77.131103, 8.678044 ], [ 77.13056, 8.677559 ], [ 77.130394, 8.677391 ], [ 77.130295, 8.67693 ], [ 77.130087, 8.676266 ], [ 77.129841, 8.676143 ], [ 77.129474, 8.676214 ], [ 77.129197, 8.676527 ], [ 77.129007, 8.676785 ], [ 77.128604, 8.676965 ], [ 77.12828, 8.67709 ], [ 77.128106, 8.677137 ], [ 77.128011, 8.677066 ], [ 77.128153, 8.676879 ], [ 77.128343, 8.676707 ], [ 77.128468, 8.676506 ], [ 77.128383, 8.676326 ], [ 77.128154, 8.676199 ], [ 77.127702, 8.676289 ], [ 77.12736, 8.676537 ], [ 77.126866, 8.677306 ], [ 77.126608, 8.677607 ], [ 77.126529, 8.677673 ], [ 77.126375, 8.677698 ], [ 77.126089, 8.677683 ], [ 77.125935, 8.677852 ], [ 77.125718, 8.677995 ], [ 77.125423, 8.678067 ], [ 77.125047, 8.678134 ], [ 77.124838, 8.678152 ], [ 77.124653, 8.678145 ], [ 77.124302, 8.678067 ], [ 77.124242, 8.677986 ], [ 77.12424, 8.677879 ], [ 77.124468, 8.677629 ], [ 77.124586, 8.677426 ], [ 77.1245, 8.677264 ], [ 77.124349, 8.677187 ], [ 77.1242, 8.677245 ], [ 77.124142, 8.677379 ], [ 77.12397, 8.677574 ], [ 77.123761, 8.677728 ], [ 77.123569, 8.677711 ], [ 77.123143, 8.677427 ], [ 77.122789, 8.677501 ], [ 77.122489, 8.677615 ], [ 77.122422, 8.677942 ], [ 77.122214, 8.678255 ], [ 77.121977, 8.678395 ], [ 77.121787, 8.678442 ], [ 77.121724, 8.678309 ], [ 77.121731, 8.678051 ], [ 77.121755, 8.677864 ], [ 77.121697, 8.677816 ], [ 77.121614, 8.677826 ], [ 77.12136, 8.678169 ], [ 77.121283, 8.678331 ], [ 77.121208, 8.678342 ], [ 77.121028, 8.678051 ], [ 77.120789, 8.677901 ], [ 77.120561, 8.67802 ], [ 77.120379, 8.678161 ], [ 77.120102, 8.678208 ], [ 77.119778, 8.678192 ], [ 77.119398, 8.678286 ], [ 77.119137, 8.678309 ], [ 77.118818, 8.67813 ], [ 77.118022, 8.678192 ], [ 77.117896, 8.678012 ], [ 77.117587, 8.677856 ], [ 77.116818, 8.677725 ], [ 77.116417, 8.677707 ], [ 77.115974, 8.677786 ], [ 77.115689, 8.678004 ], [ 77.115476, 8.678208 ], [ 77.115104, 8.67838 ], [ 77.114558, 8.678474 ], [ 77.114202, 8.678231 ], [ 77.114013, 8.677918 ], [ 77.113791, 8.677699 ], [ 77.113554, 8.677582 ], [ 77.111982, 8.677899 ], [ 77.11164, 8.678059 ], [ 77.111308, 8.67759 ], [ 77.110992, 8.677402 ], [ 77.11062, 8.677301 ], [ 77.110507, 8.677083 ], [ 77.110393, 8.676956 ], [ 77.110114, 8.676996 ], [ 77.109876, 8.677129 ], [ 77.109789, 8.677379 ], [ 77.10941, 8.677551 ], [ 77.109086, 8.677621 ], [ 77.10892, 8.677473 ], [ 77.108861, 8.677352 ], [ 77.108825, 8.677277 ], [ 77.108904, 8.677004 ], [ 77.108896, 8.676777 ], [ 77.108719, 8.676559 ], [ 77.108366, 8.676425 ], [ 77.108121, 8.676269 ], [ 77.108039, 8.676235 ], [ 77.107876, 8.676167 ], [ 77.107543, 8.676183 ], [ 77.107077, 8.676167 ], [ 77.106737, 8.67584 ], [ 77.106354, 8.675809 ], [ 77.106242, 8.675585 ], [ 77.106019, 8.675416 ], [ 77.10593, 8.675464 ], [ 77.105875, 8.675565 ], [ 77.105836, 8.676014 ], [ 77.105803, 8.676253 ], [ 77.10563, 8.676527 ], [ 77.105369, 8.676683 ], [ 77.105155, 8.676879 ], [ 77.104878, 8.67709 ], [ 77.104507, 8.677254 ], [ 77.104072, 8.677285 ], [ 77.103613, 8.67718 ], [ 77.103197, 8.676964 ], [ 77.102646, 8.676735 ], [ 77.102045, 8.676945 ], [ 77.101776, 8.677076 ], [ 77.101685, 8.67703 ], [ 77.101505, 8.676857 ], [ 77.101177, 8.676789 ], [ 77.100825, 8.676792 ], [ 77.100469, 8.676862 ], [ 77.100216, 8.676841 ], [ 77.099859, 8.676894 ], [ 77.099431, 8.677013 ], [ 77.099226, 8.677123 ], [ 77.099073, 8.677121 ], [ 77.098884, 8.676863 ], [ 77.098567, 8.676707 ], [ 77.098211, 8.676738 ], [ 77.097927, 8.676722 ], [ 77.097571, 8.676785 ], [ 77.09731, 8.676965 ], [ 77.097144, 8.677098 ], [ 77.096895, 8.677252 ], [ 77.096618, 8.676954 ], [ 77.096376, 8.676747 ], [ 77.096154, 8.676606 ], [ 77.095919, 8.676555 ], [ 77.095253, 8.6765 ], [ 77.094938, 8.676395 ], [ 77.09435, 8.675923 ], [ 77.094215, 8.675778 ], [ 77.094156, 8.675715 ], [ 77.093976, 8.675454 ], [ 77.093823, 8.67508 ], [ 77.093806, 8.674698 ], [ 77.093579, 8.674379 ], [ 77.092839, 8.674042 ], [ 77.092286, 8.673917 ], [ 77.091489, 8.674051 ], [ 77.091091, 8.673987 ], [ 77.090897, 8.673981 ], [ 77.090675, 8.674029 ], [ 77.090043, 8.674119 ], [ 77.089785, 8.674117 ], [ 77.089617, 8.674058 ], [ 77.089387, 8.673937 ], [ 77.089204, 8.673802 ], [ 77.088859, 8.673414 ], [ 77.088556, 8.672928 ], [ 77.08845, 8.672834 ], [ 77.088361, 8.67281 ], [ 77.0877, 8.672477 ], [ 77.087427, 8.672289 ], [ 77.08734, 8.672217 ], [ 77.087313, 8.672156 ], [ 77.087281, 8.67187 ], [ 77.087248, 8.671779 ], [ 77.087153, 8.671684 ], [ 77.086623, 8.671328 ], [ 77.086348, 8.671218 ], [ 77.086253, 8.671142 ], [ 77.086188, 8.671025 ], [ 77.086106, 8.67093 ], [ 77.085957, 8.670824 ], [ 77.08562, 8.670647 ], [ 77.085668, 8.67075 ], [ 77.085706, 8.670794 ], [ 77.085838, 8.670887 ], [ 77.085884, 8.670948 ], [ 77.085888, 8.671025 ], [ 77.085866, 8.671161 ], [ 77.085833, 8.671235 ], [ 77.085391, 8.67146 ], [ 77.085312, 8.671521 ], [ 77.085207, 8.671842 ], [ 77.084713, 8.672611 ], [ 77.084434, 8.672707 ], [ 77.083808, 8.672558 ], [ 77.083219, 8.672396 ], [ 77.082868, 8.672497 ], [ 77.082589, 8.672595 ], [ 77.082117, 8.672564 ], [ 77.082065, 8.672742 ], [ 77.082001, 8.67287 ], [ 77.081805, 8.673107 ], [ 77.081696, 8.673207 ], [ 77.081509, 8.673351 ], [ 77.081372, 8.673433 ], [ 77.080749, 8.67376 ], [ 77.080251, 8.673956 ], [ 77.079907, 8.674058 ], [ 77.079521, 8.674131 ], [ 77.079343, 8.674125 ], [ 77.079009, 8.673948 ], [ 77.078812, 8.67387 ], [ 77.078372, 8.673818 ], [ 77.078104, 8.673767 ], [ 77.077908, 8.673712 ], [ 77.07773, 8.673615 ], [ 77.077644, 8.673598 ], [ 77.077245, 8.673574 ], [ 77.076691, 8.673611 ], [ 77.076215, 8.673571 ], [ 77.076143, 8.673586 ], [ 77.076068, 8.673629 ], [ 77.076027, 8.673725 ], [ 77.075999, 8.673854 ], [ 77.075946, 8.673922 ], [ 77.075899, 8.673943 ], [ 77.075471, 8.673966 ], [ 77.075362, 8.674021 ], [ 77.075275, 8.674292 ], [ 77.075167, 8.674366 ], [ 77.075042, 8.67437 ], [ 77.074835, 8.67431 ], [ 77.074649, 8.674202 ], [ 77.074474, 8.674002 ], [ 77.074357, 8.673903 ], [ 77.074239, 8.673905 ], [ 77.073972, 8.673967 ], [ 77.073904, 8.673945 ], [ 77.073783, 8.673876 ], [ 77.073627, 8.67383 ], [ 77.07346, 8.673846 ], [ 77.073131, 8.673981 ], [ 77.072929, 8.674042 ], [ 77.072767, 8.674077 ], [ 77.072521, 8.674211 ], [ 77.072341, 8.673979 ], [ 77.07228, 8.673924 ], [ 77.072238, 8.673879 ], [ 77.071971, 8.673737 ], [ 77.071579, 8.673467 ], [ 77.071164, 8.673256 ], [ 77.070876, 8.673167 ], [ 77.070812, 8.673135 ], [ 77.070518, 8.672849 ], [ 77.070222, 8.672592 ], [ 77.069609, 8.672202 ], [ 77.06958, 8.672204 ], [ 77.069559, 8.672223 ], [ 77.069441, 8.672425 ], [ 77.06937, 8.672466 ], [ 77.069275, 8.672456 ], [ 77.068619, 8.672202 ], [ 77.068531, 8.672196 ], [ 77.06842, 8.672213 ], [ 77.068132, 8.672306 ], [ 77.067982, 8.672337 ], [ 77.06795, 8.672325 ], [ 77.067643, 8.671759 ], [ 77.067602, 8.671728 ], [ 77.066745, 8.671911 ], [ 77.066531, 8.671908 ], [ 77.066307, 8.671855 ], [ 77.066097, 8.671777 ], [ 77.065678, 8.671537 ], [ 77.065373, 8.671435 ], [ 77.065026, 8.671232 ], [ 77.064989, 8.671234 ], [ 77.064904, 8.67129 ], [ 77.064642, 8.671417 ], [ 77.064587, 8.671423 ], [ 77.064526, 8.671373 ], [ 77.06419, 8.670519 ], [ 77.063996, 8.670415 ], [ 77.06395, 8.670413 ], [ 77.063528, 8.670704 ], [ 77.063462, 8.670727 ], [ 77.06342, 8.670687 ], [ 77.063233, 8.670363 ], [ 77.063195, 8.670319 ], [ 77.06308, 8.670251 ], [ 77.062725, 8.669947 ], [ 77.062573, 8.669835 ], [ 77.062428, 8.669756 ], [ 77.062298, 8.669715 ], [ 77.061676, 8.669609 ], [ 77.061505, 8.669594 ], [ 77.061384, 8.669542 ], [ 77.061331, 8.669488 ], [ 77.061297, 8.669424 ], [ 77.061281, 8.66928 ], [ 77.061239, 8.668415 ], [ 77.061259, 8.668284 ], [ 77.061244, 8.668114 ], [ 77.06097, 8.667197 ], [ 77.060557, 8.666836 ], [ 77.060493, 8.666163 ], [ 77.060777, 8.665426 ], [ 77.061115, 8.664641 ], [ 77.061179, 8.663824 ], [ 77.06149, 8.66271 ], [ 77.061867, 8.661997 ], [ 77.062303, 8.661349 ], [ 77.062685, 8.660316 ], [ 77.062712, 8.659973 ], [ 77.062743, 8.659901 ], [ 77.06268, 8.658994 ], [ 77.062634, 8.658843 ], [ 77.062317, 8.658272 ], [ 77.062237, 8.658053 ], [ 77.062258, 8.657794 ], [ 77.062526, 8.656665 ], [ 77.062225, 8.656118 ], [ 77.061984, 8.654851 ], [ 77.061882, 8.653149 ], [ 77.061506, 8.652549 ], [ 77.061528, 8.652284 ], [ 77.061684, 8.65187 ], [ 77.061614, 8.651658 ], [ 77.061204, 8.651183 ], [ 77.061239, 8.651066 ], [ 77.06156, 8.65082 ], [ 77.061858, 8.650469 ], [ 77.061746, 8.650289 ], [ 77.061621, 8.650138 ], [ 77.06129, 8.649816 ], [ 77.061255, 8.649718 ], [ 77.061247, 8.649343 ], [ 77.061224, 8.649258 ], [ 77.061182, 8.649178 ], [ 77.061103, 8.649112 ], [ 77.060889, 8.649034 ], [ 77.060415, 8.64893 ], [ 77.060024, 8.648828 ], [ 77.05955, 8.64861 ], [ 77.059247, 8.648413 ], [ 77.058983, 8.648128 ], [ 77.058626, 8.64777 ], [ 77.058464, 8.647645 ], [ 77.058224, 8.647374 ], [ 77.058175, 8.647301 ], [ 77.058154, 8.647221 ], [ 77.05817, 8.647065 ], [ 77.058236, 8.646858 ], [ 77.058306, 8.646731 ], [ 77.058401, 8.646627 ], [ 77.058527, 8.646534 ], [ 77.058634, 8.646372 ], [ 77.058723, 8.646172 ], [ 77.058757, 8.64591 ], [ 77.058738, 8.645791 ], [ 77.058705, 8.645725 ], [ 77.058672, 8.64566 ], [ 77.058602, 8.645598 ], [ 77.058524, 8.645554 ], [ 77.058271, 8.645469 ], [ 77.057924, 8.645273 ], [ 77.057351, 8.645032 ], [ 77.057295, 8.645021 ], [ 77.056896, 8.645076 ], [ 77.056741, 8.645148 ], [ 77.056644, 8.645233 ], [ 77.056569, 8.64526 ], [ 77.056516, 8.645262 ], [ 77.05643, 8.645228 ], [ 77.056166, 8.645045 ], [ 77.055997, 8.644968 ], [ 77.055898, 8.644953 ], [ 77.055694, 8.64499 ], [ 77.055559, 8.645046 ], [ 77.0552, 8.645242 ], [ 77.055111, 8.645253 ], [ 77.054977, 8.645102 ], [ 77.054844, 8.645015 ], [ 77.054723, 8.644997 ], [ 77.054639, 8.645016 ], [ 77.054012, 8.64516 ], [ 77.053822, 8.645228 ], [ 77.053666, 8.645345 ], [ 77.053493, 8.645622 ], [ 77.053444, 8.645668 ], [ 77.053379, 8.645683 ], [ 77.053269, 8.645678 ], [ 77.053168, 8.645642 ], [ 77.05292, 8.645468 ], [ 77.052698, 8.645436 ], [ 77.052554, 8.64546 ], [ 77.052187, 8.64565 ], [ 77.051787, 8.646 ], [ 77.051684, 8.64607 ], [ 77.051607, 8.646099 ], [ 77.051451, 8.646088 ], [ 77.051394, 8.646015 ], [ 77.051396, 8.645926 ], [ 77.051426, 8.645861 ], [ 77.051685, 8.6456 ], [ 77.05171, 8.64552 ], [ 77.051707, 8.645413 ], [ 77.051631, 8.645206 ], [ 77.051541, 8.645136 ], [ 77.05143, 8.645104 ], [ 77.050328, 8.645104 ], [ 77.049942, 8.645032 ], [ 77.04972, 8.644946 ], [ 77.049629, 8.644896 ], [ 77.049568, 8.644827 ], [ 77.049286, 8.644138 ], [ 77.049153, 8.64387 ], [ 77.048536, 8.643391 ], [ 77.048277, 8.6433 ], [ 77.048014, 8.643265 ], [ 77.047604, 8.643274 ], [ 77.047322, 8.64336 ], [ 77.04716, 8.643358 ], [ 77.047044, 8.643256 ], [ 77.046671, 8.642747 ], [ 77.046157, 8.642503 ], [ 77.045891, 8.642399 ], [ 77.045764, 8.642369 ], [ 77.04565, 8.642388 ], [ 77.044512, 8.642856 ], [ 77.044405, 8.642873 ], [ 77.044356, 8.642837 ], [ 77.044322, 8.642779 ], [ 77.044108, 8.642352 ], [ 77.043829, 8.641985 ], [ 77.043767, 8.641853 ], [ 77.043783, 8.641696 ], [ 77.044377, 8.641072 ], [ 77.045128, 8.640448 ], [ 77.045231, 8.640317 ], [ 77.045265, 8.640165 ], [ 77.045233, 8.640027 ], [ 77.045151, 8.63989 ], [ 77.045059, 8.639836 ], [ 77.044957, 8.63982 ], [ 77.044359, 8.639981 ], [ 77.044249, 8.639968 ], [ 77.044181, 8.639905 ], [ 77.044167, 8.639825 ], [ 77.04429, 8.639406 ], [ 77.044272, 8.639289 ], [ 77.044213, 8.639205 ], [ 77.04412, 8.639153 ], [ 77.043977, 8.639152 ], [ 77.043284, 8.639264 ], [ 77.042945, 8.639293 ], [ 77.042028, 8.639308 ], [ 77.041782, 8.639393 ], [ 77.040829, 8.640074 ], [ 77.040207, 8.640669 ], [ 77.040001, 8.64079 ], [ 77.039855, 8.640824 ], [ 77.039397, 8.640835 ], [ 77.039152, 8.640786 ], [ 77.03883, 8.640803 ], [ 77.038445, 8.640895 ], [ 77.038248, 8.640951 ], [ 77.038123, 8.640941 ], [ 77.03782, 8.640775 ], [ 77.037507, 8.640639 ], [ 77.037338, 8.64051 ], [ 77.037158, 8.64043 ], [ 77.036917, 8.64038 ], [ 77.036637, 8.640367 ], [ 77.036009, 8.640436 ], [ 77.035943, 8.640472 ], [ 77.035884, 8.640528 ], [ 77.035605, 8.640857 ], [ 77.033938, 8.641504 ], [ 77.033447, 8.641588 ], [ 77.033206, 8.641593 ], [ 77.032957, 8.64148 ], [ 77.032729, 8.641222 ], [ 77.032002, 8.639985 ], [ 77.031666, 8.639392 ], [ 77.031483, 8.638715 ], [ 77.031375, 8.638133 ], [ 77.031499, 8.637385 ], [ 77.031522, 8.637322 ], [ 77.031622, 8.637212 ], [ 77.031692, 8.637179 ], [ 77.031924, 8.637121 ], [ 77.03207, 8.637042 ], [ 77.032191, 8.636941 ], [ 77.032326, 8.636803 ], [ 77.032394, 8.636672 ], [ 77.032415, 8.636431 ], [ 77.032391, 8.636159 ], [ 77.032288, 8.635647 ], [ 77.03206, 8.635187 ], [ 77.031994, 8.635113 ], [ 77.031899, 8.635062 ], [ 77.031802, 8.635034 ], [ 77.031641, 8.634997 ], [ 77.031205, 8.635008 ], [ 77.030471, 8.635203 ], [ 77.03022, 8.63521 ], [ 77.030052, 8.635104 ], [ 77.029708, 8.634735 ], [ 77.029604, 8.634654 ], [ 77.029356, 8.634625 ], [ 77.028661, 8.634696 ], [ 77.027935, 8.634732 ], [ 77.027697, 8.634265 ], [ 77.027585, 8.634128 ], [ 77.027511, 8.633924 ], [ 77.027555, 8.633711 ], [ 77.027628, 8.633494 ], [ 77.027641, 8.633205 ], [ 77.027563, 8.632849 ], [ 77.027622, 8.63247 ], [ 77.027573, 8.632317 ], [ 77.027429, 8.632247 ], [ 77.027198, 8.6322 ], [ 77.027139, 8.63216 ], [ 77.027088, 8.631831 ], [ 77.027212, 8.631645 ], [ 77.027485, 8.63159 ], [ 77.027794, 8.631497 ], [ 77.027931, 8.63137 ], [ 77.027984, 8.631205 ], [ 77.028008, 8.630908 ], [ 77.027904, 8.630648 ], [ 77.027692, 8.63042 ], [ 77.02745, 8.630303 ], [ 77.027222, 8.630293 ], [ 77.027105, 8.630244 ], [ 77.026982, 8.630088 ], [ 77.026944, 8.630049 ], [ 77.02661, 8.629846 ], [ 77.026491, 8.629737 ], [ 77.026398, 8.629623 ], [ 77.026355, 8.629536 ], [ 77.026311, 8.629446 ], [ 77.026253, 8.629256 ], [ 77.0262, 8.628894 ], [ 77.026202, 8.628771 ], [ 77.026166, 8.628628 ], [ 77.026092, 8.628472 ], [ 77.025949, 8.628281 ], [ 77.025728, 8.628076 ], [ 77.025588, 8.627905 ], [ 77.025496, 8.627702 ], [ 77.025472, 8.627531 ], [ 77.02543, 8.627257 ], [ 77.025354, 8.626938 ], [ 77.025259, 8.626659 ], [ 77.025136, 8.626419 ], [ 77.024972, 8.626216 ], [ 77.024921, 8.626112 ], [ 77.024836, 8.625906 ], [ 77.024753, 8.625649 ], [ 77.024668, 8.625232 ], [ 77.024636, 8.625142 ], [ 77.024569, 8.625017 ], [ 77.024404, 8.624816 ], [ 77.024238, 8.624658 ], [ 77.02394, 8.624326 ], [ 77.023842, 8.624239 ], [ 77.023691, 8.624152 ], [ 77.023265, 8.624012 ], [ 77.023139, 8.623946 ], [ 77.02307, 8.623883 ], [ 77.022962, 8.623744 ], [ 77.022833, 8.623465 ], [ 77.022752, 8.62336 ], [ 77.022706, 8.62314 ], [ 77.022719, 8.623075 ], [ 77.022754, 8.622998 ], [ 77.023012, 8.622671 ], [ 77.023097, 8.622491 ], [ 77.023145, 8.622216 ], [ 77.023122, 8.622107 ], [ 77.023064, 8.621987 ], [ 77.022822, 8.621705 ], [ 77.022658, 8.621528 ], [ 77.022491, 8.621378 ], [ 77.022403, 8.621264 ], [ 77.022339, 8.621088 ], [ 77.022249, 8.62075 ], [ 77.022188, 8.620654 ], [ 77.022047, 8.620505 ], [ 77.021876, 8.620407 ], [ 77.021698, 8.620247 ], [ 77.021573, 8.620161 ], [ 77.020813, 8.619434 ], [ 77.02023, 8.618743 ], [ 77.020167, 8.61863 ], [ 77.020088, 8.618531 ], [ 77.020014, 8.618354 ], [ 77.019986, 8.618239 ], [ 77.02001, 8.617333 ], [ 77.020157, 8.616787 ], [ 77.020148, 8.616237 ], [ 77.02017, 8.615976 ], [ 77.020172, 8.615844 ], [ 77.02006, 8.615371 ], [ 77.019978, 8.615134 ], [ 77.019985, 8.615031 ], [ 77.020076, 8.614741 ], [ 77.0201, 8.614619 ], [ 77.020097, 8.614372 ], [ 77.020071, 8.614177 ], [ 77.020027, 8.613998 ], [ 77.019984, 8.613896 ], [ 77.01985, 8.613728 ], [ 77.019602, 8.613529 ], [ 77.019223, 8.613035 ], [ 77.018903, 8.612859 ], [ 77.018637, 8.612736 ], [ 77.018392, 8.612678 ], [ 77.018256, 8.612656 ], [ 77.018137, 8.612654 ], [ 77.017813, 8.612684 ], [ 77.017289, 8.612802 ], [ 77.016556, 8.612998 ], [ 77.016336, 8.613028 ], [ 77.015657, 8.613002 ], [ 77.015244, 8.61309 ], [ 77.015071, 8.613111 ], [ 77.014601, 8.613097 ], [ 77.014302, 8.613065 ], [ 77.013927, 8.613044 ], [ 77.013715, 8.612984 ], [ 77.013585, 8.612923 ], [ 77.013461, 8.612848 ], [ 77.013241, 8.612682 ], [ 77.012941, 8.612416 ], [ 77.012858, 8.612294 ], [ 77.012709, 8.612019 ], [ 77.012525, 8.611649 ], [ 77.012457, 8.611515 ], [ 77.01238, 8.611336 ], [ 77.012303, 8.611222 ], [ 77.012183, 8.611106 ], [ 77.012034, 8.611003 ], [ 77.011625, 8.61072 ], [ 77.011236, 8.610421 ], [ 77.011051, 8.610343 ], [ 77.010744, 8.610352 ], [ 77.01056, 8.610319 ], [ 77.010442, 8.610264 ], [ 77.010253, 8.610138 ], [ 77.009966, 8.610028 ], [ 77.009843, 8.609965 ], [ 77.00975, 8.6099 ], [ 77.009712, 8.609854 ], [ 77.009478, 8.60955 ], [ 77.009283, 8.609392 ], [ 77.009008, 8.609212 ], [ 77.008753, 8.609088 ], [ 77.008589, 8.608945 ], [ 77.00836, 8.608582 ], [ 77.008197, 8.6084 ], [ 77.008058, 8.608165 ], [ 77.007978, 8.607962 ], [ 77.007869, 8.607605 ], [ 77.007833, 8.607476 ], [ 77.007753, 8.607368 ], [ 77.007629, 8.60729 ], [ 77.007202, 8.60711 ], [ 77.007049, 8.607085 ], [ 77.006752, 8.607085 ], [ 77.006614, 8.607108 ], [ 77.006511, 8.607137 ], [ 77.006176, 8.607272 ], [ 77.005875, 8.607351 ], [ 77.005748, 8.607419 ], [ 77.005695, 8.60747 ], [ 77.00558, 8.607632 ], [ 77.005266, 8.608203 ], [ 77.005191, 8.608329 ], [ 77.00513, 8.608372 ], [ 77.004938, 8.608402 ], [ 77.004903, 8.608421 ], [ 77.004219, 8.608267 ], [ 77.004189, 8.608262 ], [ 77.003848, 8.60817 ], [ 77.00328, 8.60812 ], [ 77.003153, 8.608082 ], [ 77.003082, 8.608035 ], [ 77.002843, 8.607706 ], [ 77.002833, 8.607212 ], [ 77.002876, 8.607025 ], [ 77.002894, 8.606828 ], [ 77.002913, 8.606582 ], [ 77.002872, 8.606205 ], [ 77.002857, 8.605739 ], [ 77.002858, 8.605666 ], [ 77.002858, 8.60554 ], [ 77.002882, 8.605352 ], [ 77.002899, 8.605273 ], [ 77.002954, 8.605189 ], [ 77.003364, 8.605167 ], [ 77.003991, 8.604924 ], [ 77.004052, 8.605093 ], [ 77.004067, 8.605218 ], [ 77.004058, 8.605379 ], [ 77.004042, 8.605406 ], [ 77.003679, 8.60556 ] ] } }
]
}
