{"type":"FeatureCollection","name":"water canal","crs":{"type":"name","properties":{"name":"urn:ogc:def:crs:OGC:1.3:CRS84"}},"features":[{"type":"Feature","properties":{"full_id":"w900383539","osm_id":"900383539","osm_type":"way","waterway":"canal","tunnel":null,"layer":null},"geometry":{"type":"LineString","coordinates":[[76.9737883,8.6145187],[76.973932,8.614325],[76.9739676,8.6142448]]}},{"type":"Feature","properties":{"full_id":"w882686030","osm_id":"882686030","osm_type":"way","waterway":"canal","tunnel":null,"layer":null},"geometry":{"type":"LineString","coordinates":[[76.9666601,8.6060379],[76.966704,8.6059589],[76.9667219,8.6058352],[76.9666657,8.6056914],[76.9665662,8.6051969],[76.9666224,8.6047806],[76.9666632,8.6045409],[76.9666938,8.6043845],[76.9667111,8.6042417]]}},{"type":"Feature","properties":{"full_id":"w882687341","osm_id":"882687341","osm_type":"way","waterway":"canal","tunnel":null,"layer":null},"geometry":{"type":"LineString","coordinates":[[76.9739676,8.6142448],[76.9740913,8.6136988],[76.9741549,8.6135],[76.9743819,8.613304],[76.9746958,8.6130214],[76.9750351,8.6127641],[76.9753286,8.6125244],[76.9755812,8.6122771],[76.9756246,8.6121207],[76.9757216,8.6118962],[76.975867,8.6116691],[76.975964,8.6115682],[76.9760584,8.6114168],[76.9761885,8.6113386],[76.9763263,8.6112124],[76.9764871,8.6111241],[76.9766453,8.6110383],[76.976778,8.6109374],[76.9769081,8.6107608],[76.9770153,8.6106624],[76.9771786,8.6106824]]}},{"type":"Feature","properties":{"full_id":"w882686029","osm_id":"882686029","osm_type":"way","waterway":"canal","tunnel":"culvert","layer":"-1"},"geometry":{"type":"LineString","coordinates":[[76.9666256,8.6061001],[76.9666601,8.6060379]]}}]}