{"type":"FeatureCollection","name":"water streams","crs":{"type":"name","properties":{"name":"urn:ogc:def:crs:OGC:1.3:CRS84"}},"features":[{"type":"Feature","properties":{"full_id":"w904972615","osm_id":"904972615","osm_type":"way","waterway":"stream","address":null,"addr:place":null,"name:ml":null,"name:en":null,"name":null,"tunnel":null,"layer":null},"geometry":{"type":"LineString","coordinates":[[76.9575487,8.6173383],[76.9574933,8.6172684],[76.9572067,8.6171245],[76.9566952,8.616924],[76.9565233,8.6168324],[76.9564904,8.6167991]]}},{"type":"Feature","properties":{"full_id":"w904972213","osm_id":"904972213","osm_type":"way","waterway":"stream","address":null,"addr:place":null,"name:ml":null,"name:en":null,"name":null,"tunnel":"culvert","layer":"-1"},"geometry":{"type":"LineString","coordinates":[[76.9648094,8.5957453],[76.9648461,8.5956278]]}},{"type":"Feature","properties":{"full_id":"w866597355","osm_id":"866597355","osm_type":"way","waterway":"stream","address":null,"addr:place":null,"name:ml":null,"name:en":null,"name":null,"tunnel":null,"layer":null},"geometry":{"type":"LineString","coordinates":[[76.9948744,8.5895811],[76.9949909,8.5896884]]}},{"type":"Feature","properties":{"full_id":"w904972210","osm_id":"904972210","osm_type":"way","waterway":"stream","address":null,"addr:place":null,"name:ml":null,"name:en":null,"name":null,"tunnel":null,"layer":null},"geometry":{"type":"LineString","coordinates":[[76.9653334,8.6010211],[76.9654364,8.6007072],[76.9655394,8.6002786],[76.9655952,8.6000071],[76.9658527,8.6000325],[76.9659728,8.600024],[76.9661445,8.5997737],[76.9663376,8.5994512],[76.9664234,8.599239],[76.9665093,8.5989335],[76.9663762,8.598768],[76.9658569,8.5986153],[76.9657239,8.5984116],[76.9656767,8.5981061],[76.9658054,8.5975714],[76.9656982,8.5973253],[76.9656723,8.5971319]]}},{"type":"Feature","properties":{"full_id":"w904972211","osm_id":"904972211","osm_type":"way","waterway":"stream","address":null,"addr:place":null,"name:ml":null,"name:en":null,"name":null,"tunnel":null,"layer":null},"geometry":{"type":"LineString","coordinates":[[76.9656723,8.5971319],[76.9657159,8.596727],[76.965776,8.5962432],[76.9655743,8.596082],[76.9650508,8.596082],[76.9648448,8.5959759],[76.9647718,8.5958656],[76.9648094,8.5957453]]}},{"type":"Feature","properties":{"full_id":"w904974749","osm_id":"904974749","osm_type":"way","waterway":"stream","address":null,"addr:place":null,"name:ml":null,"name:en":null,"name":null,"tunnel":"culvert","layer":"-1"},"geometry":{"type":"LineString","coordinates":[[76.9776825,8.5936983],[76.9777163,8.5935862]]}},{"type":"Feature","properties":{"full_id":"w904974746","osm_id":"904974746","osm_type":"way","waterway":"stream","address":null,"addr:place":null,"name:ml":null,"name:en":null,"name":null,"tunnel":null,"layer":null},"geometry":{"type":"LineString","coordinates":[[76.9752211,8.6026907],[76.9752398,8.602523],[76.9754115,8.6021877],[76.975669,8.6019798],[76.9758792,8.6018101],[76.9762989,8.6016509]]}},{"type":"Feature","properties":{"full_id":"w904974747","osm_id":"904974747","osm_type":"way","waterway":"stream","address":null,"addr:place":null,"name:ml":null,"name:en":null,"name":null,"tunnel":null,"layer":null},"geometry":{"type":"LineString","coordinates":[[76.9762989,8.6016509],[76.976381,8.6015857],[76.97666,8.6013098],[76.9769432,8.6010892],[76.9771106,8.6007964],[76.9771402,8.6006004]]}},{"type":"Feature","properties":{"full_id":"w904974744","osm_id":"904974744","osm_type":"way","waterway":"stream","address":null,"addr:place":null,"name:ml":null,"name:en":null,"name":null,"tunnel":null,"layer":null},"geometry":{"type":"LineString","coordinates":[[76.9771597,8.6004706],[76.9771836,8.6003127],[76.9771578,8.5999987],[76.9770462,8.5996422],[76.9770591,8.599167],[76.9770548,8.598679],[76.9770548,8.5984202],[76.9770576,8.59811],[76.9768938,8.597933],[76.9767238,8.597819],[76.97656,8.5976869],[76.97656,8.5972939],[76.976566,8.5971499],[76.9766692,8.5970568],[76.9768058,8.5968828],[76.9769029,8.5962887],[76.9770212,8.5959467],[76.9769787,8.5956376],[76.9771001,8.5951815],[76.9772003,8.5949115],[76.9772185,8.5947405],[76.9772154,8.5943924],[76.9773611,8.5941614],[76.9775553,8.5939933],[76.9776251,8.5938883],[76.9776825,8.5936983]]}},{"type":"Feature","properties":{"full_id":"w904916361","osm_id":"904916361","osm_type":"way","waterway":"stream","address":null,"addr:place":null,"name:ml":null,"name:en":null,"name":null,"tunnel":null,"layer":null},"geometry":{"type":"LineString","coordinates":[[77.0404491,8.6382502],[77.0406047,8.638122],[77.0406955,8.6379886],[77.040763,8.6378501],[77.0409005,8.6377808],[77.041082,8.6375484]]}},{"type":"Feature","properties":{"full_id":"w904974745","osm_id":"904974745","osm_type":"way","waterway":"stream","address":null,"addr:place":null,"name:ml":null,"name:en":null,"name":null,"tunnel":"culvert","layer":"-1"},"geometry":{"type":"LineString","coordinates":[[76.9771402,8.6006004],[76.9771597,8.6004706]]}},{"type":"Feature","properties":{"full_id":"w904916362","osm_id":"904916362","osm_type":"way","waterway":"stream","address":null,"addr:place":null,"name:ml":null,"name:en":null,"name":null,"tunnel":null,"layer":null},"geometry":{"type":"LineString","coordinates":[[77.0334099,8.6405236],[77.0334621,8.6404095],[77.0335187,8.6401679],[77.0336409,8.6399322],[77.0336826,8.6397083],[77.033781,8.6396317],[77.0339061,8.6396081],[77.0339866,8.6395138],[77.0341744,8.6394696],[77.0344605,8.6393547],[77.0346184,8.6392015],[77.0345886,8.6390365],[77.0344783,8.6388302],[77.0343436,8.6383954],[77.0344837,8.6381721],[77.0348902,8.6375156],[77.035281,8.6369357],[77.0355754,8.6366953],[77.0359794,8.6363027],[77.0361916,8.6359778],[77.0363902,8.6357274],[77.0364826,8.6354972],[77.0366367,8.6351892],[77.0370235,8.6353043],[77.0371125,8.6351418],[77.0370441,8.6348778],[77.0370441,8.6344818],[77.0371194,8.6342246],[77.0374069,8.6336492],[77.0376089,8.6333717],[77.0379068,8.6332025],[77.0381327,8.6331314],[77.0384203,8.6329182],[77.0386941,8.6327997],[77.0387866,8.6325695],[77.0387996,8.632487]]}},{"type":"Feature","properties":{"full_id":"w901488086","osm_id":"901488086","osm_type":"way","waterway":"stream","address":null,"addr:place":null,"name:ml":null,"name:en":null,"name":null,"tunnel":null,"layer":null},"geometry":{"type":"LineString","coordinates":[[77.0159754,8.6123481],[77.0161181,8.612461],[77.0162271,8.6125046],[77.0163698,8.6125072],[77.0164709,8.6125225],[77.0166058,8.6125559],[77.016816,8.6125815],[77.0171792,8.6125559],[77.0173634,8.6125302],[77.0175917,8.6124866],[77.0178149,8.6124764],[77.0180587,8.6124738],[77.0182896,8.6124635],[77.0184479,8.6124635],[77.0184555,8.6124669]]}},{"type":"Feature","properties":{"full_id":"w901488087","osm_id":"901488087","osm_type":"way","waterway":"stream","address":null,"addr:place":null,"name:ml":null,"name:en":null,"name":null,"tunnel":null,"layer":null},"geometry":{"type":"LineString","coordinates":[[77.0199297,8.6136516],[77.0199384,8.6136582],[77.0200746,8.6138974],[77.0201559,8.614219],[77.0202087,8.6145566],[77.0202087,8.6147315],[77.0201254,8.6148902],[77.0200685,8.6151555],[77.0201518,8.6153666],[77.0202575,8.6157062],[77.0202718,8.6159132],[77.0203002,8.6161202],[77.0202352,8.6162468],[77.0201945,8.6165885],[77.0201803,8.6167915],[77.0201091,8.6170467],[77.0200522,8.617304],[77.0200258,8.617503],[77.0200156,8.6179773],[77.0200238,8.6183149],[77.020099,8.6184857],[77.0202189,8.6186727],[77.0204689,8.6189379],[77.0206824,8.6191852],[77.0208877,8.6194082],[77.0210645,8.6195529],[77.0213593,8.6198544],[77.0215158,8.619981],[77.0216276,8.6200192],[77.021839,8.6200252],[77.022024,8.6200453],[77.0222333,8.6200895],[77.0222691,8.6203306],[77.0223116,8.6204652],[77.0223816,8.6205654],[77.0224394,8.6206665],[77.0224794,8.6207624],[77.0225251,8.6209894],[77.0226419,8.6211527],[77.0227436,8.6212934],[77.0228762,8.6214586],[77.0230623,8.6216308],[77.0231546,8.6216806],[77.0231989,8.6216893],[77.0233188,8.6217134],[77.0234144,8.6216913],[77.0235628,8.6216371],[77.0236156,8.6216391],[77.0236441,8.6216773]]}},{"type":"Feature","properties":{"full_id":"w904916359","osm_id":"904916359","osm_type":"way","waterway":"stream","address":null,"addr:place":null,"name:ml":null,"name:en":null,"name":null,"tunnel":null,"layer":null},"geometry":{"type":"LineString","coordinates":[[77.0401315,8.6373563],[77.040206,8.6374323],[77.0402738,8.6375171],[77.0403099,8.6376042],[77.0404771,8.6375863],[77.0405606,8.637602],[77.040669,8.6376131],[77.040931,8.6376422],[77.041082,8.6375484],[77.0411072,8.6375327],[77.0411637,8.6374032],[77.041305,8.6372033],[77.0414308,8.6370089],[77.0415488,8.6369156],[77.0415331,8.6368301],[77.0415095,8.6367795],[77.0415999,8.6366629],[77.0418673,8.6363208],[77.0419971,8.6359709],[77.0420561,8.6357259],[77.0421151,8.6355043],[77.0421387,8.6354231],[77.0422347,8.6352564],[77.0423255,8.6350743],[77.0424111,8.6349666],[77.0425772,8.6349948],[77.042681,8.6350102],[77.0427588,8.6349024],[77.0428288,8.6347434],[77.0428444,8.6344407],[77.0428574,8.6342817],[77.0429197,8.6340714],[77.0430182,8.633879],[77.0430805,8.6337789],[77.0431065,8.6336969],[77.0430935,8.6336071],[77.0431272,8.6335224],[77.0431973,8.6334173],[77.0432543,8.6333685],[77.0434904,8.6332582],[77.0436357,8.6330505],[77.0436928,8.6329504],[77.0436902,8.632835],[77.0438537,8.6326375],[77.0440482,8.6324887],[77.0441961,8.632381],[77.0444426,8.6321424],[77.0446275,8.6318914],[77.044708,8.6318914],[77.0448361,8.6316704],[77.0450537,8.6314582],[77.0452713,8.6311489],[77.04531,8.6309809],[77.045605,8.6305212],[77.0458047,8.6301353],[77.0459329,8.6297611],[77.0460521,8.6295902],[77.0462671,8.6295745]]}},{"type":"Feature","properties":{"full_id":"w900795167","osm_id":"900795167","osm_type":"way","waterway":"stream","address":null,"addr:place":null,"name:ml":null,"name:en":null,"name":null,"tunnel":"culvert","layer":"-1"},"geometry":{"type":"LineString","coordinates":[[77.0048947,8.6083666],[77.004857,8.6084816]]}},{"type":"Feature","properties":{"full_id":"w904980314","osm_id":"904980314","osm_type":"way","waterway":"stream","address":null,"addr:place":null,"name:ml":null,"name:en":null,"name":null,"tunnel":null,"layer":null},"geometry":{"type":"LineString","coordinates":[[76.9619742,8.620084],[76.9619801,8.6200864],[76.9620161,8.6201014],[76.9621953,8.6200927],[76.9624862,8.6201595],[76.9627624,8.6200433],[76.962974,8.620081],[76.9632384,8.6201275],[76.963638,8.620235],[76.9637526,8.6203309],[76.9638182,8.6203562],[76.9640758,8.6204558],[76.9644549,8.620665],[76.9647017,8.6207405],[76.9649074,8.6207812],[76.9653687,8.6207899],[76.9655479,8.6208073],[76.9656772,8.6208102],[76.9658396,8.6210163],[76.9659762,8.6211123],[76.9662253,8.6211123],[76.966532,8.6212355]]}},{"type":"Feature","properties":{"full_id":"w904980315","osm_id":"904980315","osm_type":"way","waterway":"stream","address":null,"addr:place":null,"name:ml":null,"name:en":null,"name":null,"tunnel":"culvert","layer":"-1"},"geometry":{"type":"LineString","coordinates":[[76.9618692,8.6200404],[76.9619742,8.620084]]}},{"type":"Feature","properties":{"full_id":"w900671251","osm_id":"900671251","osm_type":"way","waterway":"stream","address":null,"addr:place":null,"name:ml":null,"name:en":null,"name":null,"tunnel":null,"layer":null},"geometry":{"type":"LineString","coordinates":[[76.9897303,8.6055959],[76.9897134,8.6054573],[76.9896841,8.6052776],[76.9896517,8.6049928],[76.989641,8.604912],[76.9895609,8.6047262],[76.9893267,8.6043175]]}},{"type":"Feature","properties":{"full_id":"w904980312","osm_id":"904980312","osm_type":"way","waterway":"stream","address":null,"addr:place":null,"name:ml":null,"name:en":null,"name":null,"tunnel":null,"layer":null},"geometry":{"type":"LineString","coordinates":[[76.9624862,8.6201595],[76.9625999,8.6202583],[76.9628957,8.6203302],[76.9633965,8.6203764],[76.9638182,8.6203562]]}},{"type":"Feature","properties":{"full_id":"w900795166","osm_id":"900795166","osm_type":"way","waterway":"stream","address":null,"addr:place":null,"name:ml":null,"name:en":null,"name":null,"tunnel":null,"layer":null},"geometry":{"type":"LineString","coordinates":[[77.004857,8.6084816],[77.0048542,8.6085007],[77.0048247,8.6086743],[77.0047861,8.6088118],[77.0044321,8.6096168],[77.0042679,8.6099465],[77.0040742,8.6102502],[77.0039099,8.6104971],[77.0037549,8.6106157],[77.0035947,8.610701],[77.0027089,8.6109646],[77.0024858,8.6110207],[77.0023855,8.6110402],[77.002294,8.6110506],[77.0022301,8.611055]]}},{"type":"Feature","properties":{"full_id":"w904980313","osm_id":"904980313","osm_type":"way","waterway":"stream","address":null,"addr:place":null,"name:ml":null,"name:en":null,"name":null,"tunnel":null,"layer":null},"geometry":{"type":"LineString","coordinates":[[76.9657299,8.6138744],[76.9657929,8.6139879],[76.9659331,8.6140829],[76.9661277,8.6141855],[76.9662315,8.6142086],[76.9663249,8.6143112],[76.9664936,8.6144369],[76.9665636,8.6145626],[76.9666674,8.6149783],[76.9667219,8.615122],[76.966862,8.6153195],[76.9669139,8.6153349],[76.9669918,8.6153529],[76.9671034,8.615358],[76.9671553,8.6153939],[76.9672072,8.6154555],[76.9672124,8.6155478],[76.9671916,8.6156633],[76.9671682,8.6157044]]}},{"type":"Feature","properties":{"full_id":"w900652737","osm_id":"900652737","osm_type":"way","waterway":"stream","address":null,"addr:place":null,"name:ml":null,"name:en":null,"name":null,"tunnel":null,"layer":null},"geometry":{"type":"LineString","coordinates":[[76.994521,8.6011133],[76.9946979,8.6010752]]}},{"type":"Feature","properties":{"full_id":"w904980310","osm_id":"904980310","osm_type":"way","waterway":"stream","address":null,"addr:place":null,"name:ml":null,"name:en":null,"name":null,"tunnel":"culvert","layer":"-1"},"geometry":{"type":"LineString","coordinates":[[76.9657359,8.6157593],[76.9656966,8.615654]]}},{"type":"Feature","properties":{"full_id":"w900652738","osm_id":"900652738","osm_type":"way","waterway":"stream","address":null,"addr:place":null,"name:ml":null,"name:en":null,"name":null,"tunnel":"culvert","layer":"-1"},"geometry":{"type":"LineString","coordinates":[[76.9944147,8.6011362],[76.994521,8.6011133]]}},{"type":"Feature","properties":{"full_id":"w904980311","osm_id":"904980311","osm_type":"way","waterway":"stream","address":null,"addr:place":null,"name:ml":null,"name:en":null,"name":null,"tunnel":null,"layer":null},"geometry":{"type":"LineString","coordinates":[[76.9658929,8.6136342],[76.9660567,8.6137098],[76.9662098,8.613815],[76.9663888,8.6138612],[76.966612,8.6138663],[76.9668922,8.6138356],[76.9669986,8.6137868],[76.9671907,8.6137458],[76.9673645,8.6137689],[76.9674138,8.6137766],[76.9674657,8.6137689],[76.9675851,8.6136945],[76.9678316,8.6137175],[76.9680963,8.613715],[76.9683091,8.6136919],[76.9683739,8.6136893],[76.9684336,8.6136842]]}},{"type":"Feature","properties":{"full_id":"w904980308","osm_id":"904980308","osm_type":"way","waterway":"stream","address":null,"addr:place":null,"name:ml":null,"name:en":null,"name":null,"tunnel":null,"layer":null},"geometry":{"type":"LineString","coordinates":[[76.9658929,8.6136342],[76.9658962,8.6133941]]}},{"type":"Feature","properties":{"full_id":"w900652736","osm_id":"900652736","osm_type":"way","waterway":"stream","address":null,"addr:place":null,"name:ml":null,"name:en":null,"name":null,"tunnel":null,"layer":null},"geometry":{"type":"LineString","coordinates":[[76.994246,8.6012648],[76.9943578,8.6011663],[76.9944147,8.6011362]]}},{"type":"Feature","properties":{"full_id":"w904980309","osm_id":"904980309","osm_type":"way","waterway":"stream","address":null,"addr:place":null,"name:ml":null,"name:en":null,"name":null,"tunnel":null,"layer":null},"geometry":{"type":"LineString","coordinates":[[76.9674333,8.6165422],[76.9673402,8.6165257],[76.967267,8.6165093],[76.9671439,8.6164961],[76.9670441,8.616483],[76.9668944,8.6164534],[76.9666548,8.6164106],[76.9665217,8.6163317],[76.9664186,8.6162593],[76.9663088,8.6161836],[76.966199,8.6160619],[76.9661225,8.6160191],[76.9660626,8.6159928],[76.9660094,8.6159928],[76.9659295,8.6159961],[76.965853,8.6159863],[76.9657765,8.6158678],[76.9657359,8.6157593]]}},{"type":"Feature","properties":{"full_id":"w904975500","osm_id":"904975500","osm_type":"way","waterway":"stream","address":null,"addr:place":null,"name:ml":null,"name:en":null,"name":null,"tunnel":null,"layer":null},"geometry":{"type":"LineString","coordinates":[[76.9575417,8.6053245],[76.9575899,8.6051783],[76.9576859,8.605021],[76.957884,8.6047421],[76.958037,8.604573],[76.958154,8.6044276],[76.9583401,8.6041843],[76.9584781,8.6040003],[76.9584781,8.6038371],[76.9585382,8.6035256],[76.9585892,8.6033624],[76.9586312,8.602496],[76.9584841,8.6022112]]}},{"type":"Feature","properties":{"full_id":"w904981520","osm_id":"904981520","osm_type":"way","waterway":"stream","address":null,"addr:place":null,"name:ml":null,"name:en":null,"name":null,"tunnel":null,"layer":null},"geometry":{"type":"LineString","coordinates":[[77.0236726,8.6217442],[77.0237091,8.62183],[77.0237803,8.6219687],[77.0239083,8.622437],[77.0239957,8.6227002],[77.0241685,8.6231464],[77.0243474,8.6236026],[77.0244287,8.623896],[77.0244696,8.6239845]]}},{"type":"Feature","properties":{"full_id":"w904981521","osm_id":"904981521","osm_type":"way","waterway":"stream","address":null,"addr:place":null,"name:ml":null,"name:en":null,"name":null,"tunnel":"culvert","layer":"-1"},"geometry":{"type":"LineString","coordinates":[[77.0236441,8.6216773],[77.0236726,8.6217442]]}},{"type":"Feature","properties":{"full_id":"w904980613","osm_id":"904980613","osm_type":"way","waterway":"stream","address":null,"addr:place":null,"name:ml":null,"name:en":null,"name":null,"tunnel":"culvert","layer":"-1"},"geometry":{"type":"LineString","coordinates":[[76.9702794,8.6072343],[76.9703272,8.6071335]]}},{"type":"Feature","properties":{"full_id":"w904981519","osm_id":"904981519","osm_type":"way","waterway":"stream","address":null,"addr:place":null,"name:ml":null,"name:en":null,"name":null,"tunnel":null,"layer":null},"geometry":{"type":"LineString","coordinates":[[77.0263405,8.6280842],[77.0264988,8.6281894],[77.0266518,8.6283792],[77.0267608,8.62851],[77.0267867,8.6288358],[77.0267712,8.6290718],[77.0266305,8.6291686]]}},{"type":"Feature","properties":{"full_id":"w904980611","osm_id":"904980611","osm_type":"way","waterway":"stream","address":null,"addr:place":null,"name:ml":null,"name:en":null,"name":null,"tunnel":null,"layer":null},"geometry":{"type":"LineString","coordinates":[[76.9708819,8.6061723],[76.9711536,8.6061019],[76.9713934,8.6060564],[76.9716588,8.606006],[76.9722713,8.6057234],[76.9727612,8.605466],[76.9732817,8.6051179],[76.9736084,8.6046688],[76.9738533,8.6041692],[76.97443,8.603594],[76.974874,8.603165],[76.9752211,8.6026907]]}},{"type":"Feature","properties":{"full_id":"w904980612","osm_id":"904980612","osm_type":"way","waterway":"stream","address":null,"addr:place":null,"name:ml":null,"name:en":null,"name":null,"tunnel":null,"layer":null},"geometry":{"type":"LineString","coordinates":[[76.9703272,8.6071335],[76.9703584,8.6070676],[76.9705043,8.6067282],[76.9707017,8.6063802],[76.9708819,8.6061723]]}},{"type":"Feature","properties":{"full_id":"w904980609","osm_id":"904980609","osm_type":"way","waterway":"stream","address":null,"addr:place":null,"name:ml":null,"name:en":null,"name":null,"tunnel":null,"layer":null},"geometry":{"type":"LineString","coordinates":[[76.9698051,8.6087433],[76.9699164,8.6086079],[76.9700022,8.6084212],[76.9700065,8.6082048],[76.9698949,8.6079969],[76.9699121,8.6078314],[76.9700408,8.6077381],[76.9702794,8.6072343]]}},{"type":"Feature","properties":{"full_id":"w904980610","osm_id":"904980610","osm_type":"way","waterway":"stream","address":null,"addr:place":null,"name:ml":null,"name:en":null,"name":null,"tunnel":"culvert","layer":"-1"},"geometry":{"type":"LineString","coordinates":[[76.9697328,8.6088312],[76.9698051,8.6087433]]}},{"type":"Feature","properties":{"full_id":"w904980607","osm_id":"904980607","osm_type":"way","waterway":"stream","address":null,"addr:place":null,"name:ml":null,"name:en":null,"name":null,"tunnel":null,"layer":null},"geometry":{"type":"LineString","coordinates":[[76.9723945,8.6100899],[76.9726148,8.6099742],[76.9726824,8.6096711],[76.972269,8.6095298],[76.9720751,8.6092321],[76.9716515,8.6089596],[76.9711258,8.6088435],[76.9707346,8.6086406]]}},{"type":"Feature","properties":{"full_id":"w904917591","osm_id":"904917591","osm_type":"way","waterway":"stream","address":null,"addr:place":null,"name:ml":null,"name:en":null,"name":null,"tunnel":"culvert","layer":"-1"},"geometry":{"type":"LineString","coordinates":[[77.0387996,8.632487],[77.0388151,8.6323892]]}},{"type":"Feature","properties":{"full_id":"w904980608","osm_id":"904980608","osm_type":"way","waterway":"stream","address":null,"addr:place":null,"name:ml":null,"name:en":null,"name":null,"tunnel":null,"layer":null},"geometry":{"type":"LineString","coordinates":[[76.9697215,8.6088449],[76.9697328,8.6088312]]}},{"type":"Feature","properties":{"full_id":"w904980605","osm_id":"904980605","osm_type":"way","waterway":"stream","address":null,"addr:place":null,"name:ml":null,"name:en":null,"name":null,"tunnel":"culvert","layer":"-1"},"geometry":{"type":"LineString","coordinates":[[76.9682387,8.6106384],[76.9683298,8.6106028]]}},{"type":"Feature","properties":{"full_id":"w904917589","osm_id":"904917589","osm_type":"way","waterway":"stream","address":null,"addr:place":null,"name:ml":null,"name:en":null,"name":null,"tunnel":null,"layer":null},"geometry":{"type":"LineString","coordinates":[[77.0364412,8.6366434],[77.0365366,8.6364283],[77.0367541,8.6360806],[77.0368078,8.6359245],[77.0368406,8.6357654],[77.0369568,8.6354795],[77.0370235,8.6353043]]}},{"type":"Feature","properties":{"full_id":"w904980606","osm_id":"904980606","osm_type":"way","waterway":"stream","address":null,"addr:place":null,"name:ml":null,"name:en":null,"name":null,"tunnel":null,"layer":null},"geometry":{"type":"LineString","coordinates":[[76.9700737,8.6089686],[76.9700316,8.6095096],[76.9700673,8.6098931],[76.970644,8.6105037],[76.9711136,8.6106752],[76.9714402,8.6104835],[76.9719812,8.6101908],[76.9723945,8.6100899]]}},{"type":"Feature","properties":{"full_id":"w904917590","osm_id":"904917590","osm_type":"way","waterway":"stream","address":null,"addr:place":null,"name:ml":null,"name:en":null,"name":null,"tunnel":null,"layer":null},"geometry":{"type":"LineString","coordinates":[[77.0388151,8.6323892],[77.0388208,8.6323529],[77.0388392,8.6322052],[77.0388597,8.6322067]]}},{"type":"Feature","properties":{"full_id":"w901488088","osm_id":"901488088","osm_type":"way","waterway":"stream","address":null,"addr:place":null,"name:ml":null,"name:en":null,"name":null,"tunnel":"culvert","layer":"-1"},"geometry":{"type":"LineString","coordinates":[[77.019843,8.6135856],[77.0199297,8.6136516]]}},{"type":"Feature","properties":{"full_id":"w904980603","osm_id":"904980603","osm_type":"way","waterway":"stream","address":null,"addr:place":null,"name:ml":null,"name:en":null,"name":null,"tunnel":null,"layer":null},"geometry":{"type":"LineString","coordinates":[[76.9681602,8.6106691],[76.9682387,8.6106384]]}},{"type":"Feature","properties":{"full_id":"w904920066","osm_id":"904920066","osm_type":"way","waterway":"stream","address":null,"addr:place":null,"name:ml":null,"name:en":null,"name":null,"tunnel":null,"layer":null},"geometry":{"type":"LineString","coordinates":[[77.0389605,8.632214],[77.0389984,8.6322168],[77.0389906,8.6320419],[77.0390574,8.6318455],[77.0390967,8.6316647],[77.0391184,8.6315034],[77.0391773,8.6313673],[77.039428,8.6311548],[77.0395313,8.6309999],[77.0396473,8.6306733],[77.0397086,8.6305178]]}},{"type":"Feature","properties":{"full_id":"w904980604","osm_id":"904980604","osm_type":"way","waterway":"stream","address":null,"addr:place":null,"name:ml":null,"name:en":null,"name":null,"tunnel":null,"layer":null},"geometry":{"type":"LineString","coordinates":[[76.9683298,8.6106028],[76.9685554,8.6102831],[76.9686651,8.6101544],[76.9690453,8.6099601],[76.9692265,8.609834],[76.9693183,8.6097507],[76.9694153,8.6095842],[76.969497,8.609289],[76.9695914,8.6088525],[76.9697215,8.6088449],[76.9700737,8.6089686],[76.9703799,8.6089333],[76.9704692,8.6088273],[76.9707346,8.6086406],[76.9707633,8.6085148]]}},{"type":"Feature","properties":{"full_id":"w904920067","osm_id":"904920067","osm_type":"way","waterway":"stream","address":null,"addr:place":null,"name:ml":null,"name:en":null,"name":null,"tunnel":"culvert","layer":"-1"},"geometry":{"type":"LineString","coordinates":[[77.0388597,8.6322067],[77.0389605,8.632214]]}},{"type":"Feature","properties":{"full_id":"w904980316","osm_id":"904980316","osm_type":"way","waterway":"stream","address":null,"addr:place":null,"name:ml":null,"name:en":null,"name":null,"tunnel":null,"layer":null},"geometry":{"type":"LineString","coordinates":[[76.9619801,8.6200864],[76.9619815,8.6200817]]}},{"type":"Feature","properties":{"full_id":"w904920064","osm_id":"904920064","osm_type":"way","waterway":"stream","address":null,"addr:place":null,"name:ml":null,"name:en":null,"name":null,"tunnel":null,"layer":null},"geometry":{"type":"LineString","coordinates":[[77.0372855,8.630195],[77.0373244,8.6302289],[77.0375485,8.6304486],[77.037692,8.6306333],[77.0378022,8.6307421],[77.0380923,8.630878],[77.0382429,8.6308915],[77.0385412,8.6309312],[77.0387142,8.6309293],[77.0388669,8.6309704],[77.0389089,8.6309818],[77.0390976,8.6310187],[77.0392117,8.631077],[77.0393156,8.6311144]]}},{"type":"Feature","properties":{"full_id":"w904980317","osm_id":"904980317","osm_type":"way","waterway":"stream","address":null,"addr:place":null,"name:ml":null,"name:en":null,"name":null,"tunnel":"culvert","layer":"-1"},"geometry":{"type":"LineString","coordinates":[[76.9619815,8.6200817],[76.9620126,8.6199789]]}},{"type":"Feature","properties":{"full_id":"w904920065","osm_id":"904920065","osm_type":"way","waterway":"stream","address":null,"addr:place":null,"name:ml":null,"name:en":null,"name":null,"tunnel":"culvert","layer":"-1"},"geometry":{"type":"LineString","coordinates":[[77.037173,8.6300967],[77.0372855,8.630195]]}},{"type":"Feature","properties":{"full_id":"w904983727","osm_id":"904983727","osm_type":"way","waterway":"stream","address":null,"addr:place":null,"name:ml":null,"name:en":null,"name":null,"tunnel":null,"layer":null},"geometry":{"type":"LineString","coordinates":[[76.9633571,8.6148861],[76.9638767,8.6149682],[76.9640752,8.6150396],[76.9642448,8.6150043]]}},{"type":"Feature","properties":{"full_id":"w904983728","osm_id":"904983728","osm_type":"way","waterway":"stream","address":null,"addr:place":null,"name:ml":null,"name:en":null,"name":null,"tunnel":null,"layer":null},"geometry":{"type":"LineString","coordinates":[[76.964352,8.6149821],[76.9645047,8.6149504],[76.9647681,8.6147434],[76.9649918,8.6145757],[76.9651651,8.6146007],[76.9652939,8.6146733]]}},{"type":"Feature","properties":{"full_id":"w904920063","osm_id":"904920063","osm_type":"way","waterway":"stream","address":null,"addr:place":null,"name:ml":null,"name:en":null,"name":null,"tunnel":null,"layer":null},"geometry":{"type":"LineString","coordinates":[[77.0365615,8.6283569],[77.0366676,8.6284249],[77.0367561,8.6285357],[77.0367266,8.6287476],[77.0367227,8.6289479],[77.0367935,8.6294125],[77.0369134,8.6297002],[77.0370137,8.6298129],[77.0370766,8.6299626],[77.0371376,8.6300715],[77.037173,8.6300967]]}},{"type":"Feature","properties":{"full_id":"w904983725","osm_id":"904983725","osm_type":"way","waterway":"stream","address":null,"addr:place":null,"name:ml":null,"name:en":null,"name":null,"tunnel":null,"layer":null},"geometry":{"type":"LineString","coordinates":[[76.9658962,8.6133941],[76.9658784,8.6132482],[76.9659295,8.6129228],[76.9659295,8.6127411],[76.9659346,8.6125695],[76.9659856,8.6124863],[76.9660962,8.6123911]]}},{"type":"Feature","properties":{"full_id":"w904983726","osm_id":"904983726","osm_type":"way","waterway":"stream","address":null,"addr:place":null,"name:ml":null,"name:en":null,"name":null,"tunnel":null,"layer":null},"geometry":{"type":"LineString","coordinates":[[76.9627404,8.6153321],[76.9628567,8.6152588],[76.9630889,8.6151327],[76.9632471,8.6149788],[76.9633147,8.6148861]]}},{"type":"Feature","properties":{"full_id":"w904983723","osm_id":"904983723","osm_type":"way","waterway":"stream","address":null,"addr:place":null,"name:ml":null,"name:en":null,"name":null,"tunnel":null,"layer":null},"geometry":{"type":"LineString","coordinates":[[76.9660962,8.6123911],[76.9661869,8.6121694],[76.9663074,8.6117169]]}},{"type":"Feature","properties":{"full_id":"w904983724","osm_id":"904983724","osm_type":"way","waterway":"stream","address":null,"addr:place":null,"name:ml":null,"name:en":null,"name":null,"tunnel":null,"layer":null},"geometry":{"type":"LineString","coordinates":[[76.9656966,8.615654],[76.9654937,8.6156112],[76.9653473,8.6156047],[76.9652541,8.6154205],[76.9652075,8.6153053],[76.965141,8.6150981],[76.965294,8.6149435],[76.9653539,8.6148218],[76.9653939,8.6147297],[76.9654072,8.6146441],[76.9654804,8.6145751],[76.9655602,8.6145323],[76.9655835,8.6144698],[76.9655835,8.614325],[76.9655835,8.6142132],[76.9656035,8.6141244],[76.96568,8.6139632],[76.9657299,8.6138744],[76.9657964,8.6136836],[76.9658929,8.6136342]]}},{"type":"Feature","properties":{"full_id":"w904983721","osm_id":"904983721","osm_type":"way","waterway":"stream","address":null,"addr:place":null,"name:ml":null,"name:en":null,"name":null,"tunnel":null,"layer":null},"geometry":{"type":"LineString","coordinates":[[76.9674722,8.6106527],[76.9674296,8.6106034],[76.9672561,8.6104672],[76.9671489,8.6102502],[76.9670417,8.6099928],[76.9670366,8.6095639],[76.9668937,8.609468],[76.9665926,8.6093671],[76.9665416,8.6091703],[76.9666684,8.6088243]]}},{"type":"Feature","properties":{"full_id":"w904983722","osm_id":"904983722","osm_type":"way","waterway":"stream","address":null,"addr:place":null,"name:ml":null,"name:en":null,"name":null,"tunnel":"culvert","layer":"-1"},"geometry":{"type":"LineString","coordinates":[[76.9675416,8.6107329],[76.9674722,8.6106527]]}},{"type":"Feature","properties":{"full_id":"w904983719","osm_id":"904983719","osm_type":"way","waterway":"stream","address":null,"addr:place":null,"name:ml":null,"name:en":null,"name":null,"tunnel":null,"layer":null},"geometry":{"type":"LineString","coordinates":[[76.9663074,8.6117169],[76.966157,8.6113789],[76.9662185,8.6111963],[76.9663553,8.6110679],[76.9665057,8.6110206],[76.9666698,8.6110409],[76.9668407,8.6110882],[76.9671415,8.6109665],[76.9675449,8.6107367],[76.9677022,8.610811],[76.9678868,8.6107705],[76.9681602,8.6106691]]}},{"type":"Feature","properties":{"full_id":"w904983720","osm_id":"904983720","osm_type":"way","waterway":"stream","address":null,"addr:place":null,"name:ml":null,"name:en":null,"name":null,"tunnel":null,"layer":null},"geometry":{"type":"LineString","coordinates":[[76.9675449,8.6107367],[76.9675416,8.6107329]]}},{"type":"Feature","properties":{"full_id":"w904920055","osm_id":"904920055","osm_type":"way","waterway":"stream","address":null,"addr:place":null,"name:ml":null,"name:en":null,"name":null,"tunnel":null,"layer":null},"geometry":{"type":"LineString","coordinates":[[77.0434501,8.6266562],[77.0435269,8.6267366],[77.0435992,8.6268103],[77.0436421,8.6269554],[77.0436557,8.6271006],[77.043667,8.6271653],[77.0437822,8.6271899],[77.0438567,8.627248],[77.0438431,8.627335],[77.0437438,8.6274177],[77.0436602,8.6275784],[77.043816,8.6275985],[77.0440645,8.6275896],[77.0442429,8.6275874],[77.044331,8.6276722],[77.0444597,8.6277035],[77.0445953,8.6279134],[77.0447127,8.6279179],[77.0448414,8.6278978],[77.0449363,8.6279268],[77.0450041,8.6279849],[77.0450628,8.6279737],[77.0451044,8.6279625]]}},{"type":"Feature","properties":{"full_id":"w904981526","osm_id":"904981526","osm_type":"way","waterway":"stream","address":null,"addr:place":null,"name:ml":null,"name:en":null,"name":null,"tunnel":null,"layer":null},"geometry":{"type":"LineString","coordinates":[[77.0265615,8.629874],[77.0265195,8.6299593],[77.0263544,8.6302833],[77.0262403,8.6306424],[77.0260638,8.6311246],[77.0259237,8.6315248],[77.0257058,8.6318172],[77.0255086,8.632125],[77.0253374,8.632479]]}},{"type":"Feature","properties":{"full_id":"w904981527","osm_id":"904981527","osm_type":"way","waterway":"stream","address":null,"addr:place":null,"name:ml":null,"name:en":null,"name":null,"tunnel":"culvert","layer":"-1"},"geometry":{"type":"LineString","coordinates":[[77.0266106,8.6297741],[77.0265615,8.629874]]}},{"type":"Feature","properties":{"full_id":"w904981524","osm_id":"904981524","osm_type":"way","waterway":"stream","address":null,"addr:place":null,"name:ml":null,"name:en":null,"name":null,"tunnel":null,"layer":null},"geometry":{"type":"LineString","coordinates":[[77.0248069,8.6245706],[77.0248201,8.6245854],[77.0248487,8.6246624],[77.0247916,8.624706],[77.0248565,8.6248394],[77.024911,8.6249189],[77.0250095,8.6249651],[77.0252353,8.6249522],[77.0253857,8.6249882],[77.0254999,8.6252062],[77.0255648,8.625532],[77.0256867,8.6259372],[77.0257464,8.6261989],[77.0257853,8.6266632],[77.0257438,8.6267606],[77.0258034,8.6268504],[77.0259254,8.6268812],[77.0260032,8.6269864],[77.0260447,8.6271377],[77.0260551,8.6273814],[77.0260058,8.6274301],[77.0260655,8.6276251],[77.0260136,8.6278277],[77.0260473,8.6280509],[77.025998,8.6281817],[77.0260292,8.6282561],[77.0261226,8.62831],[77.0263353,8.6287819],[77.0263716,8.6289948],[77.0266025,8.6291231],[77.0266305,8.6291686],[77.0267271,8.6293257],[77.0267608,8.6294437],[77.0267037,8.6295848],[77.0266106,8.6297741]]}},{"type":"Feature","properties":{"full_id":"w904981525","osm_id":"904981525","osm_type":"way","waterway":"stream","address":null,"addr:place":null,"name:ml":null,"name:en":null,"name":null,"tunnel":"culvert","layer":"-1"},"geometry":{"type":"LineString","coordinates":[[77.0247519,8.624509],[77.0248069,8.6245706]]}},{"type":"Feature","properties":{"full_id":"w904981522","osm_id":"904981522","osm_type":"way","waterway":"stream","address":null,"addr:place":null,"name:ml":null,"name:en":null,"name":null,"tunnel":null,"layer":null},"geometry":{"type":"LineString","coordinates":[[77.0245114,8.6240749],[77.0245161,8.624085],[77.0245324,8.6242116],[77.0247519,8.624509]]}},{"type":"Feature","properties":{"full_id":"w904981523","osm_id":"904981523","osm_type":"way","waterway":"stream","address":null,"addr:place":null,"name:ml":null,"name:en":null,"name":null,"tunnel":"culvert","layer":"-1"},"geometry":{"type":"LineString","coordinates":[[77.0244696,8.6239845],[77.0245114,8.6240749]]}},{"type":"Feature","properties":{"full_id":"w904920072","osm_id":"904920072","osm_type":"way","waterway":"stream","address":null,"addr:place":null,"name:ml":null,"name:en":null,"name":null,"tunnel":"culvert","layer":"-1"},"geometry":{"type":"LineString","coordinates":[[77.0374963,8.6322213],[77.0376011,8.6322454]]}},{"type":"Feature","properties":{"full_id":"w904920070","osm_id":"904920070","osm_type":"way","waterway":"stream","address":null,"addr:place":null,"name:ml":null,"name:en":null,"name":null,"tunnel":null,"layer":null},"geometry":{"type":"LineString","coordinates":[[77.0366713,8.6320815],[77.0368854,8.6320826],[77.0370604,8.6321137],[77.0374596,8.6322128],[77.0374963,8.6322213]]}},{"type":"Feature","properties":{"full_id":"w904920071","osm_id":"904920071","osm_type":"way","waterway":"stream","address":null,"addr:place":null,"name:ml":null,"name:en":null,"name":null,"tunnel":null,"layer":null},"geometry":{"type":"LineString","coordinates":[[77.0376011,8.6322454],[77.0376877,8.6322653],[77.0378587,8.6323022],[77.0382421,8.63231],[77.0384034,8.6323392],[77.0384683,8.632069],[77.0385253,8.6318532],[77.0385941,8.6315694],[77.0386786,8.6314022],[77.0387475,8.6312447],[77.0387612,8.6311437],[77.0388669,8.6309704]]}},{"type":"Feature","properties":{"full_id":"w904920068","osm_id":"904920068","osm_type":"way","waterway":"stream","address":null,"addr:place":null,"name:ml":null,"name:en":null,"name":null,"tunnel":null,"layer":null},"geometry":{"type":"LineString","coordinates":[[77.0394188,8.6311515],[77.039428,8.6311548]]}},{"type":"Feature","properties":{"full_id":"w904920069","osm_id":"904920069","osm_type":"way","waterway":"stream","address":null,"addr:place":null,"name:ml":null,"name:en":null,"name":null,"tunnel":"culvert","layer":"-1"},"geometry":{"type":"LineString","coordinates":[[77.0393156,8.6311144],[77.0394188,8.6311515]]}},{"type":"Feature","properties":{"full_id":"w904983731","osm_id":"904983731","osm_type":"way","waterway":"stream","address":null,"addr:place":null,"name:ml":null,"name:en":null,"name":null,"tunnel":"culvert","layer":"-1"},"geometry":{"type":"LineString","coordinates":[[76.9652939,8.6146733],[76.9653895,8.6147272]]}},{"type":"Feature","properties":{"full_id":"w904924192","osm_id":"904924192","osm_type":"way","waterway":"stream","address":null,"addr:place":null,"name:ml":null,"name:en":null,"name":null,"tunnel":null,"layer":null},"geometry":{"type":"LineString","coordinates":[[77.0013616,8.5871291],[77.0014647,8.5870635],[77.0016357,8.5869247],[77.0018527,8.5869454],[77.0021342,8.5870061],[77.0022011,8.5870462]]}},{"type":"Feature","properties":{"full_id":"w904985438","osm_id":"904985438","osm_type":"way","waterway":"stream","address":null,"addr:place":null,"name:ml":null,"name:en":null,"name":null,"tunnel":null,"layer":null},"geometry":{"type":"LineString","coordinates":[[76.9735132,8.6151131],[76.9735369,8.6150827],[76.9736503,8.6149492],[76.9736687,8.6148886],[76.9736871,8.6147976],[76.9737025,8.6146612],[76.973727,8.6145884],[76.9737883,8.6145187]]}},{"type":"Feature","properties":{"full_id":"w904924193","osm_id":"904924193","osm_type":"way","waterway":"stream","address":null,"addr:place":null,"name:ml":null,"name:en":null,"name":null,"tunnel":null,"layer":null},"geometry":{"type":"LineString","coordinates":[[77.0022729,8.5870945],[77.0028824,8.587572],[77.0030472,8.5875842],[77.0032745,8.5879588],[77.0034622,8.588048],[77.0039349,8.5880445],[77.0043896,8.5880766],[77.0045624,8.5878821],[77.0046645,8.5873926],[77.0043991,8.5871099],[77.0046401,8.5865136],[77.0047128,8.5863298],[77.0044781,8.5861606],[77.0045267,8.5858131],[77.0048686,8.5856163],[77.0049145,8.5853741],[77.0047155,8.5851319],[77.0048125,8.5848291],[77.0051391,8.5843295],[77.0053381,8.5841579],[77.0055627,8.5835423],[77.0057515,8.5834262],[77.005874,8.5834312],[77.0060118,8.5833202],[77.0062697,8.5830862]]}},{"type":"Feature","properties":{"full_id":"w904983729","osm_id":"904983729","osm_type":"way","waterway":"stream","address":null,"addr:place":null,"name:ml":null,"name:en":null,"name":null,"tunnel":"culvert","layer":"-1"},"geometry":{"type":"LineString","coordinates":[[76.9642448,8.6150043],[76.964352,8.6149821]]}},{"type":"Feature","properties":{"full_id":"w904983730","osm_id":"904983730","osm_type":"way","waterway":"stream","address":null,"addr:place":null,"name:ml":null,"name:en":null,"name":null,"tunnel":null,"layer":null},"geometry":{"type":"LineString","coordinates":[[76.9653895,8.6147272],[76.9653939,8.6147297]]}},{"type":"Feature","properties":{"full_id":"w904924191","osm_id":"904924191","osm_type":"way","waterway":"stream","address":null,"addr:place":null,"name:ml":null,"name:en":null,"name":null,"tunnel":null,"layer":null},"geometry":{"type":"LineString","coordinates":[[77.0007652,8.5871427],[77.0009877,8.5871884],[77.0012367,8.5871456],[77.0013616,8.5871291]]}},{"type":"Feature","properties":{"full_id":"w904924188","osm_id":"904924188","osm_type":"way","waterway":"stream","address":null,"addr:place":null,"name:ml":null,"name:en":null,"name":null,"tunnel":null,"layer":null},"geometry":{"type":"LineString","coordinates":[[77.0000938,8.5872328],[77.0004114,8.5870843],[77.0007652,8.5871427]]}},{"type":"Feature","properties":{"full_id":"w904924189","osm_id":"904924189","osm_type":"way","waterway":"stream","address":null,"addr:place":null,"name:ml":null,"name:en":null,"name":null,"tunnel":null,"layer":null},"geometry":{"type":"LineString","coordinates":[[76.9994105,8.5871773],[76.9994916,8.587292]]}},{"type":"Feature","properties":{"full_id":"w904924183","osm_id":"904924183","osm_type":"way","waterway":"stream","address":null,"addr:place":null,"name:ml":null,"name:en":null,"name":null,"tunnel":"culvert","layer":"-1"},"geometry":{"type":"LineString","coordinates":[[76.9982002,8.5877811],[76.9983301,8.5877495]]}},{"type":"Feature","properties":{"full_id":"w904924181","osm_id":"904924181","osm_type":"way","waterway":"stream","address":null,"addr:place":null,"name:ml":null,"name:en":null,"name":null,"tunnel":null,"layer":null},"geometry":{"type":"LineString","coordinates":[[76.9969921,8.5880799],[76.997189,8.5880735],[76.9974379,8.5879717],[76.9978241,8.5878851],[76.9981423,8.5877953],[76.9982002,8.5877811]]}},{"type":"Feature","properties":{"full_id":"w904924182","osm_id":"904924182","osm_type":"way","waterway":"stream","address":null,"addr:place":null,"name:ml":null,"name:en":null,"name":null,"tunnel":null,"layer":null},"geometry":{"type":"LineString","coordinates":[[76.9983301,8.5877495],[76.9984555,8.5877189],[76.9988074,8.5876934],[76.9990478,8.5875279],[76.9992967,8.5872648],[76.9994105,8.5871773],[76.999365,8.5869853],[76.9995228,8.5869253],[76.9998172,8.5869013],[76.9999173,8.5869283],[77.0000891,8.5868887]]}},{"type":"Feature","properties":{"full_id":"w904924179","osm_id":"904924179","osm_type":"way","waterway":"stream","address":null,"addr:place":null,"name:ml":null,"name:en":null,"name":null,"tunnel":null,"layer":null},"geometry":{"type":"LineString","coordinates":[[76.9957852,8.5884538],[76.9958484,8.5884353],[76.9963205,8.5881722],[76.9965136,8.5881722],[76.9967475,8.5881202],[76.9969299,8.588082],[76.9969921,8.5880799]]}},{"type":"Feature","properties":{"full_id":"w904924180","osm_id":"904924180","osm_type":"way","waterway":"stream","address":null,"addr:place":null,"name:ml":null,"name:en":null,"name":null,"tunnel":"culvert","layer":"-1"},"geometry":{"type":"LineString","coordinates":[[76.9956798,8.5884847],[76.9957852,8.5884538]]}},{"type":"Feature","properties":{"full_id":"w904924178","osm_id":"904924178","osm_type":"way","waterway":"stream","address":null,"addr:place":null,"name:ml":null,"name:en":null,"name":null,"tunnel":null,"layer":null},"geometry":{"type":"LineString","coordinates":[[76.9953251,8.5887036],[76.9955008,8.5885371],[76.9956798,8.5884847]]}},{"type":"Feature","properties":{"full_id":"w904986041","osm_id":"904986041","osm_type":"way","waterway":"stream","address":null,"addr:place":null,"name:ml":null,"name:en":null,"name":null,"tunnel":null,"layer":null},"geometry":{"type":"LineString","coordinates":[[77.0282543,8.6202925],[77.0282787,8.6201593],[77.0285736,8.6200465],[77.0290809,8.6196227],[77.0294427,8.6191601],[77.0297612,8.6188024],[77.0299067,8.6186779],[77.0299657,8.6184952],[77.0301348,8.6182075],[77.030296,8.6179626],[77.0303432,8.6177021],[77.0305005,8.6174727],[77.0306578,8.6172627],[77.0306578,8.617045],[77.0306617,8.6168078],[77.0308072,8.6165084],[77.0309645,8.6164462],[77.031287,8.616349]]}},{"type":"Feature","properties":{"full_id":"w904986042","osm_id":"904986042","osm_type":"way","waterway":"stream","address":null,"addr:place":null,"name:ml":null,"name:en":null,"name":null,"tunnel":"culvert","layer":"-1"},"geometry":{"type":"LineString","coordinates":[[77.0282358,8.6203938],[77.0282543,8.6202925]]}},{"type":"Feature","properties":{"full_id":"w797599960","osm_id":"797599960","osm_type":"way","waterway":"stream","address":null,"addr:place":null,"name:ml":null,"name:en":null,"name":null,"tunnel":null,"layer":null},"geometry":{"type":"LineString","coordinates":[[76.9977621,8.6116341],[76.9977044,8.6116105],[76.997581,8.611576],[76.9974576,8.611523],[76.9973585,8.6114921]]}},{"type":"Feature","properties":{"full_id":"w797599961","osm_id":"797599961","osm_type":"way","waterway":"stream","address":null,"addr:place":null,"name:ml":null,"name:en":null,"name":null,"tunnel":"culvert","layer":"-1"},"geometry":{"type":"LineString","coordinates":[[76.997875,8.6116743],[76.9977621,8.6116341]]}},{"type":"Feature","properties":{"full_id":"w904986040","osm_id":"904986040","osm_type":"way","waterway":"stream","address":null,"addr:place":null,"name:ml":null,"name:en":null,"name":null,"tunnel":null,"layer":null},"geometry":{"type":"LineString","coordinates":[[77.0274411,8.6218583],[77.0274332,8.621629],[77.0273978,8.6215279],[77.0274371,8.6212946],[77.0275119,8.6210924],[77.0277085,8.6208358],[77.0278894,8.6206142],[77.0279366,8.6205442],[77.0280349,8.6205753],[77.0282197,8.620482],[77.0282358,8.6203938]]}},{"type":"Feature","properties":{"full_id":"w904991911","osm_id":"904991911","osm_type":"way","waterway":"stream","address":null,"addr:place":null,"name:ml":null,"name:en":null,"name":null,"tunnel":null,"layer":null},"geometry":{"type":"LineString","coordinates":[[77.012618,8.6102327],[77.0126983,8.6105801],[77.012904,8.6108513],[77.0129364,8.6112727]]}},{"type":"Feature","properties":{"full_id":"w904925598","osm_id":"904925598","osm_type":"way","waterway":"stream","address":null,"addr:place":null,"name:ml":null,"name:en":null,"name":null,"tunnel":null,"layer":null},"geometry":{"type":"LineString","coordinates":[[77.0383927,8.6207507],[77.0383813,8.6206965],[77.0384514,8.6205837],[77.0382827,8.6204426],[77.0381842,8.6203246],[77.0380337,8.6201758],[77.0379143,8.6200629],[77.0378235,8.6198475],[77.037904,8.619691],[77.0380181,8.619555]]}},{"type":"Feature","properties":{"full_id":"w904991912","osm_id":"904991912","osm_type":"way","waterway":"stream","address":null,"addr:place":null,"name:ml":null,"name:en":null,"name":null,"tunnel":null,"layer":null},"geometry":{"type":"LineString","coordinates":[[77.0129941,8.6118277],[77.0130732,8.6121393],[77.0132595,8.6124673],[77.0134713,8.6127524],[77.0137265,8.6129164],[77.0139919,8.6130123],[77.0140939,8.6130249]]}},{"type":"Feature","properties":{"full_id":"w797599959","osm_id":"797599959","osm_type":"way","waterway":"stream","address":null,"addr:place":null,"name:ml":null,"name:en":null,"name":null,"tunnel":null,"layer":null},"geometry":{"type":"LineString","coordinates":[[77.0050161,8.6078071],[77.0049812,8.6078641],[77.0049342,8.6080186],[77.0048978,8.6083426],[77.0048947,8.6083666]]}},{"type":"Feature","properties":{"full_id":"w904925599","osm_id":"904925599","osm_type":"way","waterway":"stream","address":null,"addr:place":null,"name:ml":null,"name:en":null,"name":null,"tunnel":"culvert","layer":"-1"},"geometry":{"type":"LineString","coordinates":[[77.0384269,8.6209141],[77.0383927,8.6207507]]}},{"type":"Feature","properties":{"full_id":"w904991909","osm_id":"904991909","osm_type":"way","waterway":"stream","address":null,"addr:place":null,"name:ml":null,"name:en":null,"name":null,"tunnel":null,"layer":null},"geometry":{"type":"LineString","coordinates":[[77.0057198,8.6072977],[77.0055269,8.6073818],[77.0052454,8.6075424],[77.0050161,8.6078071]]}},{"type":"Feature","properties":{"full_id":"w904925596","osm_id":"904925596","osm_type":"way","waterway":"stream","address":null,"addr:place":null,"name:ml":null,"name:en":null,"name":null,"tunnel":null,"layer":null},"geometry":{"type":"LineString","coordinates":[[77.0391559,8.621305],[77.0391194,8.6213378],[77.0390118,8.6213532],[77.0388094,8.6212326],[77.0386875,8.6211531],[77.0385578,8.6210839],[77.0384436,8.6209941],[77.0384269,8.6209141]]}},{"type":"Feature","properties":{"full_id":"w904991910","osm_id":"904991910","osm_type":"way","waterway":"stream","address":null,"addr:place":null,"name:ml":null,"name:en":null,"name":null,"tunnel":"culvert","layer":"-1"},"geometry":{"type":"LineString","coordinates":[[77.0058411,8.6072448],[77.0057198,8.6072977]]}},{"type":"Feature","properties":{"full_id":"w904925597","osm_id":"904925597","osm_type":"way","waterway":"stream","address":null,"addr:place":null,"name:ml":null,"name:en":null,"name":null,"tunnel":"culvert","layer":"-1"},"geometry":{"type":"LineString","coordinates":[[77.0392303,8.6212383],[77.0391559,8.621305]]}},{"type":"Feature","properties":{"full_id":"w904990137","osm_id":"904990137","osm_type":"way","waterway":"stream","address":null,"addr:place":null,"name:ml":null,"name:en":null,"name":null,"tunnel":"culvert","layer":"-1"},"geometry":{"type":"LineString","coordinates":[[77.0184555,8.6124669],[77.0185473,8.6125082]]}},{"type":"Feature","properties":{"full_id":"w904925594","osm_id":"904925594","osm_type":"way","waterway":"stream","address":null,"addr:place":null,"name:ml":null,"name:en":null,"name":null,"tunnel":null,"layer":null},"geometry":{"type":"LineString","coordinates":[[77.0395199,8.6213453],[77.0395168,8.6213414],[77.0394407,8.6212476],[77.0392622,8.6212097],[77.0392303,8.6212383]]}},{"type":"Feature","properties":{"full_id":"w904991908","osm_id":"904991908","osm_type":"way","waterway":"stream","address":null,"addr:place":null,"name:ml":null,"name:en":null,"name":null,"tunnel":null,"layer":null},"geometry":{"type":"LineString","coordinates":[[77.0141265,8.6094513],[77.013946,8.6095726],[77.0138125,8.6095441],[77.013697,8.6096083],[77.0135419,8.6097653],[77.0132893,8.6098616],[77.0129248,8.6101185],[77.0128346,8.610197],[77.012618,8.6102327],[77.0124665,8.6104254],[77.0123509,8.6104663]]}},{"type":"Feature","properties":{"full_id":"w904925595","osm_id":"904925595","osm_type":"way","waterway":"stream","address":null,"addr:place":null,"name:ml":null,"name:en":null,"name":null,"tunnel":"culvert","layer":"-1"},"geometry":{"type":"LineString","coordinates":[[77.0395836,8.6214238],[77.0395199,8.6213453]]}},{"type":"Feature","properties":{"full_id":"w904990135","osm_id":"904990135","osm_type":"way","waterway":"stream","address":null,"addr:place":null,"name:ml":null,"name:en":null,"name":null,"tunnel":null,"layer":null},"geometry":{"type":"LineString","coordinates":[[77.0168915,8.6097263],[77.0169243,8.6098825],[77.0170465,8.6100151],[77.0170792,8.6101683],[77.0169928,8.6104807],[77.0168438,8.6108313],[77.0168498,8.6110847],[77.0167514,8.6112379],[77.0168259,8.6115031],[77.017118,8.6116298],[77.0173236,8.6115385],[77.0174875,8.6114737],[77.0176306,8.6114796],[77.0177379,8.6115562],[77.0181611,8.6117006],[77.0184203,8.611842],[77.0183905,8.6120836],[77.0184293,8.6122162],[77.018477,8.6123046],[77.0184479,8.6124635]]}},{"type":"Feature","properties":{"full_id":"w794927715","osm_id":"794927715","osm_type":"way","waterway":"stream","address":null,"addr:place":null,"name:ml":null,"name:en":null,"name":null,"tunnel":null,"layer":null},"geometry":{"type":"LineString","coordinates":[[77.0464898,8.6290921],[77.0463718,8.6292671],[77.0462806,8.6295376],[77.0462671,8.6295745],[77.0462108,8.6297285],[77.0462645,8.6299354],[77.0465327,8.6301953],[77.0467473,8.6304445],[77.0469458,8.6306938],[77.0470369,8.6308105],[77.0473052,8.6309113],[77.047568,8.6311128]]}},{"type":"Feature","properties":{"full_id":"w904990136","osm_id":"904990136","osm_type":"way","waterway":"stream","address":null,"addr:place":null,"name:ml":null,"name:en":null,"name":null,"tunnel":null,"layer":null},"geometry":{"type":"LineString","coordinates":[[77.0185473,8.6125082],[77.0186191,8.6125405],[77.018793,8.6126739],[77.0190005,8.6127662],[77.0191614,8.6128714],[77.0192879,8.6130312],[77.0195522,8.6133306],[77.0197534,8.6135175],[77.019843,8.6135856]]}},{"type":"Feature","properties":{"full_id":"w904925593","osm_id":"904925593","osm_type":"way","waterway":"stream","address":null,"addr:place":null,"name:ml":null,"name:en":null,"name":null,"tunnel":null,"layer":null},"geometry":{"type":"LineString","coordinates":[[77.043105,8.623939],[77.0429262,8.6238536],[77.0427355,8.6238035],[77.0426193,8.6236562],[77.0424256,8.6235412],[77.0422467,8.6234558],[77.0421275,8.6233851],[77.0420292,8.6232702],[77.0418086,8.6231906],[77.0415553,8.6231052],[77.0414808,8.6230197],[77.041448,8.6228901],[77.0413497,8.6227221],[77.0412811,8.6225571],[77.0411798,8.6223715],[77.0411232,8.6222418],[77.0411023,8.6220356],[77.0411023,8.6219089],[77.0410427,8.6218057],[77.0409354,8.6217704],[77.0407685,8.6217468],[77.0406076,8.6216967],[77.0404556,8.6216289],[77.0403066,8.621458],[77.0401248,8.6213254],[77.0399579,8.6212871],[77.0397523,8.6212694],[77.0395168,8.6213414]]}},{"type":"Feature","properties":{"full_id":"w904988888","osm_id":"904988888","osm_type":"way","waterway":"stream","address":null,"addr:place":null,"name:ml":null,"name:en":null,"name":null,"tunnel":null,"layer":null},"geometry":{"type":"LineString","coordinates":[[76.992324,8.6121223],[76.9923298,8.6121123],[76.9924421,8.6118903],[76.9927091,8.6115902],[76.9931067,8.6113322],[76.9934981,8.6111072],[76.9938076,8.6109092],[76.9939685,8.6108461],[76.9942446,8.6108071],[76.9944752,8.6106961],[76.9947939,8.6105341],[76.9952278,8.6105311],[76.9954554,8.6104891],[76.9957134,8.6106001],[76.9960805,8.6106391],[76.9962778,8.6105851],[76.9965994,8.6105371],[76.9969203,8.6105004]]}},{"type":"Feature","properties":{"full_id":"w904925588","osm_id":"904925588","osm_type":"way","waterway":"stream","address":null,"addr:place":null,"name:ml":null,"name:en":null,"name":null,"tunnel":null,"layer":null},"geometry":{"type":"LineString","coordinates":[[77.0402967,8.6218372],[77.0401002,8.621759],[77.0398676,8.6215982],[77.0396056,8.6214508],[77.0395836,8.6214238]]}},{"type":"Feature","properties":{"full_id":"w904988889","osm_id":"904988889","osm_type":"way","waterway":"stream","address":null,"addr:place":null,"name:ml":null,"name:en":null,"name":null,"tunnel":"culvert","layer":"-1"},"geometry":{"type":"LineString","coordinates":[[76.9922061,8.6123238],[76.992324,8.6121223]]}},{"type":"Feature","properties":{"full_id":"w904924199","osm_id":"904924199","osm_type":"way","waterway":"stream","address":null,"addr:place":null,"name:ml":null,"name:en":null,"name":null,"tunnel":"culvert","layer":"-1"},"geometry":{"type":"LineString","coordinates":[[77.0000891,8.5868887],[77.0001431,8.5868789]]}},{"type":"Feature","properties":{"full_id":"w904988887","osm_id":"904988887","osm_type":"way","waterway":"stream","address":null,"addr:place":null,"name:ml":null,"name:en":null,"name":null,"tunnel":null,"layer":null},"geometry":{"type":"LineString","coordinates":[[76.9921174,8.6124753],[76.9922061,8.6123238]]}},{"type":"Feature","properties":{"full_id":"w904925587","osm_id":"904925587","osm_type":"way","waterway":"stream","address":null,"addr:place":null,"name:ml":null,"name:en":null,"name":null,"tunnel":null,"layer":null},"geometry":{"type":"LineString","coordinates":[[77.0372605,8.6245134],[77.0372009,8.6243621],[77.0370763,8.6240568],[77.0370115,8.6237003],[77.0370815,8.6234079],[77.0371308,8.6232386],[77.037302,8.6229872],[77.0374551,8.6227204],[77.0375641,8.6226178],[77.0375485,8.6224177],[77.0375226,8.6223356],[77.0375792,8.6222847]]}},{"type":"Feature","properties":{"full_id":"w904988723","osm_id":"904988723","osm_type":"way","waterway":"stream","address":null,"addr:place":null,"name:ml":null,"name:en":null,"name":null,"tunnel":"culvert","layer":"-1"},"geometry":{"type":"LineString","coordinates":[[77.0002171,8.6261547],[77.0001087,8.6261395]]}},{"type":"Feature","properties":{"full_id":"w904988721","osm_id":"904988721","osm_type":"way","waterway":"stream","address":null,"addr:place":null,"name:ml":null,"name:en":null,"name":null,"tunnel":null,"layer":null},"geometry":{"type":"LineString","coordinates":[[77.0034488,8.6245531],[77.003291,8.6245645],[77.0031371,8.6245949],[77.0029909,8.6247395],[77.0028601,8.6248992],[77.00271,8.6249791],[77.0025138,8.6251389],[77.0020752,8.6255269],[77.0019521,8.6256068],[77.0018597,8.6256258],[77.0016904,8.625622],[77.0013903,8.6256372],[77.0013018,8.6256943],[77.0011325,8.6258274],[77.0010094,8.6259225],[77.0008786,8.6259644],[77.000794,8.6260214],[77.0005516,8.6261013],[77.0002437,8.6261584],[77.0002171,8.6261547]]}},{"type":"Feature","properties":{"full_id":"w904924194","osm_id":"904924194","osm_type":"way","waterway":"stream","address":null,"addr:place":null,"name:ml":null,"name:en":null,"name":null,"tunnel":"culvert","layer":"-1"},"geometry":{"type":"LineString","coordinates":[[77.0022011,8.5870462],[77.0022729,8.5870945]]}},{"type":"Feature","properties":{"full_id":"w904924195","osm_id":"904924195","osm_type":"way","waterway":"stream","address":null,"addr:place":null,"name:ml":null,"name:en":null,"name":null,"tunnel":null,"layer":null},"geometry":{"type":"LineString","coordinates":[[77.0001858,8.5837268],[77.0004602,8.5837902],[77.0008293,8.5838878],[77.0013271,8.5839472],[77.0014993,8.5839349]]}},{"type":"Feature","properties":{"full_id":"w904929148","osm_id":"904929148","osm_type":"way","waterway":"stream","address":null,"addr:place":null,"name:ml":null,"name:en":null,"name":null,"tunnel":null,"layer":null},"geometry":{"type":"LineString","coordinates":[[77.0147142,8.5919192],[77.0140024,8.5919453],[77.0133329,8.5920811],[77.0129938,8.5921363],[77.0129104,8.5921558]]}},{"type":"Feature","properties":{"full_id":"w904929149","osm_id":"904929149","osm_type":"way","waterway":"stream","address":null,"addr:place":null,"name:ml":null,"name:en":null,"name":null,"tunnel":null,"layer":null},"geometry":{"type":"LineString","coordinates":[[77.0128012,8.5921813],[77.0125218,8.5922466],[77.0121098,8.5922042],[77.0114532,8.5921787],[77.0107665,8.5916865],[77.0102945,8.5915167],[77.0098439,8.5914319],[77.0094962,8.5912791],[77.0090846,8.5911896]]}},{"type":"Feature","properties":{"full_id":"w798113999","osm_id":"798113999","osm_type":"way","waterway":"stream","address":null,"addr:place":null,"name:ml":null,"name:en":null,"name":null,"tunnel":null,"layer":null},"geometry":{"type":"LineString","coordinates":[[76.9941221,8.5852664],[76.9943296,8.5853734],[76.9944829,8.5854448],[76.9946814,8.5854671],[76.9948438,8.5853957],[76.9950062,8.5854537],[76.9952182,8.5854805],[76.9954121,8.5855251],[76.995561,8.5855117],[76.995638,8.5855163]]}},{"type":"Feature","properties":{"full_id":"w798118850","osm_id":"798118850","osm_type":"way","waterway":"stream","address":null,"addr:place":null,"name:ml":null,"name:en":null,"name":null,"tunnel":null,"layer":null},"geometry":{"type":"LineString","coordinates":[[76.978949,8.6006277],[76.9792106,8.6004091],[76.9793685,8.6002263],[76.9794858,8.6001148],[76.9796121,8.599972],[76.9797835,8.5998204],[76.9799414,8.5997134],[76.9801879,8.5995765],[76.9803642,8.5994811],[76.9805495,8.5993309],[76.9808136,8.5991332],[76.9810195,8.59897],[76.9810979,8.5988661],[76.9812359,8.5986831],[76.9813623,8.5984824],[76.9815337,8.5982594],[76.9816555,8.5980944],[76.9818539,8.5981211],[76.9819963,8.5981185],[76.9821554,8.5980961],[76.9823672,8.5980696],[76.9825753,8.5980365],[76.9829239,8.5980616],[76.9830403,8.5981434],[76.9832297,8.5980721],[76.9833244,8.5978178],[76.9833425,8.5976707],[76.9833966,8.5975904],[76.9834913,8.597403],[76.983541,8.5973272],[76.9835635,8.5972425],[76.9835816,8.5970284],[76.9836041,8.5969258],[76.9837214,8.5967296],[76.9838071,8.5966894],[76.9840011,8.5967073],[76.9841093,8.5966939],[76.9843394,8.5967028],[76.9844833,8.596386],[76.9845904,8.5960682],[76.9846499,8.5957974],[76.9846678,8.5954326],[76.9846083,8.5951383],[76.984602,8.5950605],[76.9846154,8.5949139],[76.9846964,8.5947627],[76.984811,8.594676],[76.9849728,8.5945694],[76.9851257,8.5944894],[76.9854628,8.594476],[76.9856584,8.594476],[76.9859798,8.5944716],[76.9860652,8.5944716],[76.9861304,8.5944627],[76.9862316,8.5943982],[76.9863552,8.5942538],[76.9865125,8.5941204],[76.9866451,8.5940426],[76.9869194,8.5939648],[76.9872273,8.5939204],[76.9874071,8.5939159],[76.9875847,8.5938848],[76.9877173,8.5938204],[76.9879601,8.5936648],[76.9883377,8.593347],[76.9885984,8.5930892],[76.988812,8.5928803],[76.9889131,8.5928047],[76.9890075,8.5927647],[76.9890974,8.5927714],[76.9892345,8.5928091],[76.9893627,8.5928847],[76.9896211,8.5929225],[76.989738,8.5929492],[76.9898661,8.5930647],[76.989965,8.5931359],[76.9901134,8.5931581],[76.9905475,8.5932913],[76.9906057,8.5933092],[76.9908192,8.5933714],[76.9910799,8.5933648],[76.9912755,8.5933803],[76.9913834,8.5933803],[76.9914553,8.5933514],[76.9915497,8.5932781],[76.9916329,8.5932136],[76.9917048,8.5931336],[76.9918402,8.5929997],[76.9919904,8.5927769],[76.9922425,8.5924401],[76.9924759,8.5920794],[76.9925322,8.5919998],[76.9925778,8.5919733],[76.9926475,8.591968],[76.9927709,8.5920502],[76.9929238,8.5921775],[76.9929801,8.5922014],[76.9930552,8.5922014],[76.9931411,8.5921987],[76.9931759,8.5921987],[76.9932883,8.5921107],[76.9934053,8.5919705],[76.9935163,8.5918761],[76.993735,8.5917756],[76.9939476,8.5917482],[76.994151,8.5917421],[76.9942619,8.5917329],[76.9943481,8.5917542],[76.9944837,8.5918517],[76.9946004,8.5918562]]}},{"type":"Feature","properties":{"full_id":"w904929147","osm_id":"904929147","osm_type":"way","waterway":"stream","address":null,"addr:place":null,"name:ml":null,"name:en":null,"name":null,"tunnel":null,"layer":null},"geometry":{"type":"LineString","coordinates":[[77.0190052,8.5923518],[77.0185918,8.5926545],[77.0183297,8.5930129],[77.0180663,8.5928809],[77.0179039,8.5929594],[77.0175358,8.5932805],[77.0172399,8.5933983],[77.0168429,8.5934554],[77.0164099,8.5932556],[77.0156954,8.592624],[77.0154031,8.5923135],[77.0151339,8.5920216],[77.014894,8.5919156],[77.0147142,8.5919192]]}},{"type":"Feature","properties":{"full_id":"w904929142","osm_id":"904929142","osm_type":"way","waterway":"stream","address":null,"addr:place":null,"name:ml":null,"name:en":null,"name":null,"tunnel":null,"layer":null},"geometry":{"type":"LineString","coordinates":[[77.0162191,8.5964389],[77.0165504,8.596209],[77.0168923,8.5958709]]}},{"type":"Feature","properties":{"full_id":"w904929143","osm_id":"904929143","osm_type":"way","waterway":"stream","address":null,"addr:place":null,"name:ml":null,"name:en":null,"name":null,"tunnel":"culvert","layer":"-1"},"geometry":{"type":"LineString","coordinates":[[77.0161295,8.5965011],[77.0162191,8.5964389]]}},{"type":"Feature","properties":{"full_id":"w904927583","osm_id":"904927583","osm_type":"way","waterway":"stream","address":null,"addr:place":null,"name:ml":null,"name:en":null,"name":null,"tunnel":"culvert","layer":"-1"},"geometry":{"type":"LineString","coordinates":[[77.0088299,8.5921874],[77.0088834,8.5920731]]}},{"type":"Feature","properties":{"full_id":"w904929141","osm_id":"904929141","osm_type":"way","waterway":"stream","address":null,"addr:place":null,"name:ml":null,"name:en":null,"name":null,"tunnel":null,"layer":null},"geometry":{"type":"LineString","coordinates":[[77.0125543,8.5996556],[77.0126666,8.5992923],[77.0125798,8.5990652],[77.0127993,8.5987069],[77.0130341,8.5983234],[77.0132331,8.5980459],[77.0134168,8.5977935],[77.0136516,8.5976169],[77.0139221,8.5974403],[77.0139578,8.5972738],[77.0140241,8.5972334],[77.0142691,8.5972385],[77.0144528,8.5970719],[77.0151622,8.5970164],[77.0159686,8.5966127],[77.0161295,8.5965011]]}},{"type":"Feature","properties":{"full_id":"w904991917","osm_id":"904991917","osm_type":"way","waterway":"stream","address":null,"addr:place":null,"name:ml":null,"name:en":null,"name":null,"tunnel":null,"layer":null},"geometry":{"type":"LineString","coordinates":[[77.0079355,8.6075051],[77.0079267,8.6074924],[77.007739,8.607289],[77.0072338,8.6069679],[77.0069884,8.6068716],[77.0064507,8.6069786],[77.0060177,8.6071677],[77.0058411,8.6072448]]}},{"type":"Feature","properties":{"full_id":"w797599964","osm_id":"797599964","osm_type":"way","waterway":"stream","address":null,"addr:place":null,"name:ml":null,"name:en":null,"name":null,"tunnel":null,"layer":null},"geometry":{"type":"LineString","coordinates":[[77.0021532,8.6110813],[77.0021097,8.611096],[77.0020158,8.6111225],[77.0017798,8.6111756],[77.0016484,8.6112074],[77.0014392,8.6112392],[77.0012487,8.6112339],[77.0012096,8.6112323],[77.0009962,8.6113933],[77.0007411,8.6114738]]}},{"type":"Feature","properties":{"full_id":"w904927581","osm_id":"904927581","osm_type":"way","waterway":"stream","address":null,"addr:place":null,"name:ml":null,"name:en":null,"name":null,"tunnel":null,"layer":null},"geometry":{"type":"LineString","coordinates":[[77.0086541,8.5925628],[77.0088299,8.5921874]]}},{"type":"Feature","properties":{"full_id":"w904991918","osm_id":"904991918","osm_type":"way","waterway":"stream","address":null,"addr:place":null,"name:ml":null,"name:en":null,"name":null,"tunnel":"culvert","layer":"-1"},"geometry":{"type":"LineString","coordinates":[[77.0079925,8.6075864],[77.0079355,8.6075051]]}},{"type":"Feature","properties":{"full_id":"w797599965","osm_id":"797599965","osm_type":"way","waterway":"stream","address":null,"addr:place":null,"name:ml":null,"name:en":null,"name":null,"tunnel":"culvert","layer":"-1"},"geometry":{"type":"LineString","coordinates":[[77.0022301,8.611055],[77.0021532,8.6110813]]}},{"type":"Feature","properties":{"full_id":"w904927582","osm_id":"904927582","osm_type":"way","waterway":"stream","address":null,"addr:place":null,"name:ml":null,"name:en":null,"name":null,"tunnel":null,"layer":null},"geometry":{"type":"LineString","coordinates":[[77.0088834,8.5920731],[77.0091057,8.5915982],[77.0091543,8.5912622],[77.0090846,8.5911896],[77.0089237,8.5910221],[77.0081893,8.5908481],[77.0073517,8.5906741],[77.0066599,8.590122],[77.0063867,8.5890778],[77.0061488,8.588778],[77.0060772,8.5886877],[77.0051001,8.5884177],[77.0050743,8.5883671]]}},{"type":"Feature","properties":{"full_id":"w904991915","osm_id":"904991915","osm_type":"way","waterway":"stream","address":null,"addr:place":null,"name:ml":null,"name:en":null,"name":null,"tunnel":null,"layer":null},"geometry":{"type":"LineString","coordinates":[[77.0129446,8.6113803],[77.0129473,8.6114151],[77.0129941,8.6118277]]}},{"type":"Feature","properties":{"full_id":"w797599962","osm_id":"797599962","osm_type":"way","waterway":"stream","address":null,"addr:place":null,"name:ml":null,"name:en":null,"name":null,"tunnel":null,"layer":null},"geometry":{"type":"LineString","coordinates":[[77.0006534,8.6115043],[77.0003663,8.6115575],[77.0002429,8.6116185],[77.0001034,8.611645],[76.9999345,8.6116609],[76.9997199,8.6116503],[76.9995683,8.6116662],[76.9993672,8.6116821],[76.9991526,8.6116954],[76.9989139,8.6118624],[76.9986753,8.6119075],[76.9985197,8.6118943],[76.9983427,8.6118465],[76.9982032,8.6117935],[76.9980852,8.6117511],[76.9979565,8.6117033],[76.997875,8.6116743]]}},{"type":"Feature","properties":{"full_id":"w904927579","osm_id":"904927579","osm_type":"way","waterway":"stream","address":null,"addr:place":null,"name:ml":null,"name:en":null,"name":null,"tunnel":null,"layer":null},"geometry":{"type":"LineString","coordinates":[[77.0037422,8.5964029],[77.0040382,8.5963196],[77.0042372,8.5962667],[77.0044184,8.5961859],[77.0045485,8.5961405],[77.0047348,8.5960976],[77.004841,8.5960399],[77.0049466,8.5959513],[77.0050308,8.5958478],[77.0050768,8.5957368],[77.005115,8.5956586],[77.005286,8.5954593],[77.0054799,8.5953104],[77.005781,8.5951843],[77.0061587,8.5950505],[77.0063603,8.5950152],[77.0065925,8.594884],[77.0071112,8.5942376]]}},{"type":"Feature","properties":{"full_id":"w904991916","osm_id":"904991916","osm_type":"way","waterway":"stream","address":null,"addr:place":null,"name:ml":null,"name:en":null,"name":null,"tunnel":"culvert","layer":"-1"},"geometry":{"type":"LineString","coordinates":[[77.0129364,8.6112727],[77.0129446,8.6113803]]}},{"type":"Feature","properties":{"full_id":"w797599963","osm_id":"797599963","osm_type":"way","waterway":"stream","address":null,"addr:place":null,"name:ml":null,"name:en":null,"name":null,"tunnel":"culvert","layer":"-1"},"geometry":{"type":"LineString","coordinates":[[77.0007411,8.6114738],[77.0006534,8.6115043]]}},{"type":"Feature","properties":{"full_id":"w904927580","osm_id":"904927580","osm_type":"way","waterway":"stream","address":null,"addr:place":null,"name:ml":null,"name:en":null,"name":null,"tunnel":null,"layer":null},"geometry":{"type":"LineString","coordinates":[[77.0071112,8.5942376],[77.0072728,8.5940149],[77.0073329,8.5937773],[77.0074488,8.5934972],[77.0076333,8.5931832],[77.0079123,8.5930602],[77.0086541,8.5925628]]}},{"type":"Feature","properties":{"full_id":"w904991913","osm_id":"904991913","osm_type":"way","waterway":"stream","address":null,"addr:place":null,"name:ml":null,"name:en":null,"name":null,"tunnel":null,"layer":null},"geometry":{"type":"LineString","coordinates":[[77.012213,8.6105151],[77.0121236,8.6105467],[77.0115823,8.6102363],[77.0113658,8.6099936],[77.0111673,8.6099473],[77.0109147,8.6098259],[77.0104347,8.6097082],[77.0101713,8.609776],[77.0098898,8.6097011],[77.0096733,8.6095369],[77.0094748,8.6092515],[77.0091645,8.6087734],[77.0090021,8.6084701],[77.0088541,8.6081811],[77.0085799,8.6079741],[77.0080891,8.6077243],[77.0079925,8.6075864]]}},{"type":"Feature","properties":{"full_id":"w904925600","osm_id":"904925600","osm_type":"way","waterway":"stream","address":null,"addr:place":null,"name:ml":null,"name:en":null,"name":null,"tunnel":null,"layer":null},"geometry":{"type":"LineString","coordinates":[[77.0376382,8.6221914],[77.0376795,8.6220767],[77.0377837,8.6219153],[77.0378958,8.6218026],[77.0379135,8.6216782],[77.0379783,8.6215868],[77.0379921,8.6213594],[77.0380609,8.6210989],[77.0380904,8.6209433],[77.0381415,8.6207781],[77.0381179,8.6205759],[77.0381337,8.6204515],[77.0381769,8.6203621],[77.0381842,8.6203246]]}},{"type":"Feature","properties":{"full_id":"w904991914","osm_id":"904991914","osm_type":"way","waterway":"stream","address":null,"addr:place":null,"name:ml":null,"name:en":null,"name":null,"tunnel":"culvert","layer":"-1"},"geometry":{"type":"LineString","coordinates":[[77.0123509,8.6104663],[77.012213,8.6105151]]}},{"type":"Feature","properties":{"full_id":"w904925601","osm_id":"904925601","osm_type":"way","waterway":"stream","address":null,"addr:place":null,"name:ml":null,"name:en":null,"name":null,"tunnel":"culvert","layer":"-1"},"geometry":{"type":"LineString","coordinates":[[77.0375792,8.6222847],[77.0376382,8.6221914]]}},{"type":"Feature","properties":{"full_id":"w904994442","osm_id":"904994442","osm_type":"way","waterway":"stream","address":null,"addr:place":null,"name:ml":null,"name:en":null,"name":null,"tunnel":null,"layer":null},"geometry":{"type":"LineString","coordinates":[[77.0076824,8.6303013],[77.0077776,8.6301695],[77.0077725,8.6296498],[77.007798,8.6293521],[77.0080022,8.6290443],[77.0081706,8.6288626],[77.0082267,8.6286709],[77.008122,8.6284199],[77.0080536,8.6282996],[77.0080787,8.6281007],[77.0078644,8.6277879],[77.0077725,8.6275961],[77.0076245,8.6274195],[77.0075224,8.6272076],[77.0076653,8.6266929],[77.0074765,8.6262489],[77.0073949,8.6257292],[77.0073489,8.6253457],[77.0072162,8.6250783],[77.0071244,8.6246746],[77.0074816,8.6243315],[77.0072417,8.6238572],[77.0070682,8.6232164],[77.0067161,8.6227976],[77.0065834,8.622404]]}},{"type":"Feature","properties":{"full_id":"w904934095","osm_id":"904934095","osm_type":"way","waterway":"stream","address":null,"addr:place":null,"name:ml":null,"name:en":null,"name":null,"tunnel":null,"layer":null},"geometry":{"type":"LineString","coordinates":[[76.9887666,8.5880481],[76.9892179,8.5878914],[76.9898612,8.5876994],[76.9903528,8.5876994],[76.990839,8.5875702],[76.991311,8.5876805],[76.9915085,8.5876253],[76.991663,8.5874513],[76.9918561,8.5871883],[76.9919293,8.5870829]]}},{"type":"Feature","properties":{"full_id":"w904934096","osm_id":"904934096","osm_type":"way","waterway":"stream","address":null,"addr:place":null,"name:ml":null,"name:en":null,"name":null,"tunnel":"culvert","layer":"-1"},"geometry":{"type":"LineString","coordinates":[[76.9886634,8.5880839],[76.9887666,8.5880481]]}},{"type":"Feature","properties":{"full_id":"w829269747","osm_id":"829269747","osm_type":"way","waterway":"stream","address":null,"addr:place":null,"name:ml":null,"name:en":null,"name":null,"tunnel":null,"layer":null},"geometry":{"type":"LineString","coordinates":[[76.9814197,8.6076108],[76.9815139,8.6075115],[76.9816297,8.607452],[76.9818379,8.6073608],[76.982031,8.6073099],[76.9822155,8.607276],[76.9824516,8.6072675],[76.9827413,8.6072399],[76.9828636,8.6071805],[76.9830502,8.6070744],[76.9831983,8.6069811],[76.9833292,8.6068983],[76.9834386,8.6068559],[76.9836275,8.6068474],[76.9837476,8.6068495],[76.9838549,8.6068325],[76.9839536,8.6067286],[76.9840931,8.6065779],[76.9843184,8.6064422],[76.9843935,8.6063552],[76.9845888,8.6063849],[76.9846596,8.6063594],[76.9847261,8.6062746],[76.9847883,8.6062406],[76.9848377,8.606247],[76.9849707,8.6063276],[76.985078,8.6063573],[76.9851488,8.606317],[76.9852132,8.606264],[76.9853441,8.6061536],[76.985593,8.6060285],[76.9858054,8.60595],[76.9859041,8.6058794],[76.9859599,8.6057033],[76.9858612,8.6056015],[76.9858526,8.6055378],[76.9858591,8.6054763],[76.9859191,8.6054254],[76.9860307,8.6054084],[76.986123,8.6053893],[76.9864277,8.6053193],[76.9865371,8.6052854],[76.9867453,8.6052854],[76.9867989,8.6052578],[76.986889,8.6051687],[76.9869083,8.6051029],[76.9869341,8.605035],[76.986992,8.6049947],[76.9870993,8.604965],[76.9872366,8.6049523],[76.9873525,8.6049204],[76.9874984,8.6048716],[76.9876636,8.6047889],[76.9878353,8.6047066],[76.9880385,8.6047905],[76.9881416,8.6049375],[76.9883509,8.6050875],[76.9884237,8.6050905],[76.9884965,8.6050455],[76.9886391,8.6049255],[76.9887968,8.6047726],[76.9889788,8.6045776],[76.9891183,8.6044577],[76.9893033,8.6043347],[76.9893267,8.6043175],[76.9893973,8.6042657],[76.9895278,8.6042357],[76.9897462,8.6041727],[76.9898463,8.6041158],[76.990189,8.6038818],[76.9903194,8.6037859],[76.9904165,8.6037079],[76.9904802,8.6035789],[76.9905045,8.603387],[76.9904741,8.6032281],[76.9904984,8.6029132],[76.9905227,8.6027902],[76.9905955,8.6026582],[76.9906713,8.6025263],[76.9907532,8.6024093],[76.9908593,8.6023253],[76.9909867,8.6022744],[76.9910656,8.6021994],[76.9911596,8.6020614],[76.9912385,8.6019834],[76.9913325,8.6019205],[76.9914963,8.6018425],[76.9915691,8.6017855],[76.9916298,8.6017225],[76.991648,8.6016506],[76.9916904,8.6015666],[76.9917299,8.6014856],[76.9918178,8.6014286],[76.9919391,8.6014196],[76.992109,8.6014196],[76.9923153,8.6014826],[76.9924639,8.6015456],[76.9926034,8.6016236],[76.9927369,8.6016775],[76.9928612,8.6016955],[76.9929431,8.6016805],[76.9931069,8.6016056],[76.9932707,8.6015336],[76.9934679,8.6013297],[76.9936013,8.6011527],[76.9937196,8.6010177],[76.9938804,8.6009248],[76.9940138,8.6008858],[76.9942474,8.6008498],[76.9947724,8.6007807]]}},{"type":"Feature","properties":{"full_id":"w904934093","osm_id":"904934093","osm_type":"way","waterway":"stream","address":null,"addr:place":null,"name:ml":null,"name:en":null,"name":null,"tunnel":null,"layer":null},"geometry":{"type":"LineString","coordinates":[[76.9921467,8.5869792],[76.9924413,8.5867773],[76.9928636,8.5864885],[76.9931117,8.5863324],[76.9934319,8.5860915],[76.9936394,8.5858328],[76.9937973,8.5856143],[76.9940138,8.585418],[76.9941221,8.5852664]]}},{"type":"Feature","properties":{"full_id":"w904934094","osm_id":"904934094","osm_type":"way","waterway":"stream","address":null,"addr:place":null,"name:ml":null,"name:en":null,"name":null,"tunnel":null,"layer":null},"geometry":{"type":"LineString","coordinates":[[76.9883222,8.5882023],[76.9886634,8.5880839]]}},{"type":"Feature","properties":{"full_id":"w904993597","osm_id":"904993597","osm_type":"way","waterway":"stream","address":null,"addr:place":null,"name:ml":null,"name:en":null,"name":null,"tunnel":null,"layer":null},"geometry":{"type":"LineString","coordinates":[[77.015091,8.6243392],[77.0153831,8.624186],[77.0157407,8.6242626],[77.0157884,8.6244129],[77.0159821,8.6246103],[77.0162265,8.6246604],[77.0163427,8.6247134],[77.0164738,8.6248166],[77.0165692,8.6249609],[77.0166944,8.6251318]]}},{"type":"Feature","properties":{"full_id":"w904934092","osm_id":"904934092","osm_type":"way","waterway":"stream","address":null,"addr:place":null,"name:ml":null,"name:en":null,"name":null,"tunnel":"culvert","layer":"-1"},"geometry":{"type":"LineString","coordinates":[[76.9876741,8.5875975],[76.9875228,8.5875285]]}},{"type":"Feature","properties":{"full_id":"w904934090","osm_id":"904934090","osm_type":"way","waterway":"stream","address":null,"addr:place":null,"name:ml":null,"name:en":null,"name":null,"tunnel":null,"layer":null},"geometry":{"type":"LineString","coordinates":[[76.9905475,8.5932913],[76.9905504,8.5929359],[76.9904927,8.5925398],[76.990388,8.5921687],[76.9897457,8.5916977],[76.9896717,8.5916555],[76.9892008,8.5913872],[76.9890744,8.5912659],[76.9889409,8.591059],[76.988876,8.5908235],[76.9887244,8.5906236],[76.9885115,8.5902811],[76.9883744,8.5900206],[76.9882589,8.5896852],[76.9881687,8.5894854],[76.9880604,8.5890286],[76.9880424,8.5888538],[76.9881946,8.5886111],[76.9883222,8.5882023],[76.9881487,8.5878996],[76.9878833,8.5876927],[76.9876741,8.5875975]]}},{"type":"Feature","properties":{"full_id":"w904992709","osm_id":"904992709","osm_type":"way","waterway":"stream","address":null,"addr:place":null,"name:ml":null,"name:en":null,"name":null,"tunnel":null,"layer":null},"geometry":{"type":"LineString","coordinates":[[76.9985568,8.6203131],[76.9982337,8.6202973]]}},{"type":"Feature","properties":{"full_id":"w904932963","osm_id":"904932963","osm_type":"way","waterway":"stream","address":null,"addr:place":null,"name:ml":null,"name:en":null,"name":null,"tunnel":null,"layer":null},"geometry":{"type":"LineString","coordinates":[[76.9574582,8.6026209],[76.9575467,8.6029774],[76.9573127,8.6034152],[76.9570154,8.6036153],[76.9566359,8.6038154],[76.9561742,8.6039405],[76.9556682,8.6039405],[76.9550041,8.6039155],[76.9546815,8.6039905],[76.9545297,8.604003],[76.9543905,8.6040218],[76.9542324,8.604028],[76.9540996,8.6040593],[76.9538846,8.6041469],[76.9536505,8.6042469],[76.9534165,8.6042719],[76.9531192,8.604053],[76.9529801,8.6039155],[76.9527208,8.6038404],[76.9525816,8.6037841],[76.9524931,8.6037278],[76.9517467,8.6040405],[76.9512787,8.6040843],[76.9507157,8.6041906],[76.9503236,8.6042282],[76.9500453,8.6042407],[76.9498745,8.6042407],[76.949729,8.6042657],[76.9495962,8.604347],[76.9494444,8.6045408],[76.9491598,8.6046784],[76.94897,8.6046909],[76.948544,8.6048424],[76.948461,8.6048757],[76.9483442,8.6049553],[76.9482612,8.6049758],[76.9480121,8.6049424],[76.9479083,8.6049091],[76.9477344,8.6048578],[76.9476202,8.6047782],[76.9474618,8.604616],[76.947345,8.6045133],[76.9472698,8.604421],[76.9473113,8.6042157],[76.9473243,8.6040233],[76.947288,8.6038924],[76.9472001,8.6037149],[76.9470884,8.6036255],[76.9469927,8.6035519],[76.9467083,8.6034284],[76.9465115,8.6034073],[76.9461393,8.60336],[76.9458389,8.6034441],[76.9458036,8.6034642]]}},{"type":"Feature","properties":{"full_id":"w904929150","osm_id":"904929150","osm_type":"way","waterway":"stream","address":null,"addr:place":null,"name:ml":null,"name:en":null,"name":null,"tunnel":"culvert","layer":"-1"},"geometry":{"type":"LineString","coordinates":[[77.0129104,8.5921558],[77.0128012,8.5921813]]}},{"type":"Feature","properties":{"full_id":"w904936271","osm_id":"904936271","osm_type":"way","waterway":"stream","address":null,"addr:place":null,"name:ml":null,"name:en":null,"name":null,"tunnel":"culvert","layer":"-1"},"geometry":{"type":"LineString","coordinates":[[76.982702,8.5893092],[76.9826606,8.5892078]]}},{"type":"Feature","properties":{"full_id":"w904936269","osm_id":"904936269","osm_type":"way","waterway":"stream","address":null,"addr:place":null,"name:ml":null,"name:en":null,"name":null,"tunnel":null,"layer":null},"geometry":{"type":"LineString","coordinates":[[76.9846083,8.5951383],[76.9845699,8.5951162]]}},{"type":"Feature","properties":{"full_id":"w904994659","osm_id":"904994659","osm_type":"way","waterway":"stream","address":null,"addr:place":null,"name:ml":null,"name:en":null,"name":null,"tunnel":null,"layer":null},"geometry":{"type":"LineString","coordinates":[[77.0175723,8.6246316],[77.0175967,8.6244527],[77.0176394,8.6243945],[77.0178345,8.6241734],[77.0180622,8.6239563],[77.018239,8.6238398],[77.0183427,8.6237976],[77.0183915,8.6237473],[77.0184748,8.6235162],[77.0185236,8.6234499],[77.0186801,8.6233514],[77.0189383,8.6233373],[77.0192107,8.6232951],[77.0193387,8.6232348],[77.0194078,8.6232288]]}},{"type":"Feature","properties":{"full_id":"w904994660","osm_id":"904994660","osm_type":"way","waterway":"stream","address":null,"addr:place":null,"name:ml":null,"name:en":null,"name":null,"tunnel":"culvert","layer":"-1"},"geometry":{"type":"LineString","coordinates":[[77.0175094,8.6246063],[77.0175723,8.6246316]]}},{"type":"Feature","properties":{"full_id":"w904994657","osm_id":"904994657","osm_type":"way","waterway":"stream","address":null,"addr:place":null,"name:ml":null,"name:en":null,"name":null,"tunnel":null,"layer":null},"geometry":{"type":"LineString","coordinates":[[77.0146745,8.627175],[77.0146798,8.6271718],[77.0148433,8.6270948],[77.0152325,8.6269819],[77.015435,8.6269313],[77.0155176,8.6268322],[77.0156788,8.6267816],[77.0158519,8.6266844],[77.0159659,8.6265348],[77.0160603,8.6263015],[77.0162412,8.6258932],[77.0163061,8.6257513],[77.0164024,8.6255025],[77.0165656,8.6252692],[77.0166944,8.6251318],[77.0169431,8.6250593],[77.0171574,8.6250107],[77.0173246,8.6249582],[77.0174543,8.6248474],[77.0175015,8.6247327],[77.0175094,8.6246063]]}},{"type":"Feature","properties":{"full_id":"w904934105","osm_id":"904934105","osm_type":"way","waterway":"stream","address":null,"addr:place":null,"name:ml":null,"name:en":null,"name":null,"tunnel":"culvert","layer":"-1"},"geometry":{"type":"LineString","coordinates":[[76.9919293,8.5870829],[76.9919895,8.5869963]]}},{"type":"Feature","properties":{"full_id":"w904936276","osm_id":"904936276","osm_type":"way","waterway":"stream","address":null,"addr:place":null,"name:ml":null,"name:en":null,"name":null,"tunnel":null,"layer":null},"geometry":{"type":"LineString","coordinates":[[76.9844628,8.5950547],[76.9841498,8.594875],[76.9838756,8.5946751],[76.9839622,8.5943183],[76.9844963,8.5939115],[76.9843591,8.5934263],[76.9844385,8.5930694],[76.9842148,8.5927412],[76.9839766,8.5923558],[76.9837474,8.5921932],[76.9836862,8.5917895],[76.9835075,8.5917138],[76.9832677,8.5914161],[76.9829615,8.5909317],[76.9830788,8.5905431],[76.9833085,8.5902706],[76.9829768,8.5897862],[76.9827981,8.589544],[76.982702,8.5893092]]}},{"type":"Feature","properties":{"full_id":"w904936277","osm_id":"904936277","osm_type":"way","waterway":"stream","address":null,"addr:place":null,"name:ml":null,"name:en":null,"name":null,"tunnel":"culvert","layer":"-1"},"geometry":{"type":"LineString","coordinates":[[76.9845699,8.5951162],[76.9844628,8.5950547]]}},{"type":"Feature","properties":{"full_id":"w904936272","osm_id":"904936272","osm_type":"way","waterway":"stream","address":null,"addr:place":null,"name:ml":null,"name:en":null,"name":null,"tunnel":null,"layer":null},"geometry":{"type":"LineString","coordinates":[[76.9844963,8.5939115],[76.9849344,8.5936128],[76.985517,8.5931867],[76.98613,8.5931507],[76.9864213,8.5931147],[76.9867551,8.5932828],[76.9869008,8.5933608],[76.9872771,8.5932828],[76.9875502,8.5931927],[76.9878051,8.5927727],[76.988151,8.5926767],[76.988582,8.5924066],[76.9890371,8.5920405],[76.989292,8.5920765],[76.9895227,8.5920225],[76.9896717,8.5916555]]}},{"type":"Feature","properties":{"full_id":"w1272938699","osm_id":"1272938699","osm_type":"way","waterway":"stream","address":null,"addr:place":null,"name:ml":null,"name:en":null,"name":null,"tunnel":null,"layer":null},"geometry":{"type":"LineString","coordinates":[[77.0042447,8.6083094],[77.0042262,8.6083698],[77.0041748,8.6085205],[77.0041349,8.6086511],[77.0039953,8.6089197],[77.0038857,8.6091439],[77.0038657,8.6092154],[77.0038757,8.6093189],[77.003928,8.6094495],[77.0039256,8.6096515],[77.0038932,8.6097624],[77.0038358,8.6098289],[77.0038261,8.6099284],[77.0036542,8.6099875],[77.0034573,8.6100319],[77.0028318,8.6102438],[77.002433,8.6104533],[77.0021428,8.6105943]]}},{"type":"Feature","properties":{"full_id":"w1272938700","osm_id":"1272938700","osm_type":"way","waterway":"stream","address":null,"addr:place":null,"name:ml":null,"name:en":null,"name":null,"tunnel":"culvert","layer":"-1"},"geometry":{"type":"LineString","coordinates":[[77.0042658,8.6082403],[77.0042447,8.6083094]]}},{"type":"Feature","properties":{"full_id":"w1272938697","osm_id":"1272938697","osm_type":"way","waterway":"stream","address":null,"addr:place":null,"name:ml":null,"name:en":null,"name":null,"tunnel":null,"layer":null},"geometry":{"type":"LineString","coordinates":[[77.0020521,8.6106384],[77.0018349,8.610744],[77.0015358,8.6109017],[77.0013236,8.6110741],[77.0012096,8.6112323]]}},{"type":"Feature","properties":{"full_id":"w1272938698","osm_id":"1272938698","osm_type":"way","waterway":"stream","address":null,"addr:place":null,"name:ml":null,"name:en":null,"name":null,"tunnel":"culvert","layer":"-1"},"geometry":{"type":"LineString","coordinates":[[77.0021428,8.6105943],[77.0020521,8.6106384]]}},{"type":"Feature","properties":{"full_id":"w839819950","osm_id":"839819950","osm_type":"way","waterway":"stream","address":null,"addr:place":null,"name:ml":null,"name:en":null,"name":null,"tunnel":null,"layer":null},"geometry":{"type":"LineString","coordinates":[[76.9703716,8.6208072],[76.9700627,8.6206991],[76.969737,8.6206347],[76.9695346,8.6205012],[76.9693322,8.6203072],[76.9691451,8.6200555],[76.9691206,8.6198705],[76.9690961,8.6195916],[76.9690807,8.6191004],[76.9691298,8.61897],[76.9691973,8.6186759],[76.9693292,8.6181725],[76.969415,8.617845],[76.9695254,8.617654],[76.9696665,8.6175721],[76.9698935,8.6174569],[76.9701725,8.6173174],[76.9703289,8.6172265],[76.9705559,8.6170566],[76.9708534,8.6169566],[76.9710312,8.6169445],[76.9712091,8.6169263],[76.9713809,8.6168959],[76.9714545,8.6168262],[76.9714667,8.6167201],[76.9715097,8.6165836],[76.9715771,8.6164411],[76.9716232,8.6164017],[76.9717857,8.6162743],[76.9719114,8.6161591],[76.9720617,8.6160166],[76.9721936,8.6159469],[76.9722887,8.6159074],[76.9723684,8.6158438],[76.9724665,8.615774],[76.9725432,8.6157043],[76.9726745,8.6155707],[76.9728563,8.6154189],[76.9730556,8.6152978],[76.9732178,8.6152222],[76.9733006,8.6152057],[76.9733958,8.6151524],[76.9735132,8.6151131]]}},{"type":"Feature","properties":{"full_id":"w839819952","osm_id":"839819952","osm_type":"way","waterway":"stream","address":null,"addr:place":null,"name:ml":null,"name:en":null,"name":null,"tunnel":null,"layer":null},"geometry":{"type":"LineString","coordinates":[[76.9740509,8.6215236],[76.9739207,8.6218959],[76.9738463,8.6221073]]}},{"type":"Feature","properties":{"full_id":"w839819938","osm_id":"839819938","osm_type":"way","waterway":"stream","address":null,"addr:place":null,"name:ml":null,"name:en":null,"name":null,"tunnel":null,"layer":null},"geometry":{"type":"LineString","coordinates":[[76.994264,8.5909546],[76.9944225,8.5910382],[76.9944719,8.5910452]]}},{"type":"Feature","properties":{"full_id":"w839819945","osm_id":"839819945","osm_type":"way","waterway":"stream","address":null,"addr:place":null,"name:ml":null,"name:en":null,"name":null,"tunnel":null,"layer":null},"geometry":{"type":"LineString","coordinates":[[76.9771786,8.6106824],[76.9773253,8.6107064],[76.9774791,8.610699],[76.9776896,8.6107053],[76.9778764,8.6107338],[76.9780741,8.6107972],[76.9781851,8.6108183],[76.9782811,8.6107634],[76.9785383,8.6107264],[76.9786803,8.6107476],[76.9787443,8.6107522],[76.9787951,8.610741],[76.9788847,8.6106315],[76.979081,8.6104209],[76.9791526,8.610351],[76.9791789,8.610181],[76.9793492,8.6098997],[76.9794763,8.6096885],[76.9795163,8.6095858],[76.9795608,8.6094654],[76.9796684,8.6093583],[76.9797722,8.6092571],[76.9799091,8.6091692],[76.980221,8.6090615],[76.9803582,8.6090157],[76.9804584,8.6089579],[76.980535,8.6088648],[76.9806656,8.6087965],[76.9807872,8.6087502],[76.9808993,8.608731],[76.9812897,8.6084715],[76.9813783,8.6084353],[76.9814707,8.6083858],[76.9815098,8.6083219],[76.9815293,8.6082533],[76.9815398,8.6081847],[76.9814946,8.6081051],[76.9814123,8.6079894],[76.9813537,8.6079312],[76.9813369,8.6078087],[76.981347,8.6077109],[76.9814197,8.6076108]]}},{"type":"Feature","properties":{"full_id":"w839819934","osm_id":"839819934","osm_type":"way","waterway":"stream","address":null,"addr:place":null,"name:ml":null,"name:en":null,"name":null,"tunnel":null,"layer":null},"geometry":{"type":"LineString","coordinates":[[77.0001431,8.5868789],[77.0001858,8.5866466],[77.0002125,8.5865198],[77.0004101,8.5861766],[77.0004315,8.585976],[77.0004315,8.5858176],[77.0003887,8.5855642],[77.0004101,8.5854586],[77.0003567,8.5854111],[77.0002392,8.5852738],[77.0001164,8.5850256],[77.000031,8.5848514],[76.9999936,8.584693],[77.0000103,8.5845871]]}},{"type":"Feature","properties":{"full_id":"w839819935","osm_id":"839819935","osm_type":"way","waterway":"stream","address":null,"addr:place":null,"name:ml":null,"name:en":null,"name":null,"tunnel":null,"layer":null},"geometry":{"type":"LineString","coordinates":[[76.9942959,8.590882],[76.9943848,8.5907197],[76.9944769,8.5905173],[76.9945116,8.5904411],[76.994649,8.5901311],[76.9946712,8.590004],[76.9946807,8.5899499],[76.994723,8.5898559],[76.99473,8.5897409],[76.9947723,8.5896329],[76.9948744,8.5895811]]}},{"type":"Feature","properties":{"full_id":"w1376653579","osm_id":"1376653579","osm_type":"way","waterway":"stream","address":null,"addr:place":null,"name:ml":null,"name:en":null,"name":null,"tunnel":null,"layer":null},"geometry":{"type":"LineString","coordinates":[[76.9994916,8.587292],[76.99968,8.5873198],[76.9998386,8.5873287],[77.0000111,8.5872639]]}},{"type":"Feature","properties":{"full_id":"w1376653580","osm_id":"1376653580","osm_type":"way","waterway":"stream","address":null,"addr:place":null,"name:ml":null,"name:en":null,"name":null,"tunnel":"culvert","layer":"-1"},"geometry":{"type":"LineString","coordinates":[[77.0000111,8.5872639],[77.0000938,8.5872328]]}},{"type":"Feature","properties":{"full_id":"w1376653577","osm_id":"1376653577","osm_type":"way","waterway":"stream","address":null,"addr:place":null,"name:ml":null,"name:en":null,"name":null,"tunnel":null,"layer":null},"geometry":{"type":"LineString","coordinates":[[77.0050261,8.5882729],[77.0048027,8.5878356],[77.0046645,8.5873926]]}},{"type":"Feature","properties":{"full_id":"w1376653578","osm_id":"1376653578","osm_type":"way","waterway":"stream","address":null,"addr:place":null,"name:ml":null,"name:en":null,"name":null,"tunnel":"culvert","layer":"-1"},"geometry":{"type":"LineString","coordinates":[[77.0050743,8.5883671],[77.0050261,8.5882729]]}},{"type":"Feature","properties":{"full_id":"w1376657779","osm_id":"1376657779","osm_type":"way","waterway":"stream","address":null,"addr:place":null,"name:ml":null,"name:en":null,"name":null,"tunnel":null,"layer":null},"geometry":{"type":"LineString","coordinates":[[76.9995618,8.6205459],[76.9994888,8.6205247],[76.9990821,8.6204304],[76.9985568,8.6203131]]}},{"type":"Feature","properties":{"full_id":"w839819978","osm_id":"839819978","osm_type":"way","waterway":"stream","address":null,"addr:place":null,"name:ml":null,"name:en":null,"name":null,"tunnel":null,"layer":null},"geometry":{"type":"LineString","coordinates":[[76.9707633,8.6085148],[76.9706619,8.6083192],[76.9706071,8.6081471],[76.9706192,8.6079725],[76.9707266,8.6077391],[76.9708848,8.6074524],[76.9710097,8.6071728],[76.9710325,8.6070065],[76.9710464,8.6069276],[76.9711538,8.6067453],[76.9713304,8.6065982],[76.9714878,8.60655],[76.9716646,8.6065227],[76.9717861,8.6065332],[76.9719235,8.6065769],[76.9720414,8.6065801],[76.9721532,8.6065247],[76.9722927,8.6064144],[76.9725689,8.6061365],[76.9727623,8.6060287],[76.9728729,8.6059538],[76.9730132,8.6057756],[76.9731106,8.6057187],[76.9732363,8.6056653],[76.9733179,8.605679],[76.9734965,8.6057274],[76.9736519,8.6057444],[76.9737481,8.6057316],[76.9738815,8.6056642],[76.9739983,8.6055938],[76.9740731,8.6055164],[76.9741611,8.6053955],[76.9741503,8.6052851],[76.9740824,8.6050402],[76.9740736,8.604908],[76.9740824,8.6047828],[76.9742125,8.6046219],[76.974448,8.6044148],[76.9745924,8.6043339],[76.9748819,8.6041164],[76.9749541,8.6040211],[76.9751005,8.6038189],[76.9752074,8.6037431],[76.9755513,8.6035464],[76.975573,8.6035234],[76.9756315,8.6034093],[76.9757163,8.6031873],[76.9757997,8.602962],[76.975861,8.6028107],[76.9759222,8.602722],[76.9760862,8.6025516],[76.9761886,8.6024562],[76.9763511,8.6023613],[76.9765114,8.6022469],[76.9766884,8.6020812],[76.9769433,8.6018484],[76.9771184,8.6016611],[76.9772502,8.6015672],[76.9774379,8.6014742],[76.9775368,8.60141],[76.9776514,8.6013316],[76.9777706,8.6013058],[76.9778622,8.6012286]]}},{"type":"Feature","properties":{"full_id":"w1376657780","osm_id":"1376657780","osm_type":"way","waterway":"stream","address":null,"addr:place":null,"name:ml":null,"name:en":null,"name":null,"tunnel":"culvert","layer":"-1"},"geometry":{"type":"LineString","coordinates":[[76.9996349,8.620567],[76.9995618,8.6205459]]}},{"type":"Feature","properties":{"full_id":"w839819979","osm_id":"839819979","osm_type":"way","waterway":"stream","address":null,"addr:place":null,"name:ml":null,"name:en":null,"name":null,"tunnel":"culvert","layer":"-1"},"geometry":{"type":"LineString","coordinates":[[76.9778622,8.6012286],[76.9778861,8.6011774],[76.9779376,8.6010965]]}},{"type":"Feature","properties":{"full_id":"w1376657776","osm_id":"1376657776","osm_type":"way","waterway":"stream","address":null,"addr:place":null,"name:ml":null,"name:en":null,"name":null,"tunnel":null,"layer":null},"geometry":{"type":"LineString","coordinates":[[76.9965841,8.6136665],[76.9968246,8.6134659]]}},{"type":"Feature","properties":{"full_id":"w839819975","osm_id":"839819975","osm_type":"way","waterway":"stream","address":null,"addr:place":null,"name:ml":null,"name:en":null,"name":null,"tunnel":null,"layer":null},"geometry":{"type":"LineString","coordinates":[[77.000031,8.5844554],[77.000047,8.5842548],[77.0000844,8.5840541],[77.0001324,8.5838852],[77.0001858,8.5837268]]}},{"type":"Feature","properties":{"full_id":"w1376657777","osm_id":"1376657777","osm_type":"way","waterway":"stream","address":null,"addr:place":null,"name:ml":null,"name:en":null,"name":null,"tunnel":"culvert","layer":"-1"},"geometry":{"type":"LineString","coordinates":[[76.9965841,8.6136665],[76.9965258,8.6137152]]}},{"type":"Feature","properties":{"full_id":"w839819976","osm_id":"839819976","osm_type":"way","waterway":"stream","address":null,"addr:place":null,"name:ml":null,"name:en":null,"name":null,"tunnel":"culvert","layer":"-1"},"geometry":{"type":"LineString","coordinates":[[77.0000103,8.5845871],[77.000031,8.5844554]]}},{"type":"Feature","properties":{"full_id":"w839819967","osm_id":"839819967","osm_type":"way","waterway":"stream","address":null,"addr:place":null,"name:ml":null,"name:en":null,"name":null,"tunnel":null,"layer":null},"geometry":{"type":"LineString","coordinates":[[76.9620126,8.6199789],[76.9620537,8.6198432],[76.9621215,8.6196421],[76.9622797,8.6191951],[76.9623513,8.6190983],[76.9623965,8.6187072],[76.9623701,8.6185955],[76.9623739,8.6182975],[76.9623777,8.6181597],[76.9624643,8.6180814],[76.9625924,8.6180442],[76.9629729,8.6179399],[76.963037,8.6178244],[76.9630671,8.6176754],[76.963052,8.6175674],[76.963037,8.6174929],[76.9629202,8.6173216],[76.962826,8.6171465],[76.9627243,8.6167629],[76.9626565,8.6166325],[76.9625736,8.6164947],[76.9626263,8.6161595],[76.9626941,8.6159881],[76.962777,8.6158391],[76.962776,8.6155456],[76.9627422,8.6154071],[76.9627404,8.6153321]]}},{"type":"Feature","properties":{"full_id":"w839819964","osm_id":"839819964","osm_type":"way","waterway":"stream","address":null,"addr:place":null,"name:ml":null,"name:en":null,"name":null,"tunnel":null,"layer":null},"geometry":{"type":"LineString","coordinates":[[76.9666684,8.6088243],[76.9663693,8.6084759],[76.9658994,8.608233],[76.9657927,8.6078529],[76.9659208,8.6073566],[76.9658781,8.6071137],[76.9663587,8.6066597],[76.9666256,8.6061001]]}},{"type":"Feature","properties":{"full_id":"w839819965","osm_id":"839819965","osm_type":"way","waterway":"stream","address":null,"addr:place":null,"name:ml":null,"name:en":null,"name":null,"tunnel":null,"layer":null},"geometry":{"type":"LineString","coordinates":[[76.9667111,8.6042417],[76.9664975,8.6040622],[76.96638,8.6039143],[76.9662839,8.603418],[76.9659849,8.603059],[76.9659528,8.6025944],[76.966081,8.6023621],[76.9659528,8.602077],[76.9659635,8.6016652],[76.9656431,8.6012323],[76.9653334,8.6010211]]}},{"type":"Feature","properties":{"full_id":"w839819963","osm_id":"839819963","osm_type":"way","waterway":"stream","address":null,"addr:place":null,"name:ml":null,"name:en":null,"name":null,"tunnel":null,"layer":null},"geometry":{"type":"LineString","coordinates":[[76.9779376,8.6010965],[76.9779682,8.6010721],[76.9780691,8.6011259],[76.9781603,8.6011446],[76.9782848,8.6011353],[76.9784059,8.6011015],[76.9785327,8.6010419],[76.9786939,8.600902],[76.978949,8.6006277]]}},{"type":"Feature","properties":{"full_id":"w839819958","osm_id":"839819958","osm_type":"way","waterway":"stream","address":null,"addr:place":null,"name:ml":null,"name:en":null,"name":null,"tunnel":null,"layer":null},"geometry":{"type":"LineString","coordinates":[[77.0026934,8.6222112],[77.0027589,8.6221372],[77.0027964,8.6220955],[77.0028666,8.6218757],[77.0029368,8.6217785],[77.0029368,8.6217415],[77.0028198,8.621716],[77.0026864,8.621716],[77.0025436,8.621716],[77.0024851,8.6217045],[77.0023915,8.6216883],[77.0021059,8.621679],[77.0020615,8.6216628],[77.002038,8.6215841],[77.0020217,8.6214777],[77.0020029,8.6213897],[77.0019772,8.6212116],[77.0018976,8.621156],[77.0018153,8.6210715],[77.0017038,8.6210439],[77.0014574,8.6209979],[77.0011506,8.620883],[77.000966,8.6206935],[77.000682,8.620642],[77.0003774,8.6206654],[77.0002767,8.6206808],[77.000128,8.6206867],[76.9997421,8.6205981],[76.9996349,8.620567]]}},{"type":"Feature","properties":{"full_id":"w857250532","osm_id":"857250532","osm_type":"way","waterway":"stream","address":null,"addr:place":null,"name:ml":null,"name:en":null,"name":null,"tunnel":null,"layer":null},"geometry":{"type":"LineString","coordinates":[[77.0064577,8.6030851],[77.0064163,8.6030697],[77.0063248,8.6030714],[77.0062903,8.6030868],[77.0062178,8.6031192],[77.0061539,8.6032028],[77.00604,8.6033104],[77.0059943,8.6034034],[77.0059986,8.6035407],[77.0059468,8.6037967],[77.0059175,8.6040305],[77.0058743,8.6042131],[77.0058553,8.6042711],[77.0058467,8.6043479],[77.0058346,8.6044725],[77.0058588,8.6045886],[77.0059037,8.6047797],[77.0059275,8.6050481],[77.005971,8.6052063],[77.0060314,8.6053326],[77.0061201,8.6054967],[77.006147,8.6056774],[77.006128,8.6058105],[77.0060797,8.605906],[77.0059951,8.6060101],[77.0058778,8.6061455],[77.0056603,8.6063327],[77.0050994,8.6069607],[77.0047007,8.6075716],[77.0044556,8.607872],[77.0043313,8.6080716],[77.0042812,8.6081672],[77.0042709,8.6082235],[77.0042658,8.6082403]]}},{"type":"Feature","properties":{"full_id":"w904972617","osm_id":"904972617","osm_type":"way","waterway":"stream","address":null,"addr:place":null,"name:ml":null,"name:en":null,"name":null,"tunnel":null,"layer":null},"geometry":{"type":"LineString","coordinates":[[76.9576168,8.6174244],[76.9576521,8.6174689],[76.9578108,8.6176433],[76.9579843,8.6177874],[76.9582074,8.6176771],[76.9583806,8.6176124],[76.9584845,8.6175439],[76.9586384,8.6175439],[76.9588192,8.6175668],[76.9589539,8.6176276],[76.9590347,8.6177189],[76.9590539,8.6179244],[76.9590138,8.6181821],[76.9590628,8.6188371],[76.9591364,8.6192131],[76.9591364,8.6196437],[76.9592468,8.6201773],[76.9594392,8.6202728],[76.9596361,8.6203251],[76.9598183,8.6203948],[76.9599593,8.6204587],[76.9601767,8.6204965],[76.9603912,8.6204877],[76.9606557,8.6203076],[76.9609201,8.6202031],[76.9613315,8.6198893],[76.9614461,8.6198225],[76.9616047,8.6198922],[76.9618692,8.6200404]]}},{"type":"Feature","properties":{"full_id":"w904972618","osm_id":"904972618","osm_type":"way","waterway":"stream","address":null,"addr:place":null,"name:ml":null,"name:en":null,"name":null,"tunnel":"culvert","layer":"-1"},"geometry":{"type":"LineString","coordinates":[[76.9575487,8.6173383],[76.9576168,8.6174244]]}}]}