{"type":"FeatureCollection","name":"WATER RIVER","crs":{"type":"name","properties":{"name":"urn:ogc:def:crs:OGC:1.3:CRS84"}},"features":[{"type":"Feature","properties":{"full_id":"w284639286","osm_id":"284639286","osm_type":"way","waterway":"river","tidal":"no","intermittent":"no","name:ml":null,"name:en":null,"name":"Killi River"},"geometry":{"type":"LineString","coordinates":[[76.9967239,8.619364],[76.9967909,8.6191961],[76.9969463,8.6188463],[76.9969869,8.6186927],[76.9969726,8.6185792],[76.9969367,8.6184799],[76.9968865,8.6183499],[76.996822,8.6182388],[76.9968076,8.6180994],[76.9968626,8.6179883],[76.9969726,8.6179056],[76.997128,8.6178441],[76.9972905,8.6177968],[76.9973216,8.6177023],[76.997336,8.6176125],[76.997336,8.6174943],[76.9972881,8.6173808],[76.997171,8.6172485],[76.9969965,8.6171563],[76.9968985,8.6170617],[76.9967526,8.6169435],[76.9966427,8.6166268],[76.996614,8.6164968],[76.9966594,8.6161446],[76.9966953,8.6159792],[76.996865,8.6157381],[76.9970658,8.6152984],[76.9972953,8.6147855],[76.997324,8.6145633],[76.9973073,8.6143293],[76.9971734,8.6140433],[76.9969269,8.6137558],[76.9968492,8.6135887],[76.9968246,8.6134659],[76.9968089,8.6133872],[76.9967741,8.6131432],[76.9967446,8.6129788],[76.9966239,8.6127295],[76.9964898,8.6124642],[76.996471,8.6123714],[76.9966319,8.611955],[76.9966963,8.6118807],[76.9971388,8.6117455],[76.9973585,8.6114921],[76.9973642,8.6112947],[76.9972151,8.6109796],[76.9971415,8.6108916],[76.9970517,8.6107483],[76.9969672,8.6106277],[76.9969203,8.6105004],[76.9968894,8.6103068],[76.9969242,8.6101145],[76.9970155,8.6098718],[76.9971469,8.6095258],[76.997399,8.60925],[76.9977075,8.6087488],[76.9977745,8.608335],[76.9978014,8.60816],[76.9978899,8.6080486],[76.9982841,8.607924],[76.9984585,8.6077543],[76.9985577,8.6075554],[76.9987133,8.6070037],[76.9989547,8.606362],[76.9989681,8.6062108],[76.9988769,8.6061445],[76.9986811,8.6061498],[76.9983994,8.6061418],[76.9981608,8.6060755],[76.9979972,8.6060331],[76.9977611,8.6059827],[76.9976579,8.6059231],[76.9975707,8.6058369],[76.997517,8.6056539],[76.9975224,8.605463],[76.9976692,8.6051725],[76.9978899,8.6047946],[76.9979301,8.6045586],[76.9978738,8.6043968],[76.9976726,8.6042907],[76.9974151,8.6042165],[76.9970262,8.6040308],[76.996618,8.6037117],[76.9964817,8.6034925],[76.9964061,8.6032555],[76.9963141,8.6029084],[76.9962001,8.6026969],[76.9960364,8.6025567],[76.99596,8.6024807],[76.9959112,8.602395],[76.9957897,8.6020604],[76.9955847,8.601657],[76.9954894,8.6015783],[76.9953894,8.6015576],[76.9949582,8.6015857],[76.9947758,8.6015538],[76.994741,8.6014902],[76.9947114,8.6013337],[76.9946979,8.6010752],[76.9947724,8.6007807],[76.9950074,8.6004064],[76.9950698,8.6002304],[76.9950933,8.6000298],[76.9951024,8.5997036],[76.9950711,8.5995475],[76.9950025,8.5994002],[76.994928,8.599136],[76.995223,8.5986646],[76.9951729,8.5985729],[76.9950876,8.5984636],[76.9949917,8.5984191],[76.994966,8.5983586],[76.9949448,8.5982324],[76.9949051,8.5981035],[76.9948809,8.5977483],[76.9948366,8.5975763],[76.9947328,8.5974557],[76.9946925,8.59737],[76.9946873,8.5972704],[76.9947222,8.5971223],[76.9948789,8.5968641],[76.9952738,8.5967399],[76.9955972,8.5964752],[76.9956491,8.5962975],[76.9956841,8.5961567],[76.9957044,8.5960468],[76.9957252,8.595963],[76.9957884,8.5958617],[76.9958552,8.5957929],[76.9959538,8.5957854],[76.9960413,8.5958123],[76.9961047,8.5958135],[76.9961325,8.5957915],[76.9961349,8.5956041],[76.9961105,8.5955662],[76.9959735,8.59544],[76.99585,8.5952852],[76.9957841,8.595199],[76.9957376,8.5951198],[76.9957133,8.5950205],[76.9957283,8.5949094],[76.9957755,8.594802],[76.995812,8.5947035],[76.9958481,8.5945488],[76.9957489,8.5944419],[76.9956301,8.5943612],[76.9955324,8.5942845],[76.9954099,8.594206],[76.9953567,8.5941472],[76.995284,8.5940604],[76.9951954,8.5938763],[76.9951207,8.5938267],[76.9950119,8.5937721],[76.9949172,8.5936544],[76.9948287,8.5935341],[76.9947892,8.5934677],[76.9949287,8.5931866],[76.994963,8.593061],[76.9949426,8.5929135],[76.9949234,8.5928182],[76.9948706,8.5927234],[76.9948319,8.5926387],[76.9947547,8.5924411],[76.994717,8.5923499],[76.9946286,8.5921743],[76.9945777,8.5920434],[76.9945947,8.5918792],[76.9946004,8.5918562],[76.994644,8.5916785],[76.9946934,8.5914858],[76.9947352,8.5913456],[76.9948643,8.5913422],[76.9949432,8.5913267],[76.9950221,8.5912791],[76.9950905,8.5912001],[76.9951039,8.5910688],[76.9950922,8.5909903],[76.9950438,8.5908435],[76.9949918,8.5906422],[76.9949853,8.5903484],[76.9950291,8.5902152],[76.9950445,8.5900458],[76.9950304,8.5899442],[76.9950227,8.5898416],[76.9949947,8.5897218],[76.9949909,8.5896884],[76.994981,8.5896],[76.9949995,8.5894323],[76.9950391,8.5893714],[76.995374,8.5893145],[76.9955071,8.5892528],[76.9955853,8.589112],[76.9955456,8.588975],[76.9953251,8.5887036],[76.9953149,8.5885613],[76.9954187,8.5883168],[76.9954835,8.5882376],[76.995506,8.5881619],[76.9954442,8.5880129],[76.9953612,8.5878884],[76.9952385,8.5876661],[76.9951521,8.5874915],[76.9951125,8.5873532],[76.9951292,8.5872597],[76.9951406,8.58721],[76.9951782,8.5871331],[76.9954665,8.5869209],[76.9955679,8.5868577],[76.9955867,8.5867648],[76.9955733,8.5866746],[76.9955304,8.5864533],[76.995483,8.5862541],[76.9954611,8.5860762],[76.9955107,8.5858176],[76.9956221,8.5855723],[76.995638,8.5855163],[76.9957355,8.5851736],[76.9958012,8.5849707],[76.9958776,8.5846829],[76.9959166,8.5843793],[76.9959019,8.5841578],[76.9956459,8.5838347],[76.9954142,8.5836416],[76.9951218,8.5835222],[76.9948936,8.5834475],[76.9948208,8.5834281]]}}]}